Name,Street,Postal,Locality,Region,Phone,Mobile,Fax,Website,Products,Service,Keyword,Facilities,Categories,Thursday,Friday,Saturday,Sunday,Monday,Tuesday,Wednesday,URL
Powerfresh Cleaning Services,83 JENNINGS WAY ,HP3 9XQ,Hemel Hempstead ,Hertfordshire England,01442 260300,NA,NA,,NA,"Carpet Cleaning, Upholstery Cleaning, Stain Removal",NA,NA,"Upholstery Cleaners, Carpet Cleaners, Carpet Cleaning Companies",NA,NA,NA,NA,NA,NA,NA,https://api.scraperapi.com/?url=https%3A%2F%2Fhemel-hempstead.cylex-uk.co.uk%2Fcompany%2Fpowerfresh-cleaning-services-17955480.html&api_key=adc3d866682a18dad67c04d3bcbc7f1c&scraper_sdk=python
Cheap Web Solutions,"6 Acorn Lane, ",CF82 8FS,Hengoed ,,07923 844825,NA,NA,http://WWW.CHEAPWEBSOLUTIONS.CO.UK,NA,NA,"Website Designers, Web Consultants",NA,"Web Consultant, Website Designer, Internet Service Provider, Internet Marketing Agency, Internet Hosting",NA,NA,NA,NA,NA,NA,NA,https://api.scraperapi.com/?url=https%3A%2F%2Fhengoed.cylex-uk.co.uk%2Fcompany%2Fcheap-web-solutions-26887523.html&api_key=adc3d866682a18dad67c04d3bcbc7f1c&scraper_sdk=python
BE Marketing and SEO,"2a Grove Avenue, Llanfoist, ",NP7 9NB,Abergavenny ,Monmouthshire Wales,01873 850383,07724 743732,NA,barrieevansmarketing.com,NA,"The areas covered specifically are:
South Wales,  UK
South West England,  UK
Cardiff
Swansea
Newport
Bristol
Exeter
Plymouth
Swindon
Birmingham","Web Design, Website Design, Marketing, Web Design Agency, Marketing Consultants, Digital Marketing, Internet Marketing, Web Design and Development, Marketing Specialist, Public Figure, Business Opportunities, Local Search Optimization, Local Business Online Branding, Local Business Start up",NA,NA,09:00 - 17:00,09:00 - 17:00,09:00 - 12:30,Closed,09:00 - 17:00,09:00 - 17:00,09:00 - 17:00,https://api.scraperapi.com/?url=https%3A%2F%2Fabergavenny.cylex-uk.co.uk%2Fcompany%2Fbe-marketing-and-seo-23491546.html&api_key=adc3d866682a18dad67c04d3bcbc7f1c&scraper_sdk=python
Hobbs Carpet Cleaning Services,"1, Newell Road, ",HP3 9PD,Hemel Hempstead ,Hertfordshire England,01442 800135,07860 104716,NA,www.hobbscarpetcleaning.co.uk,NA,Carpet Cleaning,NA,NA,Upholstery Cleaners,NA,NA,NA,NA,NA,NA,NA,https://api.scraperapi.com/?url=https%3A%2F%2Fhemel-hempstead.cylex-uk.co.uk%2Fcompany%2Fhobbs-carpet-cleaning-services-17719101.html&api_key=adc3d866682a18dad67c04d3bcbc7f1c&scraper_sdk=python
Up And Coming,The Voluntary Action Centre;89-90 Pontmorlais ,CF47 8UH,Merthyr Tydfil ,Merthyr Tydfil Wales,01685 353999,07946 612307,01685 353990,www.smt.org.uk,NA,NA,"Youth Organisations, Public & Government Services, Other",NA,NA,Open 24 Hours,Open 24 Hours,Open 24 Hours,Open 24 Hours,Open 24 Hours,Open 24 Hours,Open 24 Hours,https://api.scraperapi.com/?url=https%3A%2F%2Fmerthyr-tydfil.cylex-uk.co.uk%2Fcompany%2Fup-and-coming-23783189.html&api_key=adc3d866682a18dad67c04d3bcbc7f1c&scraper_sdk=python
Scotus Tours Ltd,6 Atholl Crescent,PH1 5JN,Perth ,Perth and Kinross Scotland,NA,NA,NA,,NA,NA,Tour Operator,NA,NA,NA,NA,NA,NA,NA,NA,NA,https://api.scraperapi.com/?url=https%3A%2F%2Fperth.cylex-uk.co.uk%2Fcompany%2Fscotus-tours-ltd-20782682.html&api_key=adc3d866682a18dad67c04d3bcbc7f1c&scraper_sdk=python
Warrens Warehousing & Distribution Midlands Ltd,Unit 1a Station Road,BL6 5BN,Bolton ,Greater Manchester England,01204 692204,NA,NA,www.warrensgroup.com,NA,NA,Distribution,NA,NA,07:00 - 24:00,07:00 - 24:00,07:00 - 24:00,07:00 - 24:00,07:00 - 24:00,07:00 - 24:00,07:00 - 24:00,https://api.scraperapi.com/?url=https%3A%2F%2Fbolton.cylex-uk.co.uk%2Fcompany%2Fwarrens-warehousing---distribution-midlands-ltd-23795561.html&api_key=adc3d866682a18dad67c04d3bcbc7f1c&scraper_sdk=python
Vista Travel Services Ltd,28 York Place ,PH2 8EH,Perth ,Perth and Kinross Scotland,0808 189 0640,NA,NA,www.playbettergolf-algarve.com,NA,NA,Tour Operator,NA,NA,Open 24 Hours,Open 24 Hours,Open 24 Hours,Open 24 Hours,Open 24 Hours,Open 24 Hours,Open 24 Hours,https://api.scraperapi.com/?url=https%3A%2F%2Fperth.cylex-uk.co.uk%2Fcompany%2Fvista-travel-services-ltd-20926555.html&api_key=adc3d866682a18dad67c04d3bcbc7f1c&scraper_sdk=python
Vw Warehouse Limited,168 LEE LANE ,BL6 7AF,Horwich ,Greater Manchester England,NA,NA,NA,,NA,NA,"Business Advice, Business Services",NA,NA,NA,NA,NA,NA,NA,NA,NA,https://api.scraperapi.com/?url=https%3A%2F%2Fhorwich.cylex-uk.co.uk%2Fcompany%2Fvw-warehouse-limited-20929619.html&api_key=adc3d866682a18dad67c04d3bcbc7f1c&scraper_sdk=python
Reflex Advertising Ltd,"Suite 4A, Riverside Business Centre, North Esplanade West ",AB11 5RJ,Aberdeen ,Aberdeen City Scotland,01224 577133,01224 577139,NA,,Promotional Goods,Advertising,"Advertising Agency, Internet Advertising, Multimedia Advertising, Web Advertising, Print Advertising, Banner Advertising, Advertising Specialist, Agency",NA,NA,NA,NA,NA,NA,NA,NA,NA,https://api.scraperapi.com/?url=https%3A%2F%2Faberdeen.cylex-uk.co.uk%2Fcompany%2Freflex-advertising-ltd-17080320.html&api_key=adc3d866682a18dad67c04d3bcbc7f1c&scraper_sdk=python
ADVENIO LTD,10 CARDEN PLACE ,AB10 1UR,Aberdeen ,Aberdeen City Scotland,NA,NA,NA,,NA,NA,"Advertising Agency, Management Consultants, Business Consultants",NA,NA,NA,NA,NA,NA,NA,NA,NA,https://api.scraperapi.com/?url=https%3A%2F%2Faberdeen.cylex-uk.co.uk%2Fcompany%2Fadvenio-ltd-20747653.html&api_key=adc3d866682a18dad67c04d3bcbc7f1c&scraper_sdk=python
Active4all,10 HOLMWOOD AVENUE ,G71 7AJ,Uddingston ,North Lanarkshire Scotland,0300 011 2014,0300 111 2014,NA,www.active4all.info,NA,"charitable donations, Disabled Persons Charity, disabled charities, charity volunteers (disclosure dependent), health charities, children's charities","Amusement and Recreation Services, Leisure, Charitable & Voluntary Organisations, Charity Volunteers Disclosure Dependent",NA,NA,NA,NA,NA,NA,NA,NA,NA,https://api.scraperapi.com/?url=https%3A%2F%2Fuddingston.cylex-uk.co.uk%2Fcompany%2Factive4all-22240068.html&api_key=adc3d866682a18dad67c04d3bcbc7f1c&scraper_sdk=python
The Marketing Mix Limited,28 Albyn Place ,AB10 1YL,Aberdeen ,Aberdeen City Scotland,NA,NA,NA,,NA,Design Services,"Advertising Agency, Public Relations, Business Support, Business Advice, Design Consultants, Industrial Design",NA,NA,NA,NA,NA,NA,NA,NA,NA,https://api.scraperapi.com/?url=https%3A%2F%2Faberdeen.cylex-uk.co.uk%2Fcompany%2Fthe-marketing-mix-limited-22249778.html&api_key=adc3d866682a18dad67c04d3bcbc7f1c&scraper_sdk=python
Motherwell BHF Shop,74 Brandon Parade East ,ML1 1LY,Motherwell ,North Lanarkshire Scotland,01698 253894,NA,NA,www.bhf.org.uk,"Bike Accessories, Clothing, Cycling Kit, Exercise Equipment, Pedometers, Personalised gifts, Pin badges, T-Shirts, Walking Gear, Books","Event volunteering, Heart disease awareness campaigns, Fundraising, Fundraising volunteering, Heart research, Heart disease prevention","Heart Charity, Charity Shops",NA,NA,09:30 - 05:00,09:30 - 05:00,09:30 - 05:00,Closed,09:30 - 05:00,09:30 - 05:00,09:30 - 05:00,https://api.scraperapi.com/?url=https%3A%2F%2Fmotherwell.cylex-uk.co.uk%2Fcompany%2Fmotherwell-bhf-shop-25796338.html&api_key=adc3d866682a18dad67c04d3bcbc7f1c&scraper_sdk=python
Equals Advocacy Partnership,101 Park Street ,ML1 1PF,Motherwell ,North Lanarkshire Scotland,01698 327772,01698 327773,NA,equalsadvocacy.org,NA,"Independent Professional Advocacy Service, Volunteer Advocacy Service, Advocacy Training, Hartwoodhill Advocacy Project, Dementia Advocacy Project, Hospital Outreach Surgeries","Voluntary Organisations, Charitable & Voluntary Organisations, Associations",NA,NA,NA,NA,NA,NA,NA,NA,NA,https://api.scraperapi.com/?url=https%3A%2F%2Fmotherwell.cylex-uk.co.uk%2Fcompany%2Fequals-advocacy-partnership-17094118.html&api_key=adc3d866682a18dad67c04d3bcbc7f1c&scraper_sdk=python
Nch Scotland Caps Project,"PARK HOUSE, 10 PARK CIRCUS PLACE ",G3 6AN,Glasgow ,Glasgow City Scotland,0141 331 0585,0141 333 1097,NA,,NA,NA,"Charities, Voluntary Organisations, Volunteering, Charity Projects, Charities & Voluntary Organisations, Adoption, Fostering, Non-Profit Organisation, Adoption and Fostering",NA,NA,NA,NA,NA,NA,NA,NA,NA,https://api.scraperapi.com/?url=https%3A%2F%2Fglasgow.cylex-uk.co.uk%2Fcompany%2Fnch-scotland-caps-project-17161836.html&api_key=adc3d866682a18dad67c04d3bcbc7f1c&scraper_sdk=python
BRITISH HEART FOUNDATION,48-52 Brandon Parade East ,ML1 1LY,Motherwell ,North Lanarkshire Scotland,01698 253894,0844 248 9152,NA,www.bhf.org.uk,"bike accessories, clothing, cycling kit, exercise equipment, pedometers, personalised gifts, pin badges, t-shirts, walking gear, books","event volunteering, heart disease awareness campaigns, fundraising, fundraising volunteering, heart research, heart disease prevention","Heart Charity, Charity Shops",NA,NA,09:00 - 17:00,09:00 - 17:00,09:00 - 17:00,Closed,09:00 - 17:00,09:00 - 17:00,09:00 - 17:00,https://api.scraperapi.com/?url=https%3A%2F%2Fmotherwell.cylex-uk.co.uk%2Fcompany%2Fbritish-heart-foundation-17086478.html&api_key=adc3d866682a18dad67c04d3bcbc7f1c&scraper_sdk=python
Workwear Uniforms,"Unit 9, Block 7, Roseberry Lane ",ML6 8QH,Airdrie ,North Lanarkshire Scotland,01236 884944,01236 550008,NA,workwear-uniforms.co.uk,Workwear,NA,"Workwear and Uniforms, Embroidered Workwear, Workwear Suppliers, Embroidered Polo Shirts, Embroidered Shirts",NA,NA,09:00 - 17:00,09:00 - 17:00,Closed,Closed,09:00 - 17:00,09:00 - 17:00,09:00 - 17:00,https://api.scraperapi.com/?url=https%3A%2F%2Fairdrie.cylex-uk.co.uk%2Fcompany%2Fworkwear-uniforms-19648249.html&api_key=adc3d866682a18dad67c04d3bcbc7f1c&scraper_sdk=python
TAHA 2015 LTD,16 Market Place ,IP17 1AG,Saxmundham ,Suffolk England,NA,NA,NA,,NA,NA,Takeaway,NA,NA,NA,NA,NA,NA,NA,NA,NA,https://api.scraperapi.com/?url=https%3A%2F%2Fsaxmundham.cylex-uk.co.uk%2Fcompany%2Ftaha-2015-ltd-25145802.html&api_key=adc3d866682a18dad67c04d3bcbc7f1c&scraper_sdk=python
Nowselect Limited,THE ROOKERY ,IP12 2RR,Eyke ,Suffolk England,01394 432503,NA,NA,,NA,NA,"Wine Wholesalers, Beer Wholesalers, Alcoholic Beverage Wholesalers, Alcoholic Beverages Wholesale",NA,NA,NA,NA,NA,NA,NA,NA,NA,https://api.scraperapi.com/?url=https%3A%2F%2Feyke.cylex-uk.co.uk%2Fcompany%2Fnowselect-limited-21842155.html&api_key=adc3d866682a18dad67c04d3bcbc7f1c&scraper_sdk=python
Zorbas Kebab Shop,24 Market Pl ,IP17 1AG,Saxmundham ,Suffolk England,01728 604694,NA,NA,zorbastakeaway-saxmundham.co.uk/?utm_source=gmbwebsite&utm_medium=organic&utm_campaign=google%20my%20business&utm_term=discount&utm_content=10,NA,NA,"Takeaway, Kebab House",NA,NA,12:00 - 23:00,12:00 - 23:00,12:00 - 23:00,12:00 - 22:00,12:00 - 23:00,12:00 - 23:00,12:00 - 23:00,https://api.scraperapi.com/?url=https%3A%2F%2Fsaxmundham.cylex-uk.co.uk%2Fcompany%2Fzorbas-kebab-shop-16566669.html&api_key=adc3d866682a18dad67c04d3bcbc7f1c&scraper_sdk=python
Ashvale Court (Tredegar) Management Limited,"OLD BANK CHAMBERS, 51 HIGH STREET ",IP16 4EL,Leiston ,Suffolk England,NA,NA,NA,,NA,NA,"Property Management, Residents Property Management",NA,NA,NA,NA,NA,NA,NA,NA,NA,https://api.scraperapi.com/?url=https%3A%2F%2Fleiston.cylex-uk.co.uk%2Fcompany%2Fashvale-court--tredegar--management-limited-21051823.html&api_key=adc3d866682a18dad67c04d3bcbc7f1c&scraper_sdk=python
Exchange House Freehold Limited,51 HIGH STREET ,IP16 4EL,Leiston ,Suffolk England,NA,NA,NA,,NA,NA,"Property Management, Residents Property Management",NA,NA,NA,NA,NA,NA,NA,NA,NA,https://api.scraperapi.com/?url=https%3A%2F%2Fleiston.cylex-uk.co.uk%2Fcompany%2Fexchange-house-freehold-limited-21321409.html&api_key=adc3d866682a18dad67c04d3bcbc7f1c&scraper_sdk=python
Aspex Residents Association Limited,"OLD BANK CHAMBERS, 51 HIGH STREET ",IP16 4EL,Leiston ,Suffolk England,NA,NA,NA,,NA,NA,"Property Management, Residents Property Management",NA,NA,NA,NA,NA,NA,NA,NA,NA,https://api.scraperapi.com/?url=https%3A%2F%2Fleiston.cylex-uk.co.uk%2Fcompany%2Faspex-residents-association-limited-21053020.html&api_key=adc3d866682a18dad67c04d3bcbc7f1c&scraper_sdk=python
Turnkey East Anglia Limited,"UNIT 10 LEISTON ENTERPRISE CENTRE, EASTLANDS INDUSTRIAL ESTATE ",IP16 4US,Leiston ,Suffolk England,NA,NA,NA,,NA,NA,"Property Management, Real Estate Management, Real Estate",NA,NA,NA,NA,NA,NA,NA,NA,NA,https://api.scraperapi.com/?url=https%3A%2F%2Fleiston.cylex-uk.co.uk%2Fcompany%2Fturnkey-east-anglia-limited-22924031.html&api_key=adc3d866682a18dad67c04d3bcbc7f1c&scraper_sdk=python
Aldringham House Limited,"7 ALDRINGHAM HOUSE, ALDEBURGH ROAD ",IP16 4PT,Aldringham ,Suffolk England,01775 722407,NA,NA,,NA,NA,"Property Management, Real Estate Management, Real Estate",NA,NA,NA,NA,NA,NA,NA,NA,NA,https://api.scraperapi.com/?url=https%3A%2F%2Faldringham.cylex-uk.co.uk%2Fcompany%2Faldringham-house-limited-21017104.html&api_key=adc3d866682a18dad67c04d3bcbc7f1c&scraper_sdk=python
Waterloo Mews Management Company Limited,"UNIT 10 LEISTON ENTERPRISE CENTRE, EASTLANDS INDUSTRIAL ESTATE ",IP16 4US,Leiston ,Suffolk England,NA,NA,NA,,NA,NA,"Property Management, Residents Property Management",NA,NA,NA,NA,NA,NA,NA,NA,NA,https://api.scraperapi.com/?url=https%3A%2F%2Fleiston.cylex-uk.co.uk%2Fcompany%2Fwaterloo-mews-management-company-limited-22947619.html&api_key=adc3d866682a18dad67c04d3bcbc7f1c&scraper_sdk=python
THREE SIXTY PROPERTY SOLUTIONS LTD,"Unit 10, Leiston Enterprise Centre Eastlands Industrial Estate ",IP16 4US,Leiston ,Suffolk England,NA,NA,NA,,NA,NA,"Property Management, Real Estate Management",NA,NA,NA,NA,NA,NA,NA,NA,NA,https://api.scraperapi.com/?url=https%3A%2F%2Fleiston.cylex-uk.co.uk%2Fcompany%2Fthree-sixty-property-solutions-ltd-25192235.html&api_key=adc3d866682a18dad67c04d3bcbc7f1c&scraper_sdk=python
Subway,"Nacton Rd, ",IP3 9QJ,Ipswich ,Suffolk England,01473 718109,NA,NA,http://www.subway.com,NA,NA,"Restaurants, Fast Food Restaurants, Sandwich Restaurants, Take-out Restaurants",NA,"Subway, Sandwich Restaurant, Fast Food Restaurant, Restaurant, Take Out Restaurant",07:00 - 20:00,07:00 - 21:00,08:00 - 21:00,09:00 - 20:00,07:00 - 20:00,07:00 - 20:00,07:00 - 20:00,https://api.scraperapi.com/?url=https%3A%2F%2Fipswich.cylex-uk.co.uk%2Fcompany%2Fsubway-18896982.html&api_key=adc3d866682a18dad67c04d3bcbc7f1c&scraper_sdk=python
Leiston Court Freehold Limited,152 King Georges Avenue,IP16 4JR,Leiston ,Suffolk England,NA,NA,NA,,NA,NA,"Property Management, Residents Property Management",NA,NA,NA,NA,NA,NA,NA,NA,NA,https://api.scraperapi.com/?url=https%3A%2F%2Fleiston.cylex-uk.co.uk%2Fcompany%2Fleiston-court-freehold-limited-21727226.html&api_key=adc3d866682a18dad67c04d3bcbc7f1c&scraper_sdk=python
Harewood Estates Limited,"WYNDHAM HOUSE, WENTWORTH ROAD ",IP15 5BB,Aldeburgh ,Suffolk England,NA,NA,NA,,NA,NA,Property Developers,NA,Building Companies,NA,NA,NA,NA,NA,NA,NA,https://api.scraperapi.com/?url=https%3A%2F%2Faldeburgh.cylex-uk.co.uk%2Fcompany%2Fharewood-estates-limited-21416186.html&api_key=adc3d866682a18dad67c04d3bcbc7f1c&scraper_sdk=python
Cinnamon,147 Spring Road ,IP4 5NH,Ipswich ,Suffolk England,01473 290190,NA,NA,www.cinnamon-ipswich.co.uk,NA,NA,"Takeaway, Sandwich Shop, Takeaway Food",NA,NA,17:00 - 23:00,17:00 - 23:00,17:00 - 23:00,17:00 - 23:00,17:00 - 23:00,17:00 - 23:00,17:00 - 23:00,https://api.scraperapi.com/?url=https%3A%2F%2Fipswich.cylex-uk.co.uk%2Fcompany%2Fcinnamon-23791585.html&api_key=adc3d866682a18dad67c04d3bcbc7f1c&scraper_sdk=python
Mantins,82 High Street ,IP18 6DP,Southwold ,Suffolk England,01502 724750,01502 797930,NA,www.mantins.co.uk,NA,"Legal Services, Legal Advice, Will Services","Notarial Services, Property Services",NA,Solicitors,NA,NA,NA,NA,NA,NA,NA,https://api.scraperapi.com/?url=https%3A%2F%2Fsouthwold.cylex-uk.co.uk%2Fcompany%2Fmantins-23653421.html&api_key=adc3d866682a18dad67c04d3bcbc7f1c&scraper_sdk=python
Cooper & Harrisson,73 High Street ,IP18 6DS,Southwold ,Suffolk England,01502 723308,NA,NA,www.margary-miller.co.uk,NA,NA,NA,NA,Solicitors,NA,NA,NA,NA,NA,NA,NA,https://api.scraperapi.com/?url=https%3A%2F%2Fsouthwold.cylex-uk.co.uk%2Fcompany%2Fcooper---harrisson-17270610.html&api_key=adc3d866682a18dad67c04d3bcbc7f1c&scraper_sdk=python
Gorse Developments Limited,"TELEGRAPH BARN, WARREN HILL LANE ",IP15 5QB,Aldeburgh ,Suffolk England,NA,NA,NA,,NA,NA,Property Developers,NA,Building Companies,NA,NA,NA,NA,NA,NA,NA,https://api.scraperapi.com/?url=https%3A%2F%2Faldeburgh.cylex-uk.co.uk%2Fcompany%2Fgorse-developments-limited-21391149.html&api_key=adc3d866682a18dad67c04d3bcbc7f1c&scraper_sdk=python
The Light House Residents Company Limited,"CROSS CORNER, 16 WENTWORTH ROAD ",IP15 5BB,Aldeburgh ,Suffolk England,NA,NA,NA,,NA,NA,"Property Management, Business Organisations",NA,NA,NA,NA,NA,NA,NA,NA,NA,https://api.scraperapi.com/?url=https%3A%2F%2Faldeburgh.cylex-uk.co.uk%2Fcompany%2Fthe-light-house-residents-company-limited-21673053.html&api_key=adc3d866682a18dad67c04d3bcbc7f1c&scraper_sdk=python
Coates Broughton Attwell,"BRIDGE HOUSE, BRIDGE STREET ",IP13 9AJ,Framlingham ,Suffolk England,01728 723509,01728 723709,NA,www.cba-law.co.uk,NA,Advocacy,"Law, Barristers, Law Society, Legal Professions",NA,"Solicitors, Lawyer, Legal Adviser",NA,NA,NA,NA,NA,NA,NA,https://api.scraperapi.com/?url=https%3A%2F%2Fframlingham.cylex-uk.co.uk%2Fcompany%2Fcoates-broughton-attwell-15780226.html&api_key=adc3d866682a18dad67c04d3bcbc7f1c&scraper_sdk=python
Gurneys Solicitors,6 Riverside ,IP13 9AG,Framlingham ,Suffolk England,01728 621372,01728 723057,NA,,NA,Legal Services,NA,NA,Solicitors,NA,NA,NA,NA,NA,NA,NA,https://api.scraperapi.com/?url=https%3A%2F%2Fframlingham.cylex-uk.co.uk%2Fcompany%2Fgurneys-solicitors-13623490.html&api_key=adc3d866682a18dad67c04d3bcbc7f1c&scraper_sdk=python
C b a Law,"Bridge House, Bridge Street",IP13 9AJ,Woodbridge ,Suffolk England,01728 723509,NA,NA,www.cba-law.co.uk,NA,NA,NA,NA,Solicitors,NA,NA,NA,NA,NA,NA,NA,https://api.scraperapi.com/?url=https%3A%2F%2Fwoodbridge.cylex-uk.co.uk%2Fcompany%2Fc-b-a-law-12827696.html&api_key=adc3d866682a18dad67c04d3bcbc7f1c&scraper_sdk=python
MONARCH OWNERS LIMITED,"Apartment 2, Monarch House Hertford Place ",IP15 5DB,Aldeburgh ,Suffolk England,NA,NA,NA,,NA,NA,Property Management,NA,NA,NA,NA,NA,NA,NA,NA,NA,https://api.scraperapi.com/?url=https%3A%2F%2Faldeburgh.cylex-uk.co.uk%2Fcompany%2Fmonarch-owners-limited-24783409.html&api_key=adc3d866682a18dad67c04d3bcbc7f1c&scraper_sdk=python
"Cross,ram & Co",3 Church St ,IP13 9BG,Framlingham ,Suffolk England,01728 724111,01728 724747,NA,crossram.co.uk,NA,"Legal Advice, Legal Services",Auctions Solicitors,NA,"Solicitors, Lawyer, Law Firm, Agricultural Solicitors, Commercial Solicitors, Will Solicitors",09:00 - 17:15,09:00 - 17:15,Closed,Closed,09:00 - 17:15,09:00 - 17:15,09:00 - 17:15,https://api.scraperapi.com/?url=https%3A%2F%2Fframlingham.cylex-uk.co.uk%2Fcompany%2Fcross-ram---co-13232396.html&api_key=adc3d866682a18dad67c04d3bcbc7f1c&scraper_sdk=python
Roach & Co.,13 High Street ,IP17 1DF,Saxmundham ,Suffolk England,01728 605799,NA,NA,,NA,Justice Services,NA,NA,"Solicitors, Lawyer",NA,NA,NA,NA,NA,NA,NA,https://api.scraperapi.com/?url=https%3A%2F%2Fsaxmundham.cylex-uk.co.uk%2Fcompany%2Froach---co--17252665.html&api_key=adc3d866682a18dad67c04d3bcbc7f1c&scraper_sdk=python
Alan G Clarke,159 High Street ,IP15 5AN,Aldeburgh ,Suffolk England,01728 452 133,NA,NA,,NA,NA,NA,NA,Solicitors,NA,NA,NA,NA,NA,NA,NA,https://api.scraperapi.com/?url=https%3A%2F%2Faldeburgh.cylex-uk.co.uk%2Fcompany%2Falan-g-clarke-19914573.html&api_key=adc3d866682a18dad67c04d3bcbc7f1c&scraper_sdk=python
Marshall Hatchick,"Market Pl, The Old Bank House ",IP17 1EL,Saxmundham ,Suffolk England,01728 602323,NA,NA,www.marshallhatchick.co.uk,NA,"Commercial property, Company and commercial, Conveyancing - residential, Debt recovery, Employment, Family - divorce and separation, Family - general, Intellectual property, Landlord and tenant - residential, Litigation - general, Mergers and acquisitions, Neighbour disputes, Planning, Private client - Probate, Private client - trusts, Private client - Wills, Tax, Residential Conveyancing","Mergers & Acquisitions, Company & Commercial, Family divorce and separation, Family general, Landlord and Tenant Residential, Litigation General, Private client Probate, Private client trusts, Private Client Wills",NA,Solicitors,09:00 - 17:00,09:00 - 17:00,Closed,Closed,09:00 - 17:00,09:00 - 17:00,09:00 - 17:00,https://api.scraperapi.com/?url=https%3A%2F%2Fsaxmundham.cylex-uk.co.uk%2Fcompany%2Fmarshall-hatchick-26535895.html&api_key=adc3d866682a18dad67c04d3bcbc7f1c&scraper_sdk=python
South Bank Management Company Limited,51 HIGH STREET ,IP16 4EL,Leiston ,Suffolk England,NA,NA,NA,,NA,NA,"Property Management, Residents Property Management",NA,NA,NA,NA,NA,NA,NA,NA,NA,https://api.scraperapi.com/?url=https%3A%2F%2Fleiston.cylex-uk.co.uk%2Fcompany%2Fsouth-bank-management-company-limited-22044048.html&api_key=adc3d866682a18dad67c04d3bcbc7f1c&scraper_sdk=python
H t Argent & Son,"159, High Street ",IP15 5AN,Aldeburgh ,Suffolk England,01728 452133,01728 603660,NA,,NA,NA,NA,NA,"Solicitors, Lawyer",NA,NA,NA,NA,NA,NA,NA,https://api.scraperapi.com/?url=https%3A%2F%2Faldeburgh.cylex-uk.co.uk%2Fcompany%2Fh-t-argent---son-16168182.html&api_key=adc3d866682a18dad67c04d3bcbc7f1c&scraper_sdk=python
P b Spark (Solicitor),31-32 Long Row ,IP12 3PS,Chillesford ,Suffolk England,01394 450931,NA,NA,,NA,NA,NA,NA,Solicitors,NA,NA,NA,NA,NA,NA,NA,https://api.scraperapi.com/?url=https%3A%2F%2Fchillesford.cylex-uk.co.uk%2Fcompany%2Fp-b-spark--solicitor--17258446.html&api_key=adc3d866682a18dad67c04d3bcbc7f1c&scraper_sdk=python
Fairweather Stephenson Solicitors Leiston,51 High Street ,IP16 4EL,Leiston ,Suffolk England,01728 832832,01728 830305,NA,www.fairweatherlaw.co.uk,NA,NA,NA,NA,Solicitors,09:00 - 17:00,09:00 - 17:00,Closed,Closed,09:00 - 17:00,09:00 - 17:00,09:00 - 17:00,https://api.scraperapi.com/?url=https%3A%2F%2Fleiston.cylex-uk.co.uk%2Fcompany%2Ffairweather-stephenson-solicitors-leiston-14356299.html&api_key=adc3d866682a18dad67c04d3bcbc7f1c&scraper_sdk=python
Subway,"23 Woodbridge Road East, ",IP4 5QN,Ipswich ,Suffolk England,01473 714354,NA,NA,http://www.subway.com,NA,NA,"Restaurants, Fast Food Restaurants, Sandwich Restaurants, Take-out Restaurants",NA,"Subway, Sandwich Restaurant, Fast Food Restaurant, Restaurant, Take Out Restaurant",07:00 - 21:00,07:00 - 21:00,08:00 - 20:00,09:00 - 19:00,07:00 - 21:00,07:00 - 21:00,07:00 - 21:00,https://api.scraperapi.com/?url=https%3A%2F%2Fipswich.cylex-uk.co.uk%2Fcompany%2Fsubway-23662258.html&api_key=adc3d866682a18dad67c04d3bcbc7f1c&scraper_sdk=python
The Cygnets Residents Management Company Limited,"5 THE CYGNETS, SAXMUNDHAM ROAD ",IP15 5PD,Aldeburgh ,Suffolk England,NA,NA,NA,,NA,NA,"Property Management, Residents Property Management",NA,NA,NA,NA,NA,NA,NA,NA,NA,https://api.scraperapi.com/?url=https%3A%2F%2Faldeburgh.cylex-uk.co.uk%2Fcompany%2Fthe-cygnets-residents-management-company-limited-22112470.html&api_key=adc3d866682a18dad67c04d3bcbc7f1c&scraper_sdk=python
Subway,80 Hamilton Rd ,IP11 7AF,Felixstowe ,Suffolk England,07447 581075,NA,NA,https://www.subway.com/en-GB?utm_source=yext-other&utm_medium=local&utm_term=acquisition&utm_content,NA,NA,"Restaurants, Fast Food Restaurants, Sandwich Restaurants, Take-out Restaurants",NA,"Subway, Sandwich Restaurant, Fast Food Restaurant, Restaurant, Take Out Restaurant",07:00 - 23:00,07:00 - 23:00,07:00 - 23:00,Open 24 Hours,07:00 - 23:00,07:00 - 23:00,07:00 - 23:00,https://api.scraperapi.com/?url=https%3A%2F%2Ffelixstowe.cylex-uk.co.uk%2Fcompany%2Fsubway-19091406.html&api_key=adc3d866682a18dad67c04d3bcbc7f1c&scraper_sdk=python
Seacon Residents Company Limited,"C/O FAIRWEATHER STEPHENSON AND,  CO CROSS CORNER 16 WENTWORTH ",IP15 5BB,Aldeburgh ,Suffolk England,NA,NA,NA,,NA,NA,"Property Management, Residents Property Management",NA,NA,NA,NA,NA,NA,NA,NA,NA,https://api.scraperapi.com/?url=https%3A%2F%2Faldeburgh.cylex-uk.co.uk%2Fcompany%2Fseacon-residents-company-limited-22007053.html&api_key=adc3d866682a18dad67c04d3bcbc7f1c&scraper_sdk=python
Country Kitchen,"1 Chapel Rd, ",NR34 7LT,Beccles ,Suffolk England,01502 675355,NA,NA,,NA,NA,"Tea Rooms, Vegetarian Restaurants, Sandwich Restaurants, Take-out Restaurants",NA,"Coffee Shop, Tea Room, Sandwich Restaurant, Take Out Restaurant, Vegetarian Restaurant, Butcher Shop, British Restaurant, Breakfast Restaurant",08:00 - 16:00,08:00 - 16:00,08:00 - 16:00,08:00 - 16:00,08:00 - 16:00,08:00 - 16:00,08:00 - 16:00,https://api.scraperapi.com/?url=https%3A%2F%2Fbeccles.cylex-uk.co.uk%2Fcompany%2Fcountry-kitchen-17259357.html&api_key=adc3d866682a18dad67c04d3bcbc7f1c&scraper_sdk=python
Subway,3 Hamblin Road ,IP12 1DE,Woodbridge ,Suffolk England,01394 383756,NA,NA,http://www.subway.com,NA,NA,"Restaurants, Fast Food Restaurants, Sandwich Restaurants, Take-out Restaurants",NA,"Subway, Sandwich Restaurant, Fast Food Restaurant, Restaurant, Take Out Restaurant",07:00 - 19:00,07:00 - 19:00,07:00 - 19:00,Open 24 Hours,07:00 - 19:00,07:00 - 19:00,07:00 - 19:00,https://api.scraperapi.com/?url=https%3A%2F%2Fwoodbridge.cylex-uk.co.uk%2Fcompany%2Fsubway-27136760.html&api_key=adc3d866682a18dad67c04d3bcbc7f1c&scraper_sdk=python
Fleur Aldeburgh,166 High St ,IP15 5AQ,Aldeburgh ,Suffolk England,01728 454822,NA,NA,www.fleuraldeburgh.co.uk,"Clothing, Womenswear, Casual Wear, Footwear, Sandwiches",NA,"Women's Clothing Stores, Ladies Clothes Shops, Ladies Clothing, Women's Clothes, Designer Clothes, Clothing Shops, Footwear Store, Women's Shoes, Shoe Shops, Shopping & Retail, Shoes, Day Dresses",NA,"women's clothing store, shoe store, accessories store, shopping/retail",10:00 - 17:00,10:00 - 17:00,10:00 - 17:00,10:30 - 16:30,10:00 - 17:00,10:00 - 17:00,10:00 - 17:00,https://api.scraperapi.com/?url=https%3A%2F%2Faldeburgh.cylex-uk.co.uk%2Fcompany%2Ffleur-aldeburgh-22981934.html&api_key=adc3d866682a18dad67c04d3bcbc7f1c&scraper_sdk=python
M&S Marks and Spencer - Coatbridge,"Unit 4, Faraday Retail Park ",ML5 3SQ,Coatbridge ,North Lanarkshire Scotland,01236 429586,NA,NA,www.marksandspencer.com,"jeans, skirts, jackets, shoes, boots, perfume, slippers, suits, mattresses, cakes","Clothing & Home collection desk, Clothing & Home ordering, Flower & Plant ordering, Food ordering, Free Wi-Fi, Hamper ordering, M&S Cafe, Personalised Cake ordering, Wedding Cake ordering, Wine ordering","Clothing Shops, Ordering Wine","Baby changing facilities, Car parking, Toilets, Free WiFi",NA,08:00 - 20:00,08:00 - 20:00,08:00 - 19:00,09:00 - 18:30,08:00 - 20:00,08:00 - 20:00,08:00 - 20:00,https://api.scraperapi.com/?url=https%3A%2F%2Fcoatbridge.cylex-uk.co.uk%2Fcompany%2Fm-s-marks-and-spencer---coatbridge-23699343.html&api_key=adc3d866682a18dad67c04d3bcbc7f1c&scraper_sdk=python
Thorndean Mini-Market,80 THORNDEAN AVENUE ,ML4 2LL,Bellshill ,North Lanarkshire Scotland,01698 843593,01865 515115,NA,www.uniteduk.co.uk,NA,NA,"Wine Merchants, Wine Shop, Buy Wine, Off-licence, Wine Sales, Wine Suppliers, Wine Stores, Wine Retailers, Shopping, Shops, Village Shop, General Store, Retail Shops, Off Sales, Shopping and Retail",NA,NA,07:00 - 21:00,07:00 - 21:00,07:00 - 21:00,07:00 - 21:00,07:00 - 21:00,07:00 - 21:00,07:00 - 21:00,https://api.scraperapi.com/?url=https%3A%2F%2Fbellshill-north-lanarkshire.cylex-uk.co.uk%2Fcompany%2Fthorndean-mini-market-17078293.html&api_key=adc3d866682a18dad67c04d3bcbc7f1c&scraper_sdk=python
Tesco Superstore,"Airdrie Retail Park, ",ML6 9JB,Airdrie ,North Lanarkshire Scotland,0345 671 9467,NA,NA,http://www.tesco.com/store-locator/uk/,NA,NA,"Supermarkets, Grocery Stores, Wine Stores, Bakery, Card Shops",NA,"Tesco, Supermarket, Convenience Store, Grocery Store, Produce Market",06:00 - 23:00,06:00 - 23:00,06:00 - 23:00,08:00 - 22:00,06:00 - 23:00,06:00 - 23:00,06:00 - 23:00,https://api.scraperapi.com/?url=https%3A%2F%2Fairdrie.cylex-uk.co.uk%2Fcompany%2Ftesco-superstore-20047129.html&api_key=adc3d866682a18dad67c04d3bcbc7f1c&scraper_sdk=python
Thresher,191 MAIN STREET ,ML4 1AH,Bellshill ,North Lanarkshire Scotland,01698 740506,NA,NA,,"Wines, Beverages",NA,"Beer Retail, Wine Merchants, Wine Shop, Wine Sales, Liquor Stores, Wine Retailers, Beverage Store, Drinks",NA,NA,NA,NA,NA,NA,NA,NA,NA,https://api.scraperapi.com/?url=https%3A%2F%2Fbellshill-north-lanarkshire.cylex-uk.co.uk%2Fcompany%2Fthresher-18718083.html&api_key=adc3d866682a18dad67c04d3bcbc7f1c&scraper_sdk=python
William Grant & Sons Ltd,"Strathclyde Business Park, Phoenix Cresent, Bells Hills ",ML4 3AN,Strathclyde Business Park ,North Lanarkshire Scotland,01698 843843,01698 844788,NA,www.glenfiddich.com,"Beer, Spirits, Wines, Beverages",NA,"Beer Retail, Wine Merchants, Wine Shop, Wine Sales, Wine Retailers, Wine Retail, Beverage Store, Retail, Drinks, Wines Spirits Beer Retail",NA,NA,NA,NA,NA,NA,NA,NA,NA,https://api.scraperapi.com/?url=https%3A%2F%2Fstrathclyde-business-park.cylex-uk.co.uk%2Fcompany%2Fwilliam-grant---sons-ltd-17101951.html&api_key=adc3d866682a18dad67c04d3bcbc7f1c&scraper_sdk=python
Drinks World,457 MAIN STREET ,ML4 1DA,Bellshill ,North Lanarkshire Scotland,01698 747399,NA,NA,,"Beer, Spirits, Wines, Beverages",NA,"Beer Retail, Wine Merchants, Wine Shop, Buy Wine, Off-licence, Wine Sales, Off Licences & Wine Merchants, Wine Suppliers, Wines and Spirits, Wine Stores, Wine Retailers, Wine Retail, Beverage Store, Retailers, Wines Spirits Beer Retail, Off Sales",NA,NA,NA,NA,NA,NA,NA,NA,NA,https://api.scraperapi.com/?url=https%3A%2F%2Fbellshill-north-lanarkshire.cylex-uk.co.uk%2Fcompany%2Fdrinks-world-17118999.html&api_key=adc3d866682a18dad67c04d3bcbc7f1c&scraper_sdk=python
West End Offlicence,"177, BANK STREET ",ML5 1HA,Coatbridge ,North Lanarkshire Scotland,01236 432299,020 8874 3100,NA,,"Beer, Wines, Vegetables",NA,"Beer Retail, Wine Merchants, Wine Shop, Buy Wine, Off-licence, Wine Sales, Wine Suppliers, Liquor Stores, Wine Stores, Wine Retailers, Beverage Store, Grocery, Greengrocers, Fruit, Off Sales, Grocery Stores, Grocery Shops",NA,NA,NA,NA,NA,NA,NA,NA,NA,https://api.scraperapi.com/?url=https%3A%2F%2Fcoatbridge.cylex-uk.co.uk%2Fcompany%2Fwest-end-offlicence-17144184.html&api_key=adc3d866682a18dad67c04d3bcbc7f1c&scraper_sdk=python
Beach Bite,12 Beach Station Rd ,IP11 2DR,Felixstowe ,Suffolk England,01394 278797,NA,NA,www.facebook.com/beachbitesfelixstowe,"Sandwiches, Burgers, Ice Cream, Salads, Jacket Potatoes","baguettes, cafes & coffee shops, burgers, ice creams, internet access, jacket potatoes, outside catering, salads, sandwiches, smoothies, takeaway deliveries, wifi","Sandwich Shops & Delivery, Takeaway Delivery, Baguette",WiFi,NA,07:00 - 14:30,07:00 - 14:30,Closed,09:00 - 14:30,07:00 - 14:30,07:00 - 14:30,07:00 - 14:30,https://api.scraperapi.com/?url=https%3A%2F%2Ffelixstowe.cylex-uk.co.uk%2Fcompany%2Fbeach-bite-26255017.html&api_key=adc3d866682a18dad67c04d3bcbc7f1c&scraper_sdk=python
Bottles Wines & Spirit,"THE CONTAINERBASE, GARTSHERRIE ROAD ",ML5 2DS,Coatbridge ,North Lanarkshire Scotland,01236 700 009,01236 700 009,NA,www.winesupply.co.uk/companies_biggar_ml12_0.html,NA,NA,"Wine Merchants, Buy Wine, Off-licence, Wine Sales, Beer Suppliers, Cider Suppliers, Wine Suppliers, Spirits Supplier",NA,NA,NA,NA,NA,NA,NA,NA,NA,https://api.scraperapi.com/?url=https%3A%2F%2Fcoatbridge.cylex-uk.co.uk%2Fcompany%2Fbottles-wines---spirit-20064948.html&api_key=adc3d866682a18dad67c04d3bcbc7f1c&scraper_sdk=python
Wallaces Express,SOUTH CALDEEN ROAD ,ML5 4EG,Coatbridge ,North Lanarkshire Scotland,01236 432180,01236 421444,01236 436525,,"Spirits, Wines, Beverages",NA,"Wine Merchants, Buy Wine, Wine Sales, Alcoholic Beverages, Cash and Carry, Cash and Carry Wholesalers, Wholesale Products, Beer Suppliers, Cider Suppliers, Cash and Carry Warehouse, Wine Suppliers, Spirits Supplier, Beers and Spirits, Wholesale, Retail Pos, Retail Point of Sale",NA,NA,NA,NA,NA,NA,NA,NA,NA,https://api.scraperapi.com/?url=https%3A%2F%2Fcoatbridge.cylex-uk.co.uk%2Fcompany%2Fwallaces-express-17015370.html&api_key=adc3d866682a18dad67c04d3bcbc7f1c&scraper_sdk=python
Dial-a-Drink,"9, PALACECRAIG STREET ",ML5 4RY,Coatbridge ,North Lanarkshire Scotland,01236 422343,NA,NA,,NA,NA,"Wine Merchants, Wine Shop, Buy Wine, Off-licence, Wine Sales, Wine Suppliers, Wine Stores, Wine Retailers, Off Sales",NA,NA,NA,NA,NA,NA,NA,NA,NA,https://api.scraperapi.com/?url=https%3A%2F%2Fcoatbridge.cylex-uk.co.uk%2Fcompany%2Fdial-a-drink-17118663.html&api_key=adc3d866682a18dad67c04d3bcbc7f1c&scraper_sdk=python
Jamil & Sons,499 Main Street ,ML5 3RX,Coatbridge ,North Lanarkshire Scotland,01236 429374,01236 421859,NA,,"Fresh Fruits, Spices, Dry Goods",NA,"Wine Merchants, Wine Shop, Buy Wine, Off-licence, Wine Sales, Wine Suppliers, Wine Stores, Wine Retailers, Retailers, Convenience Store, Greengrocers, Fresh Vegetables, Grocers, Off Sales, Grocery Stores",NA,NA,NA,NA,NA,NA,NA,NA,NA,https://api.scraperapi.com/?url=https%3A%2F%2Fcoatbridge.cylex-uk.co.uk%2Fcompany%2Fjamil---sons-19820151.html&api_key=adc3d866682a18dad67c04d3bcbc7f1c&scraper_sdk=python
Fairdeal Stores,35 GARTLEA ROAD ,ML6 9JL,Airdrie ,North Lanarkshire Scotland,1236754526,NA,NA,,"Vegetables, Fresh Fruits, Spices, Dry Goods",NA,"Greengrocers, Fresh Vegetables, Grocery Stores, Grocery Shops, Wine Merchants, Wine Shop, Buy Wine, Off-licence, Wine Sales, Off Sales, Wine Suppliers, Wine Stores, Wine Retailers",NA,NA,NA,NA,NA,NA,NA,NA,NA,https://api.scraperapi.com/?url=https%3A%2F%2Fairdrie.cylex-uk.co.uk%2Fcompany%2Ffairdeal-stores-18755097.html&api_key=adc3d866682a18dad67c04d3bcbc7f1c&scraper_sdk=python
Ministry of Booze,16 SOUTH BRIDGE STREET ,ML6 6JF,Airdrie ,North Lanarkshire Scotland,01236 770799,NA,NA,,"Beer, Spirits, Wines, Beverages",NA,"Beer Retail, Wine Merchants, Wine Shop, Buy Wine, Off-licence, Wine Sales, Wine Suppliers, Wines and Spirits, Wine Stores, Wine Retailers, Wine Retail, Beverage Store, Wines Spirits Beer Retail, Off Sales",NA,NA,NA,NA,NA,NA,NA,NA,NA,https://api.scraperapi.com/?url=https%3A%2F%2Fairdrie.cylex-uk.co.uk%2Fcompany%2Fministry-of-booze-17064485.html&api_key=adc3d866682a18dad67c04d3bcbc7f1c&scraper_sdk=python
Winhall Minimarket,17 Burnfoot Road ,ML6 0JR,Airdrie ,North Lanarkshire Scotland,01236 768761,NA,NA,,NA,NA,"Wine Merchants, Wine Shop, Buy Wine, Off-licence, Wine Sales, Wine Suppliers, Wine Stores, Wine Retailers, Convenience Store, Corner Shop, Bodega, Off Sales",NA,NA,NA,NA,NA,NA,NA,NA,NA,https://api.scraperapi.com/?url=https%3A%2F%2Fairdrie.cylex-uk.co.uk%2Fcompany%2Fwinhall-minimarket-17136967.html&api_key=adc3d866682a18dad67c04d3bcbc7f1c&scraper_sdk=python
A & S Brothers,102 MOTHERWELL STREET ,ML6 7EJ,Airdrie ,North Lanarkshire Scotland,01236 751897,NA,NA,,"Beer, Spirits, Wines, Beverages",NA,"Beer Retail, Wine Merchants, Wine Shop, Buy Wine, Off-licence, Wine Sales, Wine Suppliers, Wines and Spirits, Wine Stores, Wine Retailers, Wine Retail, Beverage Store, Wines Spirits Beer Retail, Off Sales",NA,NA,NA,NA,NA,NA,NA,NA,NA,https://api.scraperapi.com/?url=https%3A%2F%2Fairdrie.cylex-uk.co.uk%2Fcompany%2Fa---s-brothers-19907354.html&api_key=adc3d866682a18dad67c04d3bcbc7f1c&scraper_sdk=python
Cairnhill Stores,126 Cairnhill Road ,ML6 9HD,Airdrie ,North Lanarkshire Scotland,01236 762763,020 7224 9854,NA,,"Vegetables, Fresh Fruits",NA,"Wine Merchants, Wine Shop, Buy Wine, Off-licence, Wine Sales, Off Licences & Wine Merchants, Wine Suppliers, Wine Stores, Wine Retailers, Retailers, Convenience Store, Food Products, Grocery, Bodega, Grocers, Fruit, Off Sales, Grocery Stores, Food Market, Grocery Shops",NA,NA,NA,NA,NA,NA,NA,NA,NA,https://api.scraperapi.com/?url=https%3A%2F%2Fairdrie.cylex-uk.co.uk%2Fcompany%2Fcairnhill-stores-17133000.html&api_key=adc3d866682a18dad67c04d3bcbc7f1c&scraper_sdk=python
Barclays Bank PLC,27 Market Hill,IP13 9AW,Framlingham ,Suffolk England,0345 734 5345,NA,NA,www.barclays.co.uk,NA,"Barclays Bank Account, Barclays Personalised Card, Car Insurance, Credit cards, Home insurance, Instant Cash ISA, Life Insurance, Personal loans, Travel Insurance","Financial Services, Bank, Credit Card",NA,NA,09:30 - 16:30,09:30 - 16:30,Closed,Closed,09:30 - 16:30,09:30 - 16:30,09:30 - 16:30,https://api.scraperapi.com/?url=https%3A%2F%2Fframlingham.cylex-uk.co.uk%2Fcompany%2Fbarclays-bank-plc-13505935.html&api_key=adc3d866682a18dad67c04d3bcbc7f1c&scraper_sdk=python
Post Office Limited,The Crown Inn Car Park ,IP13 6EL,Ufford ,Suffolk England,3457223344,NA,NA,www.postoffice.co.uk,"Postal Supplies, Coins, Stamps, Stationery, Labels, Office Supplies, Office Equipment, Inks and Toners, Sticky Notes","Postal Services, Uk Parcel Delivery, International Parcel Delivery, Uk Mail Delivery, International Mail Delivery, Life Insurance, Car Insurance, Van Insurance, Motorcycle Insurance, Home Insurance, Pet Insurance, Business Insurance, Travel Insurance, Travel Money, Vehicle Tax, Parcel Delivery, Courier","Post Office, Mail Delivery, Postal Service, Ink and Toner, International UK Mail Delivery",NA,NA,11:00 - 13:00,Closed,Closed,Closed,Closed,Closed,Closed,https://api.scraperapi.com/?url=https%3A%2F%2Fufford-suffolk-coastal.cylex-uk.co.uk%2Fcompany%2Fpost-office-limited-17910192.html&api_key=adc3d866682a18dad67c04d3bcbc7f1c&scraper_sdk=python
Post Office Limited,Church Lane ,IP17 2PB,Saxmundham ,Suffolk England,01728 604713,NA,NA,www.postoffice.co.uk,"Postal Supplies, Coins, Stamps, Stationery, Labels, Office Supplies, Office Equipment, Inks and Toners, Sticky Notes","Postal Services, Uk Parcel Delivery, International Parcel Delivery, Uk Mail Delivery, International Mail Delivery, Life Insurance, Car Insurance, Van Insurance, Motorcycle Insurance, Home Insurance, Pet Insurance, Business Insurance, Travel Insurance, Travel Money, Vehicle Tax, Parcel Delivery, Courier","Post Office, Mail Delivery, Postal Service, Facilities for Hard of Hearing People, Ink and Toner, International UK Mail Delivery","Assisted wheelchair access, Facilities for the mobility impaired, Facilities for hard of hearing people., Induction loop available, Staff assistance available, Parent with pushchair access",NA,Closed,Closed,Closed,Closed,Closed,Closed,08:30 - 12:30,https://api.scraperapi.com/?url=https%3A%2F%2Fsaxmundham.cylex-uk.co.uk%2Fcompany%2Fpost-office-limited-16241395.html&api_key=adc3d866682a18dad67c04d3bcbc7f1c&scraper_sdk=python
Cliff House Holidays,Minsmere Road ,IP17 3DQ,Dunwich ,Suffolk England,01728 648282,01728 648996,NA,www.cliffhouseholidays.co.uk,"alternative camping, caravan holiday homes, lodge holiday homes, self catering, self catering holidays, Coffee, Lunch","caravan insurance, storage and seasonal pitches, breakdown and recovery, caravan and motorhome security, motorhome insurance, delivery, catering, groups, kids, outdoor, reserve, takeout, waiter, walkins, Caravan Holiday Homes, Breakfast, Self-catering Holidays, Breakdown & Recovery","Caravanning, Camping Club, Campground, RV Park, Takeaway, Camping, Outdoors, Self-catering, Travel Companies, Waiters, Walkin, Lodge Holiday Home","breakfast, coffee, dinner, drinks, lunch",NA,NA,NA,NA,NA,NA,NA,NA,https://api.scraperapi.com/?url=https%3A%2F%2Fdunwich.cylex-uk.co.uk%2Fcompany%2Fcliff-house-holidays-15815418.html&api_key=adc3d866682a18dad67c04d3bcbc7f1c&scraper_sdk=python
Post Office Limited,36 High Street,IP13 0QS,Woodbridge ,Suffolk England,01728 746201,NA,NA,www.postoffice.co.uk,"Postal Supplies, Coins, Stamps, Stationery, Labels, Office Supplies, Office Equipment, Inks and Toners, Sticky Notes","Drop & Go, Parcelforce Express Services, Vehicle Tax, Foreign Currency, Travel Insurance, Travel Money Card Plus, National Express - Tickets, Current Account - Servicing, Savings application forms, ATM - 24hr, Lotto prize payments, Lotto ticket sales, Courier","Post Office, Mail Delivery, Retailers, ATM 24hr, Current Account Servicing, Facilities for Hard of Hearing People, Low Reception/Information Counters Available, Ink and Toner, National Express Tickets","Assisted wheelchair access, Facilities for the mobility impaired, Facilities for hard of hearing people., Induction loop available, Customer parking facilities, Staff assistance available, Low Reception/Information counters available., Parent with pushchair access",NA,08:30 - 17:30,08:30 - 17:30,08:30 - 13:00,Closed,08:30 - 17:30,08:30 - 17:30,08:30 - 17:30,https://api.scraperapi.com/?url=https%3A%2F%2Fwoodbridge.cylex-uk.co.uk%2Fcompany%2Fpost-office-limited-17910750.html&api_key=adc3d866682a18dad67c04d3bcbc7f1c&scraper_sdk=python
Barclays Bank,24 High Street,IP17 1AE,Saxmundham ,Suffolk England,0345 734 5345,NA,NA,www.saxmundham.org,NA,"barclays bank account, barclays personalised card, car insurance, credit cards, home insurance, instant cash isa, life insurance, personal loans, travel insurance","Financial Services, Bank, Credit Card",NA,NA,Closed,09:30 - 16:30,Closed,Closed,09:30 - 16:30,09:30 - 16:30,09:30 - 16:30,https://api.scraperapi.com/?url=https%3A%2F%2Fsaxmundham.cylex-uk.co.uk%2Fcompany%2Fbarclays-bank-13504285.html&api_key=adc3d866682a18dad67c04d3bcbc7f1c&scraper_sdk=python
HSBC Bank,20 High Street,IP17 1DB,Saxmundham ,Suffolk England,0345 740 4404,NA,NA,www.saxmundham.org,"loans, mortgages, credit cards, home insurance, travel insurance, car insurance","loans, mortgages, home insurance, travel insurance, car insurance","Bank, Mortgage Advice, Credit Card","disabled access, wi-fi, counter service, WiFi",NA,09:30 - 16:30,09:30 - 16:30,Closed,Closed,09:30 - 16:30,09:30 - 16:30,09:30 - 16:30,https://api.scraperapi.com/?url=https%3A%2F%2Fsaxmundham.cylex-uk.co.uk%2Fcompany%2Fhsbc-bank-13153691.html&api_key=adc3d866682a18dad67c04d3bcbc7f1c&scraper_sdk=python
Post Office Limited,Motor Company and Country Store,IP17 1QE,Snape ,Suffolk England,3457223344,NA,NA,www.postoffice.co.uk,"Postal Supplies, Coins, Stamps, Stationery, Labels, Office Supplies, Office Equipment, Inks and Toners, Sticky Notes","Parcelforce Express Services, Vehicle Tax, Travel Insurance, National Express - Tickets, Current Account - Servicing, Courier","Post Office, Mail Delivery, Current Account Servicing, Ink and Toner, National Express Tickets",NA,NA,09:00 - 12:30,09:00 - 12:30,Closed,Closed,09:00 - 12:30,09:00 - 12:30,09:00 - 12:30,https://api.scraperapi.com/?url=https%3A%2F%2Fsnape-suffolk-coastal.cylex-uk.co.uk%2Fcompany%2Fpost-office-limited-17910017.html&api_key=adc3d866682a18dad67c04d3bcbc7f1c&scraper_sdk=python
Post Office Limited,7 High Street ,IP17 1DF,Saxmundham ,Suffolk England,01728 633041,0345 722 3344,NA,www.postoffice.co.uk,NA,"Vehicle Tax, Travel Insurance, Current Account - Servicing, Courier","Post Office, Mail Delivery, Current Account Servicing, Facilities for Hard of Hearing People","Assisted wheelchair access, Non assisted wheelchair access, Facilities for the mobility impaired, Facilities for hard of hearing people., Induction loop available, Staff assistance available, Automatic doors present, Parent with pushchair access",NA,09:00 - 17:30,09:00 - 17:30,09:00 - 12:30,Closed,09:00 - 17:30,09:00 - 17:30,09:00 - 17:30,https://api.scraperapi.com/?url=https%3A%2F%2Fsaxmundham.cylex-uk.co.uk%2Fcompany%2Fpost-office-limited-16587223.html&api_key=adc3d866682a18dad67c04d3bcbc7f1c&scraper_sdk=python
Post Office Limited,119 High Street,IP15 5AA,Aldeburgh ,Suffolk England,01728 452755,NA,NA,www.postoffice.co.uk,"Postal Supplies, Coins, Stamps, Stationery, Labels, Office Supplies, Office Equipment, Inks and Toners, Sticky Notes","Drop & Go, Parcelforce Express Services, Passport Check & Send, Vehicle Tax, Foreign Currency, Travel Insurance, Travel Money Card Plus, National Express - Tickets, Current Account - Servicing, Savings application forms, Courier","Post Office, Mail Delivery, Current Account Servicing, Facilities for Hard of Hearing People, Low Reception/Information Counters Available, Ink and Toner, National Express Tickets","Assisted wheelchair access, Non assisted wheelchair access, Facilities for the mobility impaired, Facilities for hard of hearing people., Induction loop available, Staff assistance available, Low Reception/Information counters available., Parent with pushchair access",NA,08:00 - 20:00,08:00 - 20:00,08:00 - 20:00,09:00 - 20:00,08:00 - 20:00,08:00 - 20:00,08:00 - 20:00,https://api.scraperapi.com/?url=https%3A%2F%2Faldeburgh.cylex-uk.co.uk%2Fcompany%2Fpost-office-limited-15655762.html&api_key=adc3d866682a18dad67c04d3bcbc7f1c&scraper_sdk=python
Post Office Limited,62 Sizewell Road ,IP16 4AB,Leiston ,Suffolk England,01728 830564,NA,NA,www.postoffice.co.uk,"Postal Supplies, Coins, Stamps, Stationery, Labels, Office Supplies, Office Equipment, Inks and Toners, Sticky Notes","Drop & Go, Parcelforce Express Services, Passport Check & Send, Vehicle Tax, Foreign Currency - Euros only, Travel Insurance, Travel Money Card Plus, National Express - Tickets, Current Account - Servicing, Savings application forms, Lotto prize payments, Lotto ticket sales, Courier","Post Office, Mail Delivery, Retailers, Current Account Servicing, Facilities for Hard of Hearing People, Foreign Currency Euros Only, Low Reception/Information Counters Available, Ink and Toner, National Express Tickets","Assisted wheelchair access, Non assisted wheelchair access, Facilities for the mobility impaired, Facilities for hard of hearing people., Induction loop available, Staff assistance available, Low Reception/Information counters available., Parent with pushchair access",NA,08:30 - 17:30,08:30 - 17:30,08:30 - 13:00,Closed,08:30 - 17:30,08:30 - 17:30,08:30 - 17:30,https://api.scraperapi.com/?url=https%3A%2F%2Fleiston.cylex-uk.co.uk%2Fcompany%2Fpost-office-limited-16258497.html&api_key=adc3d866682a18dad67c04d3bcbc7f1c&scraper_sdk=python
Richardsons Smokehouses,Baker's Lane,IP12 2LH,Orford ,Suffolk England,01394 450103,01394 450103,NA,www.richardsonssmokehouse.co.uk,NA,NA,"Takeaway, Food Shops",NA,NA,NA,NA,NA,NA,NA,NA,NA,https://api.scraperapi.com/?url=https%3A%2F%2Forford-suffolk-coastal.cylex-uk.co.uk%2Fcompany%2Frichardsons-smokehouses-13981620.html&api_key=adc3d866682a18dad67c04d3bcbc7f1c&scraper_sdk=python
Zorbas Kebab House,"Zorba's Kebab House, Market Place ",IP17 1AG,Saxmundham ,Suffolk England,01728 604694,020 8687 9633,NA,zorbastakeaway.co.uk,NA,NA,"Takeaway, Fast Food",NA,NA,12:00 - 23:00,12:00 - 23:00,12:00 - 23:00,12:00 - 22:00,12:00 - 23:00,12:00 - 23:00,12:00 - 23:00,https://api.scraperapi.com/?url=https%3A%2F%2Fsaxmundham.cylex-uk.co.uk%2Fcompany%2Fzorbas-kebab-house-13680111.html&api_key=adc3d866682a18dad67c04d3bcbc7f1c&scraper_sdk=python
Best Kebab,37 High Street ,IP16 4EL,Leiston ,Suffolk England,01728 832234,NA,NA,,NA,NA,Takeaway Food Shops,NA,NA,NA,NA,NA,NA,NA,NA,NA,https://api.scraperapi.com/?url=https%3A%2F%2Fleiston.cylex-uk.co.uk%2Fcompany%2Fbest-kebab-12882552.html&api_key=adc3d866682a18dad67c04d3bcbc7f1c&scraper_sdk=python
Seahawks,44 Sizewell Road ,IP16 4AB,Leiston ,Suffolk England,01728 830528,01728 830528,NA,www.seahawks.co.uk,NA,NA,"Takeaway, Takeaway Restaurant, Fish and Chips Takeaway, Sandwich Shop, Food Delivery",NA,NA,NA,NA,NA,Closed,NA,NA,NA,https://api.scraperapi.com/?url=https%3A%2F%2Fleiston.cylex-uk.co.uk%2Fcompany%2Fseahawks-12811975.html&api_key=adc3d866682a18dad67c04d3bcbc7f1c&scraper_sdk=python
Chinese Garden Chinese Takeaway,"46A, SIZEWELL ROAD ",IP16 4AB,Leiston ,Suffolk England,01728 830845,NA,NA,,NA,NA,"Takeaway, Chinese Takeaway",NA,NA,NA,NA,NA,NA,NA,NA,NA,https://api.scraperapi.com/?url=https%3A%2F%2Fleiston.cylex-uk.co.uk%2Fcompany%2Fchinese-garden-chinese-takeaway-14278599.html&api_key=adc3d866682a18dad67c04d3bcbc7f1c&scraper_sdk=python
Changs Garden,46A Sizewell Road ,IP16 4AB,Leiston ,Suffolk England,01728 830845,NA,NA,,NA,NA,Takeaway,NA,NA,NA,NA,NA,NA,NA,NA,NA,https://api.scraperapi.com/?url=https%3A%2F%2Fleiston.cylex-uk.co.uk%2Fcompany%2Fchangs-garden-15901985.html&api_key=adc3d866682a18dad67c04d3bcbc7f1c&scraper_sdk=python
Subway,"Sizewell Road, ",IP16 4AE,Leiston Suffolk ,En,01728 833767,NA,NA,http://www.subway.com,NA,NA,"Restaurants, Fast Food Restaurants, Sandwich Restaurants, Take-out Restaurants",NA,"Subway, Sandwich Restaurant, Fast Food Restaurant, Restaurant, Take Out Restaurant",07:00 - 20:00,07:00 - 20:00,07:00 - 20:00,Open 24 Hours,07:00 - 20:00,07:00 - 20:00,07:00 - 20:00,https://api.scraperapi.com/?url=https%3A%2F%2Fleiston.cylex-uk.co.uk%2Fcompany%2Fsubway-26190250.html&api_key=adc3d866682a18dad67c04d3bcbc7f1c&scraper_sdk=python
Dps Bar and Bbq Yard,106-108 HIGH STREET ,IP15 5AB,Aldeburgh ,Suffolk England,01728 453530,NA,NA,dpsbar.co.uk,"Coffee, Lunch, Outdoor Seating","delivery services, takes bookings, takeaway, table service, delivery, groups, kids, outdoor, reserve, takeout, waiter, walkins","Bookshop, Pubs, Restaurants, Bars, Thai Restaurant, Outdoors, Waiters, Walkin","good for groups or parties, good for children, outdoor seating, coffee, dinner, drinks, lunch",Chemists,12:00 - 24:00,12:00 - 24:00,12:00 - 24:00,12:00 - 24:00,12:00 - 24:00,12:00 - 24:00,12:00 - 24:00,https://api.scraperapi.com/?url=https%3A%2F%2Faldeburgh.cylex-uk.co.uk%2Fcompany%2Fdps-bar-and-bbq-yard-22979905.html&api_key=adc3d866682a18dad67c04d3bcbc7f1c&scraper_sdk=python
Aldeburgh Fish & Chip Shop,226 High Street,IP15 5DB,Aldeburgh ,Suffolk England,01728 452250,NA,NA,www.aldeburghfishandchips.co.uk,NA,NA,"Fish and Chip Shops, Takeaway, Sandwich Shop",NA,NA,NA,NA,NA,12:00 - 14:00,Closed,11:45 - 14:00,11:45 - 14:00,https://api.scraperapi.com/?url=https%3A%2F%2Faldeburgh.cylex-uk.co.uk%2Fcompany%2Faldeburgh-fish---chip-shop-23796725.html&api_key=adc3d866682a18dad67c04d3bcbc7f1c&scraper_sdk=python
Bake N Butty Cafe,"King George's Ave, Unit 1c, Sizewell Crossing Industrial Estate ",IP16 4LW,Leiston ,Suffolk England,01728 832331,NA,NA,refuelcafesaxmundham.weebly.com,NA,"Saxmundham,  Leiston,  Suffolk,  Yoxford,  Halesworth,  Framlingham","Takeaway Food, Caring Premises, Breakfasts all Day Breakfasts, Cafesaxmundham, Catering Saxmundham",NA,Caterers,08:00 - 15:00,08:00 - 15:00,08:00 - 14:00,Closed,08:00 - 15:00,08:00 - 15:00,08:00 - 15:00,https://api.scraperapi.com/?url=https%3A%2F%2Fleiston.cylex-uk.co.uk%2Fcompany%2Fbake-n-butty-cafe-19171316.html&api_key=adc3d866682a18dad67c04d3bcbc7f1c&scraper_sdk=python
Rising Sun Chinese Take-Away,190 High Street ,IP15 5AJ,Aldeburgh ,Suffolk England,01728 453396,NA,NA,,NA,NA,"Restaurants, Takeaway, Sandwich Shop",NA,NA,NA,NA,NA,17:00 - 22:30,NA,Closed,17:00 - 22:30,https://api.scraperapi.com/?url=https%3A%2F%2Faldeburgh.cylex-uk.co.uk%2Fcompany%2Frising-sun-chinese-take-away-19855201.html&api_key=adc3d866682a18dad67c04d3bcbc7f1c&scraper_sdk=python
ALDEBURGH FISH & CHIP SHOP COMPANY LIMITED,30 LINDEN ROAD ,IP15 5JH,Aldeburgh ,Suffolk England,NA,NA,NA,,NA,NA,"Takeaway, Takeaway Food Shops, Mobile Food Stands",NA,NA,NA,NA,NA,NA,NA,NA,NA,https://api.scraperapi.com/?url=https%3A%2F%2Faldeburgh.cylex-uk.co.uk%2Fcompany%2Faldeburgh-fish---chip-shop-company-limited-21016706.html&api_key=adc3d866682a18dad67c04d3bcbc7f1c&scraper_sdk=python
Golden Galleon,137 High Street ,IP15 5AR,Aldeburgh ,Suffolk England,01728 454685,NA,NA,www.aldeburghfishandchips.co.uk,NA,NA,"Takeaway, Takeaway Food, Fish and Chip Shops, Sandwich Shop",NA,NA,12:00 - 14:00,NA,12:00 - 18:00,12:00 - 18:00,NA,NA,NA,https://api.scraperapi.com/?url=https%3A%2F%2Faldeburgh.cylex-uk.co.uk%2Fcompany%2Fgolden-galleon-16156313.html&api_key=adc3d866682a18dad67c04d3bcbc7f1c&scraper_sdk=python
Andrew Sheepshanks,"The Rookery, Eyke ",IP12 2RR,Eyke ,Suffolk England,01394 460011,01394 460033,NA,,"Beer, Spirits, Wines",NA,"Wine Merchants, Buy Wine, Wine Sales, Beer Wholesale, Spirit & Cider Suppliers, Beer Suppliers, Cider Suppliers, Wine Suppliers, Wine Wholesale, Spirits Supplier, Wholesale, Wines Spirits Beer Wholesale",NA,NA,NA,NA,NA,NA,NA,NA,NA,https://api.scraperapi.com/?url=https%3A%2F%2Feyke.cylex-uk.co.uk%2Fcompany%2Fandrew-sheepshanks-15696762.html&api_key=adc3d866682a18dad67c04d3bcbc7f1c&scraper_sdk=python
Redwald`s Ale House,9 Rendlesham Mews ,IP12 2SZ,Rendlesham ,Suffolk England,07789 206065,NA,NA,,NA,NA,"Ale, Alehouse",NA,NA,17:00 - 21:00,17:00 - 21:00,12:00 - 21:00,12:00 - 18:00,Closed,Closed,Closed,https://api.scraperapi.com/?url=https%3A%2F%2Frendlesham.cylex-uk.co.uk%2Fcompany%2Fredwald%2560s-ale-house-26198425.html&api_key=adc3d866682a18dad67c04d3bcbc7f1c&scraper_sdk=python
The Kings Head,Brook Street,IP17 3EX,Yoxford ,Suffolk England,01728 668871,NA,NA,kingsheadyoxford.com,NA,NA,"Pubs, Public Houses, Bars, Bars and Inns, Night Clubs, Wine Real Ales, Children's Menu Available",NA,NA,11:00 - 20:30,11:00 - 21:00,11:00 - 21:00,12:00 - 19:30,11:00 - 20:30,11:00 - 20:30,11:00 - 20:30,https://api.scraperapi.com/?url=https%3A%2F%2Fyoxford.cylex-uk.co.uk%2Fcompany%2Fthe-kings-head-13289976.html&api_key=adc3d866682a18dad67c04d3bcbc7f1c&scraper_sdk=python
ANSDELL SERVICES LTD,30 GARDENIA CLOSE ,IP12 2GX,Rendlesham ,Suffolk England,NA,NA,NA,,NA,NA,"Property Management, Real Estate Management, Food Sales",NA,NA,NA,NA,NA,NA,NA,NA,NA,https://api.scraperapi.com/?url=https%3A%2F%2Frendlesham.cylex-uk.co.uk%2Fcompany%2Fansdell-services-ltd-21793594.html&api_key=adc3d866682a18dad67c04d3bcbc7f1c&scraper_sdk=python
Thresher,"6, SOUTH ENTRANCE ",IP17 1DQ,Saxmundham ,Suffolk England,01728 602053,NA,NA,,"Beer, Spirits, Wines, Wine Rack, Beverages",NA,"Beer Retail, Wine Merchants, Wine Shop, Buy Wine, Off-licence, Wine Sales, Red Wine, White Wine, Fair Trade Wine, Wine Suppliers, Wine Stores, Wine Retailers, Wine Retail, Beverage Store, Retail, Wines Spirits Beer Retail, Local, Stores, Off Sales, Roses, Taste, Franchises, Thresher Group, Threshers",NA,NA,NA,NA,NA,NA,NA,NA,NA,https://api.scraperapi.com/?url=https%3A%2F%2Fsaxmundham.cylex-uk.co.uk%2Fcompany%2Fthresher-16519072.html&api_key=adc3d866682a18dad67c04d3bcbc7f1c&scraper_sdk=python
Saxon Wines,18 Market Pl ,IP17 1AG,Saxmundham ,Suffolk England,01728 633195,NA,NA,www.saxmundham.org/services/shops.html,NA,NA,NA,NA,NA,10:00 - 22:00,10:00 - 22:00,10:00 - 22:00,11:00 - 22:00,10:00 - 22:00,10:00 - 22:00,10:00 - 22:00,https://api.scraperapi.com/?url=https%3A%2F%2Fsaxmundham.cylex-uk.co.uk%2Fcompany%2Fsaxon-wines-26850545.html&api_key=adc3d866682a18dad67c04d3bcbc7f1c&scraper_sdk=python
Waitrose & Partners Saxmundham,Church Hill ,IP17 1EP,Saxmundham ,Suffolk England,+44 1728 603004,NA,NA,www.waitrose.com/content/waitrose/en/bf_home/bf/483.html,Meat Products,"Customer Toilets, Packing Assistance, Welcome Desk, Parent / Child Car Parking, Disabled Car Parking, Car Park, Community Matters, Lottery Counter, Carry To Car Service, Wheelchair Trolleys Available, Quick Check / Quick Pay, Assistant Dogs Welcome, Coffee Machine","Supermarkets, Gourmet Grocery Shop, Grocery Stores, Wine Stores, Bakery, Butchers, Fishmonger, Car Parks, Coffee Machines, Parent Child Car Parking, Quick Check Quick Pay",Customer Toilets,"Supermarket, Grocery store, Gourmet grocery store, Wine store, Tea store",08:00 - 20:00,08:00 - 20:00,08:00 - 20:00,10:00 - 16:00,08:00 - 20:00,08:00 - 20:00,08:00 - 20:00,https://api.scraperapi.com/?url=https%3A%2F%2Fsaxmundham.cylex-uk.co.uk%2Fcompany%2Fwaitrose---partners-saxmundham-19266946.html&api_key=adc3d866682a18dad67c04d3bcbc7f1c&scraper_sdk=python
Tesco Superstore,1 Church St ,IP17 1EP,Saxmundham ,Suffolk England,0345 671 9532,NA,NA,http://www.tesco.com/store-locator/uk/,NA,NA,"Supermarkets, Grocery Stores, Wine Stores, Bakery, Card Shops",NA,"Tesco, Supermarket, Convenience Store, Grocery Store, Produce Market",08:00 - 22:00,08:00 - 22:00,08:00 - 22:00,11:00 - 17:00,08:00 - 22:00,08:00 - 22:00,08:00 - 22:00,https://api.scraperapi.com/?url=https%3A%2F%2Fsaxmundham.cylex-uk.co.uk%2Fcompany%2Ftesco-superstore-23699305.html&api_key=adc3d866682a18dad67c04d3bcbc7f1c&scraper_sdk=python
The Kings Head,Front St,IP12 2LW,Orford ,Suffolk England,01394 450271,NA,NA,www.thekingsheadorford.co.uk,Beverages,NA,"Pubs, Public Houses, Bars, Bars and Inns, Bars & Wine Bars, Drinking Establishments, Inn, Accommodation, Hotel, Restaurants, Going out, Having Fun, Drinking, Night Clubs, Foods, Rooms, Castle, Dine, Music Festival, RSPB, Kings Head, The Quays, Ness, Stay",NA,NA,NA,12:00 - 23:30,12:00 - 23:30,12:00 - 22:30,NA,NA,NA,https://api.scraperapi.com/?url=https%3A%2F%2Forford-suffolk-coastal.cylex-uk.co.uk%2Fcompany%2Fthe-kings-head-16499387.html&api_key=adc3d866682a18dad67c04d3bcbc7f1c&scraper_sdk=python
Slaughden Wines,142 High Street ,IP15 5AQ,Aldeburgh ,Suffolk England,NA,NA,NA,,NA,NA,NA,NA,NA,NA,NA,NA,NA,NA,NA,NA,https://api.scraperapi.com/?url=https%3A%2F%2Faldeburgh.cylex-uk.co.uk%2Fcompany%2Fslaughden-wines-26766640.html&api_key=adc3d866682a18dad67c04d3bcbc7f1c&scraper_sdk=python
Jennie Jones Estate Agents,82 High Street ,IP15 5AB,Aldeburgh ,Suffolk England,01728 454622,NA,NA,www.jennie-jones.com,NA,NA,"Estate Agents, Hotel, Wine Bar, Buffet Restaurants",NA,NA,09:00 - 17:30,09:00 - 17:30,09:00 - 16:00,Closed,09:00 - 17:30,09:00 - 17:30,09:00 - 17:30,https://api.scraperapi.com/?url=https%3A%2F%2Faldeburgh.cylex-uk.co.uk%2Fcompany%2Fjennie-jones-estate-agents-14435169.html&api_key=adc3d866682a18dad67c04d3bcbc7f1c&scraper_sdk=python
Tesco Express,Saxmundham Rd ,IP15 5JA,Aldeburgh ,Suffolk England,0345 610 6365,NA,NA,http://www.tesco.com/store-locator/uk/,NA,NA,"Supermarkets, Grocery Stores, Wine Stores, Newsagents",NA,"Tesco, Supermarket, Convenience Store, Grocery Store, Produce Market",08:00 - 22:00,08:00 - 22:00,08:00 - 22:00,09:00 - 19:00,08:00 - 22:00,08:00 - 22:00,08:00 - 22:00,https://api.scraperapi.com/?url=https%3A%2F%2Faldeburgh.cylex-uk.co.uk%2Fcompany%2Ftesco-express-23701730.html&api_key=adc3d866682a18dad67c04d3bcbc7f1c&scraper_sdk=python
Regatta,171 High Street ,IP15 5AN,Aldeburgh ,Suffolk England,01728 452011,NA,NA,www.regattaaldeburgh.com,"Restaurant Menus, Seafood, Beer, Spirits, Wines, Coffee, Dishes, Lunch, Tea, Menu, Alcohol, Business Lunches, Lager, Wine List","Fine Dining, Breakfast, Booking","Restaurants, Meals, Private Dining, Food Restaurant, Going out, Bars, Drinking, Fish, Events, Drinks, Kitchens, Cuisine, Dinner, Dining, Socializing, Nightlife, Fresh, Foods, Seafood Restaurant, Vegetarian, Eating, Classics, Eat, Draught, A La Carte, Quality Ingredients, Table Bookings, Suppers",Reservations,NA,NA,NA,NA,NA,NA,NA,NA,https://api.scraperapi.com/?url=https%3A%2F%2Faldeburgh.cylex-uk.co.uk%2Fcompany%2Fregatta-12769255.html&api_key=adc3d866682a18dad67c04d3bcbc7f1c&scraper_sdk=python
Aldeburg Fresh Fish,1 Crag Path ,IP15 5BP,Aldeburgh ,Suffolk England,01728 454570,NA,NA,www.aldeburghfreshfish.com,NA,Food & Drink,"Drinks, Entertainment Lifestyle, Linsminis, Foods, Free Range Foods",NA,NA,NA,NA,NA,NA,NA,NA,NA,https://api.scraperapi.com/?url=https%3A%2F%2Faldeburgh.cylex-uk.co.uk%2Fcompany%2Faldeburg-fresh-fish-16726176.html&api_key=adc3d866682a18dad67c04d3bcbc7f1c&scraper_sdk=python
Threshers,184 HIGH STREET ,IP15 5AQ,Aldeburgh ,Suffolk England,01728 453705,NA,NA,,"Spirits, Wines",NA,"Wine Merchants, Wine Shop, Fine Wines, Quality Wines",NA,NA,NA,NA,NA,NA,NA,NA,NA,https://api.scraperapi.com/?url=https%3A%2F%2Faldeburgh.cylex-uk.co.uk%2Fcompany%2Fthreshers-16621677.html&api_key=adc3d866682a18dad67c04d3bcbc7f1c&scraper_sdk=python
Aldeburgh Olde Wine Shop,"116-118, HIGH STREET ",IP15 5AB,Aldeburgh ,Suffolk England,01728 452298,NA,NA,,"Beer, Spirits, Wines, Beverages",NA,"Beer Retail, Wine Retailers, Wine Retail, Beverage Store, Retail, Drinks, Wines Spirits Beer Retail",NA,NA,NA,NA,NA,NA,NA,NA,NA,https://api.scraperapi.com/?url=https%3A%2F%2Faldeburgh.cylex-uk.co.uk%2Fcompany%2Faldeburgh-olde-wine-shop-15655752.html&api_key=adc3d866682a18dad67c04d3bcbc7f1c&scraper_sdk=python
CEF City Electrical Factors,2 McMillan Road ,ML2 0ER,Netherton Industrial Estate ,North Lanarkshire Scotland,01698 355815,NA,NA,www.cef.co.uk,"data cable, cable accessories, cable management products, data cabinets, domestic appliances, air curtains, ceiling hetares, air warmers, lighting, test equipment, tools, fixings",NA,"Electrical Supplies, Wiring Supplies, Air Warmer",NA,NA,08:00 - 17:00,08:00 - 17:00,09:00 - 12:00,Closed,08:00 - 17:00,08:00 - 17:00,08:00 - 17:00,https://api.scraperapi.com/?url=https%3A%2F%2Fnetherton-industrial-estate.cylex-uk.co.uk%2Fcompany%2Fcef-city-electrical-factors-17265858.html&api_key=adc3d866682a18dad67c04d3bcbc7f1c&scraper_sdk=python
Richard Kihl Ltd,"Slaughden House, 140-144, High St ",IP15 5AQ,Aldeburgh ,Suffolk England,01728 454455,NA,NA,www.richardkihl.ltd.uk,"Beer, Spirits, Wines","Foodservice, Industrial Catering","Alcoholic Beverages, Fine Wines, Wines Spirits & Beer Importers, Drinks, Importers",NA,NA,09:00 - 17:00,09:00 - 17:00,10:00 - 13:00,Closed,09:00 - 17:00,09:00 - 17:00,09:00 - 17:00,https://api.scraperapi.com/?url=https%3A%2F%2Faldeburgh.cylex-uk.co.uk%2Fcompany%2Frichard-kihl-ltd-13466517.html&api_key=adc3d866682a18dad67c04d3bcbc7f1c&scraper_sdk=python
Toolstation - Netherton Industrial Estate,Canyon Road ,ML2 0EG,Netherton Industrial Estate ,North Lanarkshire Scotland,0330 333 3303,NA,NA,www.toolstation.com,"storage equipment, access towers, multi purpose ladders, toolboxes, platforms, hand tools, vices, clamps, punches, flooring tools, roofing tools, pliers, plastering tools, plumbers tools, hammers, saws, wiring accessories",Nationwide,"Plumbing Supplies, Building Supplies, Construction Materials, Toolbox, Power Tools, Vice, Plumber Tools, Punch",NA,NA,07:00 - 20:00,07:00 - 20:00,07:00 - 20:00,09:00 - 16:00,07:00 - 20:00,07:00 - 20:00,07:00 - 20:00,https://api.scraperapi.com/?url=https%3A%2F%2Fnetherton-industrial-estate.cylex-uk.co.uk%2Fcompany%2Ftoolstation---netherton-industrial-estate-23816117.html&api_key=adc3d866682a18dad67c04d3bcbc7f1c&scraper_sdk=python
Electricians Wishaw Emergency Electrical Repairs Wishaw Services,KIRK ROAD ,ML2 7BL,Wishaw ,North Lanarkshire Scotland,01698 507180,NA,NA,wishaw.able-electric.co.uk,"Lighting, Lighting Accessories, Fuse Boxes, Lights","Electrical Services, Electrics","Lighting Equipment, Lighting Systems, Light Switches, Emergency Lighting, Security Lighting, Security Lights, Plug Points, Fused Spurs, Electricians, Electrical Wiring, PAT Testing, Commercial Property, Rewires, Door Entry Systems, Electric Showers, Safety Surveys, Domestic Properties, Electrical Reports",NA,NA,NA,NA,NA,NA,NA,NA,NA,https://api.scraperapi.com/?url=https%3A%2F%2Fwishaw-north-lanarkshire.cylex-uk.co.uk%2Fcompany%2Felectricians-wishaw-emergency-electrical-repairs-wishaw-services-17186530.html&api_key=adc3d866682a18dad67c04d3bcbc7f1c&scraper_sdk=python
Tbl,18 STATION ROAD ,G69 7UF,Baillieston ,Glasgow City Scotland,0141 773 2166,0141 773 2904,NA,www.tonybeal.com,"Banners, Flags, Chains, Pelmets, Webbing, Vehicle Spares, Trailer Accessories",NA,"Tarpaulins, Tracking, Rope, Wire Rope, Netting, Play Area, Shackles, Slings, Buckles, Twine, Lifting Systems, Load Restraint, Shock Cord, Shoring Poles, Scaffold Netting, Goal Nets, Load Binders",NA,NA,NA,NA,NA,NA,NA,NA,NA,https://api.scraperapi.com/?url=https%3A%2F%2Fbaillieston.cylex-uk.co.uk%2Fcompany%2Ftbl-19569783.html&api_key=adc3d866682a18dad67c04d3bcbc7f1c&scraper_sdk=python
Electricians Cumbernauld Emergency Electrical Repairs Cumbernauld Services,ST MUNGOS ROAD ,G67 1QR,Cumbernauld ,North Lanarkshire Scotland,01236 816202,01236 816098,0800 046 2637,cumbernauld.able-electric.co.uk,"Lighting, Lighting Accessories, Fuse Boxes, Lights","Electrical Services, Electrics","Lighting Equipment, Lighting Systems, Light Switches, Emergency Lighting, Security Lighting, Security Lights, Plug Points, Fused Spurs, Electricians, Electrical Wiring, PAT Testing, Commercial Property, Rewires, Door Entry Systems, Electric Showers, Safety Surveys, Domestic Properties, Electrical Reports",NA,NA,NA,NA,NA,NA,NA,NA,NA,https://api.scraperapi.com/?url=https%3A%2F%2Fcumbernauld.cylex-uk.co.uk%2Fcompany%2Felectricians-cumbernauld-emergency-electrical-repairs-cumbernauld-services-17181529.html&api_key=adc3d866682a18dad67c04d3bcbc7f1c&scraper_sdk=python
Auto Electrical Services UK Ltd,20 Melford Rd ,ML4 3LR,Righead Industrial Estate ,North Lanarkshire Scotland,01698 747 137,01698 749 125,NA,www.crawfordgroup.co.uk,"Car Accessories, Car Parts, Car Supplies, Car Parts & Accessories, Car Engine, Wipers, Catalytic Converters, Turbochargers, Alternators, Engine Parts, Brakes & Clutches, Diesel Engines, Starter Motors, Car Alternators, Electrical Parts, Batteries, Car Batteries, Car Tyres, Alarm Systems, Cables, Sensors, Vehicle Lighting, Trailer Boards, Clutch Parts","auto electrical services, alarm systems, batteries, audi garage, bmw garage, brakes & clutches, car accessories & parts, car alarm fitting, car alternators, car batteries, car diagnostics, car engines, car repairs, car servicing, car springs, car tyres, catalytic converters, clutch parts, clutch repairs, commercial engines, commercial vehicle accessories & parts, commercial vehicle repairs, cylinder head repairs, diesel engineers, diesel engines, diesel fuel injection, engine diagnostics, engine parts, engine rebuilds, vehicle tracking, vehicle inspection, turbochargers, starter motors, oil change, mot testing, mobile auto electricians, mechanics, hgv repairs, garage services, gearbox repairs, Vehicle Graphics & Chevrons, Car Repair, Car Maintenance, Car Service, Vehicle Repair, Electrical Diagnostics, Car Diagnostic, Engine Diagnostic, MOT Test, Engine Rebuilding, Clutch Repair, Car Electrics, Auto Electrics, Cylinder Head Repair","Switchgear, Marine Electrical, Wiring Looms, Rotating Beacons, Lift Pump, Veh, Lampwork, Bus Electrical, Control Panel Wiring, Auto Lighting, Hella Products, Plant Electrical, Isolator Switch",NA,"Auto Accessories Wholesaler, Auto Parts Wholesaler, Mechanic, BMW Garage, Auto Electrician, Mobile Auto Electrician",08:30 - 17:00,08:30 - 17:00,Closed,Closed,08:30 - 17:00,08:30 - 17:00,08:30 - 17:00,https://api.scraperapi.com/?url=https%3A%2F%2Frighead-industrial-estate.cylex-uk.co.uk%2Fcompany%2Fauto-electrical-services-uk-ltd-19950816.html&api_key=adc3d866682a18dad67c04d3bcbc7f1c&scraper_sdk=python
Electricians Coatbridge Emergency Electrical Repairs Coatbridge Services,COLINSLEE CRESCENT,G69 7TZ,Bargeddie ,Glasgow City Scotland,01236 816202,01236 816084,0800 046 2637,coatbridge.able-electric.co.uk,"Lighting, Lighting Accessories, Fuse Boxes, Lights","Electrical Services, Electrics","Lighting Equipment, Lighting Systems, Light Switches, Emergency Lighting, Security Lighting, Security Lights, Plug Points, Fused Spurs, Electricians, Electrical Wiring, PAT Testing, Commercial Property, Rewires, Door Entry Systems, Electric Showers, Safety Surveys, Domestic Properties, Electrical Reports",NA,NA,NA,NA,NA,NA,NA,NA,NA,https://api.scraperapi.com/?url=https%3A%2F%2Fbargeddie.cylex-uk.co.uk%2Fcompany%2Felectricians-coatbridge-emergency-electrical-repairs-coatbridge-services-17181306.html&api_key=adc3d866682a18dad67c04d3bcbc7f1c&scraper_sdk=python
Rexel,"Unit 4 & 5 Belgrave Street, ",ML4 3NP,Bellshill ,Scotland,01698 843430,01698 845372,NA,https://www.rexel.co.uk/,"Batteries & Torches, Business Services, Cable, Cable Accessories, Cable Management, Circuit Protection, Contract Service Products, Data Networking, Electrical Test, Fire & Security, Fixings, HVAC Equipment, Industrial Controls, Lamps, Luminaires, PPE & Workwear, Renewable Energy, Site, Tools, White & Brown Goods, Wiring Accessories, electric vehicle charging, EV charging, EV accessories, Exterior Lighting, Cables","Lighting design, project management, industrial branches, stores solutions, van stock solutions, asset management solutions, power and energy consultancy, energy efficiency solutions, energy surveys, energy audits, electric vehicle charging solutions, solar rooftop design, workwear branding, technical advice, specialist product sourcing, Electrical Services","Luminaire, Cabling Contractors, Industrial Equipment Suppliers, Wholesalers, Distributors, Quality, Specialist, Energy, Online, Expert, Fire Security, Stockists, Webshop, Branch, Energy Audit, Multi Channel, Electrical Tests, Security Systems Suppliers",NA,"Rexel, Electrical Supply Store, Industrial Equipment Supplier, Exterior Lighting, Cabling Contractor, Security System Supplier, Wholesaler",07:00 - 17:00,07:00 - 17:00,Closed,Closed,07:00 - 17:00,07:00 - 17:00,07:00 - 17:00,https://api.scraperapi.com/?url=https%3A%2F%2Fbellshill-north-lanarkshire.cylex-uk.co.uk%2Fcompany%2Frexel-26347669.html&api_key=adc3d866682a18dad67c04d3bcbc7f1c&scraper_sdk=python
the cotton and craft company,,,Cumbernauld ,North Lanarkshire Scotland,7842213000,NA,NA,thecottonandcraftcompany.co.uk/ekmps/shops/account_cancelled.asp,"Paint, Fabrics, Adhesives, Glue, Buttons, Safety Pins",we supply to all the u k highlands and islands and Europe.,"Haberdashery, Ribbons, Beads, Needlecraft, Threads, Findings, Craft Tools, Quilting, Scissors, Yarns, Storage, Tape, Stone, Wire, Knitting, Knives, Cutters, Patterns, Needles, Patchwork, Crochet, Felting, Dyes, Cord, Elastic, Zip, Wadding, Quilting Fabric, Interlining, Bag Making, Accessories & Tools, Acrylic Jewels, Cords & Elastics, Fat Eights, Ribbon Roses",NA,NA,10:00 - 17:00,10:00 - 17:00,12:00 - 14:30,Closed,11:00 - 14:00,10:00 - 17:00,10:00 - 17:00,https://api.scraperapi.com/?url=https%3A%2F%2Fcumbernauld.cylex-uk.co.uk%2Fcompany%2Fthe-cotton-and-craft-company-23738746.html&api_key=adc3d866682a18dad67c04d3bcbc7f1c&scraper_sdk=python
Workwear Industrial Supplies Ltd,5 Teal Court ,ML4 3NN,Strathclyde Business Park ,North Lanarkshire Scotland,01698 845550,01698 845990,NA,www.industrialsolutions.uk.com,NA,NA,"Protective Equipment, Workwear Manufacturers",NA,NA,08:30 - 17:00,08:30 - 17:00,Closed,Closed,08:30 - 17:00,08:30 - 17:00,08:30 - 17:00,https://api.scraperapi.com/?url=https%3A%2F%2Fstrathclyde-business-park.cylex-uk.co.uk%2Fcompany%2Fworkwear-industrial-supplies-ltd-17101872.html&api_key=adc3d866682a18dad67c04d3bcbc7f1c&scraper_sdk=python
Exo 2,"Caledonian House, Phoenix Crescent, Strathclyde Business Park ",ML4 3NJ,Strathclyde Business Park ,North Lanarkshire Scotland,01698 746347,NA,NA,www.ispl.co.uk,Safety Equipment,NA,"Clothing Manufacturers, Manufacture of Wearing Apparel, Clothing Manufacturers & Wholesalers, Marine",NA,NA,NA,NA,NA,NA,NA,NA,NA,https://api.scraperapi.com/?url=https%3A%2F%2Fstrathclyde-business-park.cylex-uk.co.uk%2Fcompany%2Fexo-2-20044360.html&api_key=adc3d866682a18dad67c04d3bcbc7f1c&scraper_sdk=python
M S a (Britain) Ltd,"LOCHARD HOUSE, LINNET WAY ",ML4 3RA,Strathclyde Business Park ,North Lanarkshire Scotland,01698 575557,01698 740141,NA,,"Protective Clothing, Safety Products",NA,"Personal Protective Equipment, Fire Detection Systems, Gas Detection Systems, Military Products, Tactical Vest, Air-Purifying Respirators, Filtering Face Piece",NA,NA,NA,NA,NA,NA,NA,NA,NA,https://api.scraperapi.com/?url=https%3A%2F%2Fstrathclyde-business-park.cylex-uk.co.uk%2Fcompany%2Fm-s-a--britain--ltd-16938629.html&api_key=adc3d866682a18dad67c04d3bcbc7f1c&scraper_sdk=python
Original Emblems,"Concept House, Old Monkland Road ",ML5 5EU,Coatbridge ,North Lanarkshire Scotland,01236 606560,01236 627711,NA,,NA,NA,Embroiderers,NA,NA,NA,NA,NA,NA,NA,NA,NA,https://api.scraperapi.com/?url=https%3A%2F%2Fcoatbridge.cylex-uk.co.uk%2Fcompany%2Foriginal-emblems-16770102.html&api_key=adc3d866682a18dad67c04d3bcbc7f1c&scraper_sdk=python
M S a Britain Ltd,SHAWHEAD INDUSTRIAL ESTATE,ML5 4TD,Coatbridge ,North Lanarkshire Scotland,01236 424966,01236 440881,NA,,NA,NA,Protective Equipment,NA,NA,NA,NA,NA,NA,NA,NA,NA,https://api.scraperapi.com/?url=https%3A%2F%2Fcoatbridge.cylex-uk.co.uk%2Fcompany%2Fm-s-a-britain-ltd-19999355.html&api_key=adc3d866682a18dad67c04d3bcbc7f1c&scraper_sdk=python
Universal Sports & Clothing,229 Dundyvan Road ,ML5 4AG,Coatbridge ,North Lanarkshire Scotland,01236 422334,01236 606020,NA,universalsportsandclothing.co.uk,"Workwear, Leisurewear","Embroidery, Screen Printing","Sports Equipment, Leisure Clothing",NA,NA,09:00 - 17:00,09:00 - 17:00,Closed,Closed,09:00 - 17:00,09:00 - 17:00,09:00 - 17:00,https://api.scraperapi.com/?url=https%3A%2F%2Fcoatbridge.cylex-uk.co.uk%2Fcompany%2Funiversal-sports---clothing-17103110.html&api_key=adc3d866682a18dad67c04d3bcbc7f1c&scraper_sdk=python
A & e Russell Ltd,5 Brown Street ,ML5 4AS,Coatbridge ,North Lanarkshire Scotland,01236 433511,01236 440070,NA,www.greenham.com,Protective Clothing,NA,Protective Clothing Suppliers,NA,NA,NA,NA,NA,NA,NA,NA,NA,https://api.scraperapi.com/?url=https%3A%2F%2Fcoatbridge.cylex-uk.co.uk%2Fcompany%2Fa---e-russell-ltd-17059738.html&api_key=adc3d866682a18dad67c04d3bcbc7f1c&scraper_sdk=python
Dee Sports Trophies Embroidery,287 Dundyvan Road ,ML5 4AU,Coatbridge ,North Lanarkshire Scotland,01236 432552,NA,NA,www.sublimedesigns.co.uk,Medals,NA,"Rosettes, Medals and Rosettes",NA,NA,09:00 - 17:00,09:00 - 13:00,Closed,Closed,09:00 - 17:00,09:00 - 17:00,09:00 - 17:00,https://api.scraperapi.com/?url=https%3A%2F%2Fcoatbridge.cylex-uk.co.uk%2Fcompany%2Fdee-sports-trophies-embroidery-17088728.html&api_key=adc3d866682a18dad67c04d3bcbc7f1c&scraper_sdk=python
Celtic Yarns,1 Coatbank Way ,ML5 3AG,Coatbridge ,North Lanarkshire Scotland,01236 432589,01236 432589,NA,www.celticyarnscostumemaker-coatbridge.co.uk,NA,NA,"Shopping & Retail, Dancewear, Clothing Shops",NA,NA,13:00 - 17:00,Closed,Closed,Closed,13:00 - 17:00,13:00 - 17:00,13:00 - 17:00,https://api.scraperapi.com/?url=https%3A%2F%2Fcoatbridge.cylex-uk.co.uk%2Fcompany%2Fceltic-yarns-17116324.html&api_key=adc3d866682a18dad67c04d3bcbc7f1c&scraper_sdk=python
Workwear & Ppe Supplies Limited,21 LINKWOOD ROAD ,ML6 6GP,Airdrie ,North Lanarkshire Scotland,NA,NA,NA,,NA,NA,"Textile Manufacturers, Textile Finishing",NA,NA,NA,NA,NA,NA,NA,NA,NA,https://api.scraperapi.com/?url=https%3A%2F%2Fairdrie.cylex-uk.co.uk%2Fcompany%2Fworkwear---ppe-supplies-limited-22963538.html&api_key=adc3d866682a18dad67c04d3bcbc7f1c&scraper_sdk=python
Rexel,"Unit 3 Block 3, ",ML6 9BG,Airdrie ,North Lanarkshire Scotland,01236 779080,01236 779066,NA,https://www.rexel.co.uk/,"Batteries & Torches, Business Services, Cable, Cable Accessories, Cable Management, Circuit Protection, Contract Service Products, Data Networking, Electrical Test, Fire & Security, Fixings, HVAC Equipment, Industrial Controls, Lamps, Luminaires, PPE & Workwear, Renewable Energy, Site, Tools, White & Brown Goods, Wiring Accessories, electric vehicle charging, EV charging, EV accessories, Exterior Lighting, Cables","Lighting design, project management, industrial branches, stores solutions, van stock solutions, asset management solutions, power and energy consultancy, energy efficiency solutions, energy surveys, energy audits, electric vehicle charging solutions, solar rooftop design, workwear branding, technical advice, specialist product sourcing, Electrical Services","Luminaire, Cabling Contractors, Industrial Equipment Suppliers, Wholesalers, Distributors, Quality, Specialist, Energy, Online, Expert, Fire Security, Stockists, Webshop, Branch, Energy Audit, Multi Channel, Electrical Tests, Security Systems Suppliers",NA,"Rexel, Electrical Supply Store, Industrial Equipment Supplier, Exterior Lighting, Cabling Contractor, Security System Supplier, Wholesaler",07:30 - 17:00,07:30 - 17:00,Closed,Closed,07:30 - 17:00,07:30 - 17:00,07:30 - 17:00,https://api.scraperapi.com/?url=https%3A%2F%2Fairdrie.cylex-uk.co.uk%2Fcompany%2Frexel-26347670.html&api_key=adc3d866682a18dad67c04d3bcbc7f1c&scraper_sdk=python
BHF British Heart Foundation - Book Bank - Stobcross Recycling Centre,"Stobcross Recycling Centre, Stobcross Street ",ML5 1BE,Coatbridge ,North Lanarkshire Scotland,01372 477300,NA,NA,www.bhf.org.uk,"Bike Accessories, Clothing, Cycling Kit, Exercise Equipment, Pedometers, Personalised gifts, Pin badges, T-Shirts, Walking Gear, Books","Event volunteering, Heart disease awareness campaigns, Fundraising, Fundraising volunteering, Heart research, Heart disease prevention","Heart Charity, Charity Shops",NA,NA,NA,NA,NA,NA,NA,NA,NA,https://api.scraperapi.com/?url=https%3A%2F%2Fcoatbridge.cylex-uk.co.uk%2Fcompany%2Fbhf-british-heart-foundation---book-bank---stobcross-recycling-centre-19285412.html&api_key=adc3d866682a18dad67c04d3bcbc7f1c&scraper_sdk=python
Neweys Online Electrical Wholesaler - Airdrie,"Unit 3, Block 3, Victoria Industrial Estate, ",ML6 9BG,Airdrie ,North Lanarkshire Scotland,01236 779066,01236 779080,01236 779066,www.rexel.co.uk/uki,"Cable trays, electrical supplies, hvac supplies, site equipment, wiring accessories, workwear, lighting fixtures","Heating Design Service, Cutting Tool Hire, Test Instrument Repair","Electrical Equipment, Cable Tray",NA,NA,07:30 - 17:00,07:30 - 17:00,Closed,Closed,07:30 - 17:00,07:30 - 17:00,07:30 - 17:00,https://api.scraperapi.com/?url=https%3A%2F%2Fairdrie.cylex-uk.co.uk%2Fcompany%2Fneweys-online-electrical-wholesaler---airdrie-23726043.html&api_key=adc3d866682a18dad67c04d3bcbc7f1c&scraper_sdk=python
Coatbridge Citizens Advice Bureau,"TOWNHEAD COMMUNITY CENTRE, MOSSPARK ROAD ",ML5 2HG,Coatbridge ,North Lanarkshire Scotland,01236 449872,NA,NA,,NA,NA,"Citizens Advice, Money Advice, Volunteering, Fundraising, Welfare Rights",NA,NA,10:00 - 15:45,10:00 - 12:00,Closed,Closed,10:00 - 15:45,10:00 - 15:45,10:00 - 15:45,https://api.scraperapi.com/?url=https%3A%2F%2Fcoatbridge.cylex-uk.co.uk%2Fcompany%2Fcoatbridge-citizens-advice-bureau-17920257.html&api_key=adc3d866682a18dad67c04d3bcbc7f1c&scraper_sdk=python
BHF British Heart Foundation - Clothing Bank - Maxim Park,"Maxim Park, Maxim Management Suite, Parklands Avenue ",ML1 4WQ,Holytown ,North Lanarkshire Scotland,01372 477300,NA,NA,www.bhf.org.uk,"Bike Accessories, Clothing, Cycling Kit, Exercise Equipment, Pedometers, Personalised gifts, Pin badges, T-Shirts, Walking Gear, Books","Event volunteering, Heart disease awareness campaigns, Fundraising, Fundraising volunteering, Heart research, Heart disease prevention","Heart Charity, Charity Shops",NA,NA,NA,NA,NA,NA,NA,NA,NA,https://api.scraperapi.com/?url=https%3A%2F%2Fholytown.cylex-uk.co.uk%2Fcompany%2Fbhf-british-heart-foundation---clothing-bank---maxim-park-25797495.html&api_key=adc3d866682a18dad67c04d3bcbc7f1c&scraper_sdk=python
Investors In Young People,"BELLSHILL COMMUNITY CENTRE, JOHN STREET ",ML4 1RJ,Bellshill ,North Lanarkshire Scotland,01698 345393,0169-874-9644,NA,,NA,NA,"Volunteering, Community Projects, Non-Profit Organisation",NA,NA,NA,NA,NA,NA,NA,NA,NA,https://api.scraperapi.com/?url=https%3A%2F%2Fbellshill-north-lanarkshire.cylex-uk.co.uk%2Fcompany%2Finvestors-in-young-people-17958878.html&api_key=adc3d866682a18dad67c04d3bcbc7f1c&scraper_sdk=python
Cornerstone Community Care,"6A, Forsyth St ",ML6 6DF,Airdrie ,North Lanarkshire Scotland,01236 751105,01236 757520,NA,www.cornerstone.org.uk,NA,"fundraising events, volunteering, local support","Voluntary Organisations, Charitable & Voluntary Organisations",NA,NA,NA,NA,NA,NA,NA,NA,NA,https://api.scraperapi.com/?url=https%3A%2F%2Fairdrie.cylex-uk.co.uk%2Fcompany%2Fcornerstone-community-care-16742254.html&api_key=adc3d866682a18dad67c04d3bcbc7f1c&scraper_sdk=python
Enable Scotland,"UNIT 46, FOUNTAIN BUSINESS CENTRE, ELLIS STREET ",ML5 3AA,Coatbridge ,North Lanarkshire Scotland,01236 607103,01236 607110,NA,www.enable.org.uk,NA,NA,"Charities, Voluntary Organisations, Volunteering, Charity Projects, Charitable Organisations, Community, Scotland, Help, Members, Learning Disabilities, Supports, Discrimination, Adult Services, Better Life",NA,NA,NA,NA,NA,NA,NA,NA,NA,https://api.scraperapi.com/?url=https%3A%2F%2Fcoatbridge.cylex-uk.co.uk%2Fcompany%2Fenable-scotland-17121477.html&api_key=adc3d866682a18dad67c04d3bcbc7f1c&scraper_sdk=python
Parkinson's Self Help Group,25 Wellwynd ,ML6 0BN,Airdrie ,North Lanarkshire Scotland,01236 766350,01236 769235,NA,www.parkinsonselfhelp.org.uk,NA,"welfare rights, befriending service, carers support group, off-site social activities, on-site social activities, Massage, Equipment Hire","Personal Services, Reflexology, Manicure, Pedicure, Business Support Services, Voluntary Organisations, Therapy, Carers, Charities & Volunteer Organizations, Drop, Befriending, Carers Support Groups",NA,NA,09:00 - 16:00,09:00 - 16:00,10:00 - 14:00,Closed,09:00 - 16:00,09:00 - 16:00,09:00 - 16:00,https://api.scraperapi.com/?url=https%3A%2F%2Fairdrie.cylex-uk.co.uk%2Fcompany%2Fparkinson%2527s-self-help-group-20045470.html&api_key=adc3d866682a18dad67c04d3bcbc7f1c&scraper_sdk=python
The Rochsoles Community Resource Project,63B ROCHSOLES DV ,ML6 6ST,Airdrie ,North Lanarkshire Scotland,01236 767896,01236 767896,NA,,NA,NA,"Voluntary Organisations, Volunteering, Community Projects, Voluntary Services, Voluntary Association, Volunteer, Volunteer Opportunities, Non-Profit Organisation, Voluntary",NA,NA,NA,NA,NA,NA,NA,NA,NA,https://api.scraperapi.com/?url=https%3A%2F%2Fairdrie.cylex-uk.co.uk%2Fcompany%2Fthe-rochsoles-community-resource-project-17099296.html&api_key=adc3d866682a18dad67c04d3bcbc7f1c&scraper_sdk=python
Airdrie BHF Shop,1-3 Bank Street ,ML6 6AF,Airdrie ,North Lanarkshire Scotland,01236 768915,NA,NA,www.bhf.org.uk,"Bike Accessories, Clothing, Cycling Kit, Exercise Equipment, Pedometers, Personalised gifts, Pin badges, T-Shirts, Walking Gear, Books","Event volunteering, Heart disease awareness campaigns, Fundraising, Fundraising volunteering, Heart research, Heart disease prevention","Heart Charity, Charity Shops",NA,NA,09:30 - 05:00,09:30 - 05:00,09:30 - 05:00,09:30 - 05:00,09:30 - 05:00,09:30 - 05:00,09:30 - 05:00,https://api.scraperapi.com/?url=https%3A%2F%2Fairdrie.cylex-uk.co.uk%2Fcompany%2Fairdrie-bhf-shop-19565669.html&api_key=adc3d866682a18dad67c04d3bcbc7f1c&scraper_sdk=python
Carisbrooke Day Centre,SOUTH COMMONHEAD AV ,ML6 6PA,Airdrie ,North Lanarkshire Scotland,01236 763771,01236 763771,NA,www.enable.org.uk,NA,NA,"Charities, Voluntary Organisations, Volunteering, Charity Projects, Charitable Organisations, Charity Donations, Charities & Voluntary Organisations, Non-Profit Organisation, Voluntary, Public Interest",NA,NA,NA,NA,NA,NA,NA,NA,NA,https://api.scraperapi.com/?url=https%3A%2F%2Fairdrie.cylex-uk.co.uk%2Fcompany%2Fcarisbrooke-day-centre-17079327.html&api_key=adc3d866682a18dad67c04d3bcbc7f1c&scraper_sdk=python
Marketing By Design,"63, WOODEND PLACE ",AB15 6AP,Aberdeen ,Aberdeen City Scotland,01224 311874,020 8597 4911,NA,,NA,Advertising,"Advertising Agency, Advertising Companies, Marketing Companies",NA,NA,NA,NA,NA,NA,NA,NA,NA,https://api.scraperapi.com/?url=https%3A%2F%2Faberdeen.cylex-uk.co.uk%2Fcompany%2Fmarketing-by-design-17142372.html&api_key=adc3d866682a18dad67c04d3bcbc7f1c&scraper_sdk=python
MINT TICK TAX LTD,56 King Street ,AB24 5AX,Aberdeen ,Aberdeen City Scotland,NA,NA,NA,,NA,NA,Advertising Agency,NA,NA,NA,NA,NA,NA,NA,NA,NA,https://api.scraperapi.com/?url=https%3A%2F%2Faberdeen.cylex-uk.co.uk%2Fcompany%2Fmint-tick-tax-ltd-20615363.html&api_key=adc3d866682a18dad67c04d3bcbc7f1c&scraper_sdk=python
Fishdee Limited,18 Bon Accord Crescent,AB11 6XY,Aberdeen ,Aberdeen City Scotland,NA,NA,NA,,NA,NA,"Estate Agents, Advertising Agency, Real Estate Agencies",NA,NA,NA,NA,NA,NA,NA,NA,NA,https://api.scraperapi.com/?url=https%3A%2F%2Faberdeen.cylex-uk.co.uk%2Fcompany%2Ffishdee-limited-22494277.html&api_key=adc3d866682a18dad67c04d3bcbc7f1c&scraper_sdk=python
M a v S,3 MAVISBANK STREET ,ML6 0JA,Airdrie ,North Lanarkshire Scotland,01236 764866,01236 756183,NA,scvo.org.uk,NA,NA,"Charities, Voluntary Organisations, Volunteering, Charities & Voluntary Organisations, Public Interest",NA,NA,NA,NA,NA,NA,NA,NA,NA,https://api.scraperapi.com/?url=https%3A%2F%2Fairdrie.cylex-uk.co.uk%2Fcompany%2Fm-a-v-s-16762191.html&api_key=adc3d866682a18dad67c04d3bcbc7f1c&scraper_sdk=python
Jamjar Marketing Ltd,20 MEARNS STREET ,AB11 5AT,Aberdeen ,Aberdeen City Scotland,01224 649 741,0845 838 0941,NA,,NA,"Advertising & Marketing, Childcare",Advertising Agency,NA,NA,NA,NA,NA,NA,NA,NA,NA,https://api.scraperapi.com/?url=https%3A%2F%2Faberdeen.cylex-uk.co.uk%2Fcompany%2Fjamjar-marketing-ltd-19913940.html&api_key=adc3d866682a18dad67c04d3bcbc7f1c&scraper_sdk=python
Allsee Media Limited,Enterprise Business Centre Admiral Court,AB11 5QX,Aberdeen ,Aberdeen City Scotland,01224 289780,NA,NA,allsee-media.com,NA,NA,Advertising Agency,NA,NA,NA,NA,NA,NA,NA,NA,NA,https://api.scraperapi.com/?url=https%3A%2F%2Faberdeen.cylex-uk.co.uk%2Fcompany%2Fallsee-media-limited-22290398.html&api_key=adc3d866682a18dad67c04d3bcbc7f1c&scraper_sdk=python
FLOAT COLAB LTD,39 links View Linksfield Road ,AB24 5RG,Aberdeen ,Aberdeen City Scotland,NA,NA,NA,,NA,NA,Advertising Agency,NA,NA,NA,NA,NA,NA,NA,NA,NA,https://api.scraperapi.com/?url=https%3A%2F%2Faberdeen.cylex-uk.co.uk%2Fcompany%2Ffloat-colab-ltd-24405660.html&api_key=adc3d866682a18dad67c04d3bcbc7f1c&scraper_sdk=python
Newsline Scotland Press Agency,10 Exchequer Row ,AB11 5BW,Aberdeen ,Aberdeen City Scotland,01224 594000,01224 594001,NA,www.newsline-media.com,"Photographs, Portrait, Advertisement","Advertising, Advertising Photography, Advertising Photographer, Advertising & Commercial Photographers","Photographer, Advertising Agency, Professional Photography, Professional Photographer, Digital Photography, Fashion Photography, Commercial Photography, Commercial Photographers, Commercial Digital Photography, Photo Gallery, Photoshoot, Commercials, Professional Photographs, Fashion Photographer, Photography Studios",NA,media/news/publishing,NA,NA,NA,NA,NA,NA,NA,https://api.scraperapi.com/?url=https%3A%2F%2Faberdeen.cylex-uk.co.uk%2Fcompany%2Fnewsline-scotland-press-agency-17162837.html&api_key=adc3d866682a18dad67c04d3bcbc7f1c&scraper_sdk=python
Covey Mccormick,"BON ACCORD HOUSE, RIVERSIDE DRIVE ",AB11 7SL,Aberdeen ,Aberdeen City Scotland,01224 581700,01224 585 722,NA,www.covey-mccormick.co.uk,Company Brochure,"Advertising, Print Design, Design, Brochure Design","Advertising Agency, Internet Advertising, Multimedia Advertising, Web Advertising, Print Advertising, Brand Identity, Brand Communications, Advertising Specialist, Advertising Agent, Creative Marketing, Services, Web Design, Marketing, Marketing Consultants, Marketing Ideas, Covey Mccormick, Marketing Consultants & Researchers",NA,NA,NA,NA,NA,NA,NA,NA,NA,https://api.scraperapi.com/?url=https%3A%2F%2Faberdeen.cylex-uk.co.uk%2Fcompany%2Fcovey-mccormick-20033750.html&api_key=adc3d866682a18dad67c04d3bcbc7f1c&scraper_sdk=python
Be Media,3 CARDEN TER ,AB10 1US,Aberdeen ,Aberdeen City Scotland,01224 652961,NA,NA,bemedia.co.uk,NA,Advertising,"Advertising Agency, Advertising Companies, Marketing Companies",NA,NA,NA,NA,NA,NA,NA,NA,NA,https://api.scraperapi.com/?url=https%3A%2F%2Faberdeen.cylex-uk.co.uk%2Fcompany%2Fbe-media-16830018.html&api_key=adc3d866682a18dad67c04d3bcbc7f1c&scraper_sdk=python
CONCEPT PROMOTIONAL MERCHANDISE LTD.,15-17 Commerce Street ,AB11 5EU,Aberdeen ,Aberdeen City Scotland,01224 580520,07950 255208,01224 212227,,"Promotional Gifts, Calendars, Corporate Clothing, Umbrellas, Diaries, Golf Products, Mouse Mats & Coasters","Brand Management, Corporate Identity, Promotional Gifts, Golf Products, Branded Outdoor Clothing, Umbrellas, USB Drives, Metal Writing Instruments, Corporate Clothing, Coffee Mugs, General Writing Instruments, Conference Merchandise, Crystalwear & Awards, Calendars, Diaries, Childrens Gifts, Bags & Portfolios, Recycled Products, Mouse Mats & Coasters","Advertising Agency, Promotional Items & Incentives, Children's Gifts, Usb Drive",NA,NA,NA,NA,NA,NA,NA,NA,NA,https://api.scraperapi.com/?url=https%3A%2F%2Faberdeen.cylex-uk.co.uk%2Fcompany%2Fconcept-promotional-merchandise-ltd--25341495.html&api_key=adc3d866682a18dad67c04d3bcbc7f1c&scraper_sdk=python
Aberdeen Solicitors Property Centre,40 Chapel Street ,AB10 1SP,Aberdeen ,Aberdeen City Scotland,01224 632949,07545 910925,01224 638262,www.aspc.co.uk,NA,"Sales, Residential, Letting, Houses, Flats, Commercial","Estate Agents, Advertising Agency, Local Business, Photographer, Professional Services, House, Lettings, Companies, Commercials, Dance & Night Club",NA,NA,09:00 - 19:00,09:00 - 17:00,09:00 - 13:00,Closed,09:00 - 19:00,09:00 - 19:00,09:00 - 19:00,https://api.scraperapi.com/?url=https%3A%2F%2Faberdeen.cylex-uk.co.uk%2Fcompany%2Faberdeen-solicitors-property-centre-16821603.html&api_key=adc3d866682a18dad67c04d3bcbc7f1c&scraper_sdk=python
Logik Image Management Limited,1 Union Wynd,AB10 1DQ,Aberdeen ,Aberdeen City Scotland,01224 869999,NA,NA,www.logik.co.uk,NA,NA,Advertising Agency,NA,NA,NA,NA,NA,NA,NA,NA,NA,https://api.scraperapi.com/?url=https%3A%2F%2Faberdeen.cylex-uk.co.uk%2Fcompany%2Flogik-image-management-limited-21740564.html&api_key=adc3d866682a18dad67c04d3bcbc7f1c&scraper_sdk=python
Mearns & Gill Advertising Ltd,"7, CARDEN PLACE",AB10 1PP,Aberdeen ,Aberdeen City Scotland,01224 646311,01224 631882,NA,www.mearns-gill.com,"Newspaper, Brochure","Advertising, Design, Event Management, Design and Print","Advertising Agency, Public Relations, Internet Advertising, Multimedia Advertising, Web Advertising, Print Advertising, PR Agency, Media Relations, PR Consultants, Brand Management, PR Consultancy, Public Relation Consultants, Creative Ideas, Advertising Specialist, Brand Design, Local Business, Web Design, Marketing, Branding, Graphic Designers, Events, Recruitment, Television, Print, Radio, Exhibitions, Web Design Company, Web Designers, Web Design Agency, Web, Press, Animation, Digital Media, Motion Graphics, Custom Built, Web Application, Online Solutions, Television Commercials, Mearnsandgill",NA,NA,08:45 - 17:30,08:45 - 16:00,Closed,Closed,08:45 - 17:30,08:45 - 17:30,08:45 - 17:30,https://api.scraperapi.com/?url=https%3A%2F%2Faberdeen.cylex-uk.co.uk%2Fcompany%2Fmearns---gill-advertising-ltd-16930728.html&api_key=adc3d866682a18dad67c04d3bcbc7f1c&scraper_sdk=python
Charlie Innes Associates Ltd,8 ALBERT PLACE ,AB25 1RG,Aberdeen ,Aberdeen City Scotland,01224 261313,NA,NA,charlieinnes.com,NA,NA,Advertising Agency,NA,NA,NA,NA,NA,NA,NA,NA,NA,https://api.scraperapi.com/?url=https%3A%2F%2Faberdeen.cylex-uk.co.uk%2Fcompany%2Fcharlie-innes-associates-ltd-20018161.html&api_key=adc3d866682a18dad67c04d3bcbc7f1c&scraper_sdk=python
S1jobs.Com,111 GALLOWGATE ,AB25 1BU,Aberdeen ,Aberdeen City Scotland,01224 619765,NA,NA,www.s1jobs.com/jobs/aberdeen,NA,Advertising,"Advertising Agency, Advertising Companies, Marketing Companies",NA,NA,09:00 - 17:00,09:00 - 17:00,Closed,Closed,09:00 - 17:00,09:00 - 17:00,09:00 - 17:00,https://api.scraperapi.com/?url=https%3A%2F%2Faberdeen.cylex-uk.co.uk%2Fcompany%2Fs1jobs-com-17959885.html&api_key=adc3d866682a18dad67c04d3bcbc7f1c&scraper_sdk=python
Studio-1 Vc Ltd,"21, SPA STREET ",AB25 1PU,Aberdeen ,Aberdeen City Scotland,01224 647888,07532 025940,NA,www.s1-design.co.uk,NA,"Brochure Design, Exhibition Design, Design Services","Advertising Agency, Creative Advertising, Web, Project Design Services",NA,NA,09:00 - 17:30,09:00 - 17:30,Closed,Closed,09:00 - 17:30,09:00 - 17:30,09:00 - 17:30,https://api.scraperapi.com/?url=https%3A%2F%2Faberdeen.cylex-uk.co.uk%2Fcompany%2Fstudio-1-vc-ltd-17130156.html&api_key=adc3d866682a18dad67c04d3bcbc7f1c&scraper_sdk=python
St George's House Charity,"82A WROTTESLEY ROAD, TETTENHALL ",WV6 8SH,Wolverhampton ,West Midlands England,NA,NA,NA,,NA,NA,Social Services,NA,NA,NA,NA,NA,NA,NA,NA,NA,https://api.scraperapi.com/?url=https%3A%2F%2Fwolverhampton.cylex-uk.co.uk%2Fcompany%2Fst-george%2527s-house-charity-22057335.html&api_key=adc3d866682a18dad67c04d3bcbc7f1c&scraper_sdk=python
Thirteen57 Ltd,"90 WROTTESLEY ROAD, TETTENHALL ",WV6 8SJ,Wolverhampton ,West Midlands England,NA,NA,NA,,NA,NA,"Social Services, Social Care",NA,NA,NA,NA,NA,NA,NA,NA,NA,https://api.scraperapi.com/?url=https%3A%2F%2Fwolverhampton.cylex-uk.co.uk%2Fcompany%2Fthirteen57-ltd-22135875.html&api_key=adc3d866682a18dad67c04d3bcbc7f1c&scraper_sdk=python
Iki Mobile Ltd,St. Andrews Hall ,TF11 8AZ,Shifnal ,Shropshire England,01952 460928,NA,NA,www.ikimobile.co.uk,NA,NA,"Computer Software Development, Public Transport, Data Capture, Community Transport",NA,NA,09:00 - 17:30,09:00 - 17:00,Closed,Closed,09:00 - 17:30,09:00 - 17:30,09:00 - 17:30,https://api.scraperapi.com/?url=https%3A%2F%2Fshifnal.cylex-uk.co.uk%2Fcompany%2Fiki-mobile-ltd-20005530.html&api_key=adc3d866682a18dad67c04d3bcbc7f1c&scraper_sdk=python
Gold Standard Care Ltd,5 Park St ,TF11 9BA,Shifnal ,Shropshire England,01952 462965,NA,NA,https://www.goldstandardcare.co.uk/,NA,NA,Home Health Care Services,NA,"Home Health Care Service, Senior Citizen Centre, Day Care Centre, Nursing Home, Hospice & Long Term Care",06:00 - 22:00,06:00 - 22:00,06:00 - 22:00,06:00 - 22:00,06:00 - 22:00,06:00 - 22:00,06:00 - 22:00,https://api.scraperapi.com/?url=https%3A%2F%2Fshifnal.cylex-uk.co.uk%2Fcompany%2Fgold-standard-care-ltd-26719684.html&api_key=adc3d866682a18dad67c04d3bcbc7f1c&scraper_sdk=python
NEW CHAPTERS FOSTERCARE LIMITED,2 Broadway ,TF11 8AZ,Shifnal ,Shropshire England,01952 463251,NA,NA,www.newchaptersfostercare.co.uk,NA,NA,Social Services,NA,NA,09:00 - 17:00,09:00 - 16:00,Closed,Closed,09:00 - 17:00,09:00 - 17:00,09:00 - 17:00,https://api.scraperapi.com/?url=https%3A%2F%2Fshifnal.cylex-uk.co.uk%2Fcompany%2Fnew-chapters-fostercare-limited-24819400.html&api_key=adc3d866682a18dad67c04d3bcbc7f1c&scraper_sdk=python
DESIGNTASTIC LIMITED,5 Carden Place ,AB10 1UT,Aberdeen ,Aberdeen City Scotland,01224 945560,NA,NA,designtastic.com,NA,NA,Advertising Agency,NA,NA,09:00 - 17:00,09:00 - 17:00,Closed,Closed,09:00 - 17:00,09:00 - 17:00,09:00 - 17:00,https://api.scraperapi.com/?url=https%3A%2F%2Faberdeen.cylex-uk.co.uk%2Fcompany%2Fdesigntastic-limited-24296379.html&api_key=adc3d866682a18dad67c04d3bcbc7f1c&scraper_sdk=python
Weston Park Foundation,Weston Park ,TF11 8LE,Weston-Under-Lizard ,Staffordshire England,01952 852103,NA,NA,www.weston-park.com,NA,NA,"Social Services, Restaurants, Foods",NA,NA,NA,NA,NA,NA,NA,NA,NA,https://api.scraperapi.com/?url=https%3A%2F%2Fweston-under-lizard.cylex-uk.co.uk%2Fcompany%2Fweston-park-foundation-21695699.html&api_key=adc3d866682a18dad67c04d3bcbc7f1c&scraper_sdk=python
Codsall Childrens Unit,"87, BILBROOK ROAD ",WV8 1EP,Codsall ,Staffordshire England,01902 842415,01243 792108,NA,,NA,NA,"Social Welfare, Social Services, Social Care, Social Work, Social Workers, Social Carers, Children's Homes",NA,NA,NA,NA,NA,NA,NA,NA,NA,https://api.scraperapi.com/?url=https%3A%2F%2Fcodsall.cylex-uk.co.uk%2Fcompany%2Fcodsall-childrens-unit-13950119.html&api_key=adc3d866682a18dad67c04d3bcbc7f1c&scraper_sdk=python
Codsall Area Social Services,Histons Hill,WV8 1AA,Wolverhampton ,West Midlands England,01902 846764,01902 434000,01383 411418,www.staffordshire.gov.uk/homepage.aspx,NA,NA,"Social Welfare, Social Services, Social Care, Social Work, Social Workers, Social Carers",NA,NA,NA,NA,NA,NA,NA,NA,NA,https://api.scraperapi.com/?url=https%3A%2F%2Fwolverhampton.cylex-uk.co.uk%2Fcompany%2Fcodsall-area-social-services-15919823.html&api_key=adc3d866682a18dad67c04d3bcbc7f1c&scraper_sdk=python
Action for Children,"D C A E, Cosford ",WV7 3HD,Wolverhampton ,West Midlands England,07525 734213,NA,NA,www.actionforchildren.org.uk,NA,Youth,"Adoption, Fostering",NA,NA,NA,NA,NA,NA,NA,NA,NA,https://api.scraperapi.com/?url=https%3A%2F%2Fwolverhampton.cylex-uk.co.uk%2Fcompany%2Faction-for-children-25814022.html&api_key=adc3d866682a18dad67c04d3bcbc7f1c&scraper_sdk=python
Flint Rita Mary,Albrighton,WV7 3PQ,Albrighton ,Staffordshire England,NA,NA,NA,,NA,Childcare,"Education, Childcare Assistance, Social Development",NA,Childminder,08:00 - 18:00,08:00 - 18:00,Closed,Closed,08:00 - 18:00,08:00 - 18:00,08:00 - 18:00,https://api.scraperapi.com/?url=https%3A%2F%2Falbrighton-south-staffordshire.cylex-uk.co.uk%2Fcompany%2Fflint-rita-mary-17889245.html&api_key=adc3d866682a18dad67c04d3bcbc7f1c&scraper_sdk=python
Spk Consultancy Ltd.,3 ROYAL OAK DRIVE ,ST19 9AN,Bishops Wood ,Staffordshire England,NA,NA,NA,,NA,NA,Social Services,NA,NA,NA,NA,NA,NA,NA,NA,NA,https://api.scraperapi.com/?url=https%3A%2F%2Fbishops-wood.cylex-uk.co.uk%2Fcompany%2Fspk-consultancy-ltd--22052657.html&api_key=adc3d866682a18dad67c04d3bcbc7f1c&scraper_sdk=python
Melville Club,STATION ROAD ,WV7 3QE,Albrighton ,Staffordshire England,01902 373727,NA,NA,,NA,Entertainment,"Social Club, Social Clubs & Associations, Leisure, Sports, Caring Premises, Associations, Social Services, Leisure Cultural, Club, Clubs & Associations",NA,NA,NA,NA,NA,NA,NA,NA,NA,https://api.scraperapi.com/?url=https%3A%2F%2Falbrighton-south-staffordshire.cylex-uk.co.uk%2Fcompany%2Fmelville-club-13171925.html&api_key=adc3d866682a18dad67c04d3bcbc7f1c&scraper_sdk=python
SHIFNAL AND ALBRIGHTON CHRISTIAN YOUTH PROJECT,ST. MARY'S CHURCH CENTRE VICARAGE FIELDS HIGH ST ,WV7 3EQ,Albrighton ,Staffordshire England,NA,NA,NA,,NA,NA,Social Services,NA,NA,NA,NA,NA,NA,NA,NA,NA,https://api.scraperapi.com/?url=https%3A%2F%2Falbrighton-south-staffordshire.cylex-uk.co.uk%2Fcompany%2Fshifnal-and-albrighton-christian-youth-project-20794447.html&api_key=adc3d866682a18dad67c04d3bcbc7f1c&scraper_sdk=python
The Albrighton Trust,Blue House La,WV7 3FL,Albrighton ,Staffordshire England,01902 372441,01902 374117,NA,albrightontrust.org.uk/index.php?p=home,Art,Recreation,"Charities, Voluntary Organisations, Volunteering, Charity Projects, Charitable Organisations, Humanitarian Aid, Humanitarian Organisations, Voluntary Services, Voluntary Association, Volunteer, Volunteer Opportunities, Charity Organizations, Charities & Voluntary Organisations, Aid Agencies, Social Services, Family Services, Social Care, Non-Profit Organisation, Organisations, Sports, Voluntary, Fishing, Activities, Public Interest, Disability Services, Disabled, Environmental Conservation Organization, Environmental Conservation, Albrighton Trust",NA,NA,09:00 - 16:30,09:00 - 16:30,Closed,Closed,09:00 - 16:30,09:00 - 16:30,09:00 - 16:30,https://api.scraperapi.com/?url=https%3A%2F%2Falbrighton-south-staffordshire.cylex-uk.co.uk%2Fcompany%2Fthe-albrighton-trust-13841220.html&api_key=adc3d866682a18dad67c04d3bcbc7f1c&scraper_sdk=python
EXPERTS2CARE LTD,"Bow Hill Windmill Lane, Albrighton ",WV7 3BS,Albrighton ,Staffordshire England,01902 375619,07811 469450,NA,www.experts2care.com,NA,NA,"Social Services, Recruitment Consultants",NA,NA,09:00 - 18:00,09:00 - 18:00,Closed,Closed,09:00 - 18:00,09:00 - 18:00,09:00 - 18:00,https://api.scraperapi.com/?url=https%3A%2F%2Falbrighton-south-staffordshire.cylex-uk.co.uk%2Fcompany%2Fexperts2care-ltd-24380156.html&api_key=adc3d866682a18dad67c04d3bcbc7f1c&scraper_sdk=python
A-Line Audio Visual Services,"THE EMMARICK, PARKHILL ",AB21 7AT,Dyce ,Aberdeenshire Scotland,01224 723377,01224 723399,NA,www.a-line.co.uk,"Sound Equipment, Audio Visual Equipment",Audio-Visual Equipment Hire,"Audio Visual Production, AV Production, Audio Visual Services, Sound Production, Audio Production, Audio Equipment, Av Equipment, Visual Equipment, Testimonials, Audio-Visual Equipment & Supplies, A Line, Visual Productions, Audio-Visual Consultants",NA,NA,NA,NA,NA,NA,NA,NA,NA,https://api.scraperapi.com/?url=https%3A%2F%2Fdyce.cylex-uk.co.uk%2Fcompany%2Fa-line-audio-visual-services-17158621.html&api_key=adc3d866682a18dad67c04d3bcbc7f1c&scraper_sdk=python
Tri-Cam,"9, WOODCROFT AVENUE ",AB22 8WY,Bridge Of Don ,Aberdeen City Scotland,01224 705250,020 7221 3969,NA,,NA,NA,"Sound Services, Audio Services, Av Services, Audio Visual Services",NA,NA,NA,NA,NA,NA,NA,NA,NA,https://api.scraperapi.com/?url=https%3A%2F%2Fbridge-of-don.cylex-uk.co.uk%2Fcompany%2Ftri-cam-17037302.html&api_key=adc3d866682a18dad67c04d3bcbc7f1c&scraper_sdk=python
Yates Welding Co Ltd.,20 Anderson Street ,ML6 0AA,Airdrie ,North Lanarkshire Scotland,NA,NA,NA,,NA,NA,"Metal Products Manufacturer, Manufacture of Metal Products",NA,NA,NA,NA,NA,NA,NA,NA,NA,https://api.scraperapi.com/?url=https%3A%2F%2Fairdrie.cylex-uk.co.uk%2Fcompany%2Fyates-welding-co-ltd--20957978.html&api_key=adc3d866682a18dad67c04d3bcbc7f1c&scraper_sdk=python
Grahams Video Productions,23 Southfield Road ,G68 9DQ,Cumbernauld ,North Lanarkshire Scotland,01236 730770,NA,NA,www.dvdwed.com,Wedding Favours,"Wedding Planner, Wedding Planning, Wedding Services, Weddings","Wedding Supplies, Wedding Accessories, Wedding Ideas, Wedding Video, Wedding Supplies & Services, Wedding DVD, Wedding Suppliers, Wedding Films, Wedding Shops, Wedding Stores, Hotel, Services, Video, Scotland, DVD, Castle, Film and Video Services, Best Deals, Gleneagles, Scottish Wedding Videos",NA,NA,08:30 - 17:30,08:30 - 17:30,08:30 - 12:30,Closed,08:30 - 17:30,08:30 - 17:30,08:30 - 17:30,https://api.scraperapi.com/?url=https%3A%2F%2Fcumbernauld.cylex-uk.co.uk%2Fcompany%2Fgrahams-video-productions-17096818.html&api_key=adc3d866682a18dad67c04d3bcbc7f1c&scraper_sdk=python
Increase The Wedge,52 Castle St ,ML3 6BU,Hamilton ,South Lanarkshire Scotland,01698 892545,NA,NA,madeinscotland.agency,NA,"email marketing services, e-commerce systems, domain name registration, logo design, search engine marketing services, search engine optimisation services, website hosting, website maintenance, internet services, content management systems, social media, web design, website design, SEO, Search Engine Optimisation, Search Engine Marketing","Web Designers, Web Design and Development, Business Services, Internet, Email Marketing, Internet Marketing, Ecommerce Systems, Digital & Online Marketing Agency",NA,NA,09:00 - 17:30,09:00 - 17:30,Closed,Closed,09:00 - 17:30,09:00 - 17:30,09:00 - 17:30,https://api.scraperapi.com/?url=https%3A%2F%2Fhamilton-south-lanarkshire.cylex-uk.co.uk%2Fcompany%2Fincrease-the-wedge-23049449.html&api_key=adc3d866682a18dad67c04d3bcbc7f1c&scraper_sdk=python
b & b Lifting Equipment Ltd,Stirling Rd ,ML6 7UD,Airdrie ,North Lanarkshire Scotland,01236 760765,01236 748903,NA,,NA,NA,"Payroll Services, Steel Buildings, Telephone Systems, Phone Systems, Copiers, Lifting Gear, Ecommerce Web Design, Digital Copiers, Credit Card Processing, Time Clocks, Pos System, Color Copier, Copy Machine",NA,NA,NA,NA,NA,NA,NA,NA,NA,https://api.scraperapi.com/?url=https%3A%2F%2Fairdrie.cylex-uk.co.uk%2Fcompany%2Fb---b-lifting-equipment-ltd-17083498.html&api_key=adc3d866682a18dad67c04d3bcbc7f1c&scraper_sdk=python
Mood Flowers Limited,"Unit 51, Anniesland Business Park ",G13 1AY,Glasgow ,Glasgow City Scotland,0845 362 0982,NA,NA,www.moodflowers.com,Pet Food,NA,"Wedding Flowers, Pet Shop, Flower Delivery, Birthday Flowers, Funeral Flowers, Wedding Bouquets, Corporate Flowers, Wedding Florists, Garden Seeds and Plants, Fertilizer, Seed Suppliers",NA,Florists,NA,NA,NA,NA,NA,NA,NA,https://api.scraperapi.com/?url=https%3A%2F%2Fglasgow.cylex-uk.co.uk%2Fcompany%2Fmood-flowers-limited-22693536.html&api_key=adc3d866682a18dad67c04d3bcbc7f1c&scraper_sdk=python
Glasgow Wedding Cars,Bowhouse ,G45 0AB,Glasgow ,Glasgow City Scotland,7504131658,NA,NA,www.glasgow-wedding-cars.com,NA,"Wedding Car Hire, Limo Hire","Wedding Cars, Vintage Wedding Cars, Wedding Photography, Wedding Photographers, Vintage, Campervans, Bentley, Rolls-Royce, Beauford, White Wedding, Cheap Wedding Cars, Glasgow Limos, limo hire paisley, Scotland wedding cars, wedding car hire Ayrshire, wedding car hire Lanarkshire, wedding car hire paisley, wedding cars Ayrshire, wedding cars Lanarkshire, wedding cars paisley, wedding cars Renfrewshire",NA,NA,09:00 - 21:00,09:00 - 21:00,09:00 - 21:00,09:00 - 21:00,09:00 - 21:00,09:00 - 21:00,09:00 - 21:00,https://api.scraperapi.com/?url=https%3A%2F%2Fglasgow.cylex-uk.co.uk%2Fcompany%2Fglasgow-wedding-cars-26361783.html&api_key=adc3d866682a18dad67c04d3bcbc7f1c&scraper_sdk=python
Scotch Pie Design,40 WOODBURN AVENUE ,ML6 9EW,Airdrie ,North Lanarkshire Scotland,01236 604434,NA,NA,,NA,Advertising,"Advertising Agency, Internet Advertising, Web Advertising, Banner Advertising",NA,NA,NA,NA,NA,NA,NA,NA,NA,https://api.scraperapi.com/?url=https%3A%2F%2Fairdrie.cylex-uk.co.uk%2Fcompany%2Fscotch-pie-design-17066106.html&api_key=adc3d866682a18dad67c04d3bcbc7f1c&scraper_sdk=python
Adelles Too,"88, DEEDES STREET ",ML6 9AF,Airdrie ,North Lanarkshire Scotland,01236 606679,01236 750143,01664 565040,,"Beer, Spirits, Beverages",NA,"Beer Retail, Off Licences & Wine Merchants, Retailers, Newsagents, Retail, Drinks, Wines Spirits Beer Retail",NA,NA,NA,NA,NA,NA,NA,NA,NA,https://api.scraperapi.com/?url=https%3A%2F%2Fairdrie.cylex-uk.co.uk%2Fcompany%2Fadelles-too-17160141.html&api_key=adc3d866682a18dad67c04d3bcbc7f1c&scraper_sdk=python
Iqbal Stores,13 Cairn View ,ML6 9EF,Airdrie ,North Lanarkshire Scotland,01236 750950,NA,NA,,NA,NA,"Off-licence, Off Licences & Wine Merchants",NA,NA,NA,NA,NA,NA,NA,NA,NA,https://api.scraperapi.com/?url=https%3A%2F%2Fairdrie.cylex-uk.co.uk%2Fcompany%2Fiqbal-stores-19854867.html&api_key=adc3d866682a18dad67c04d3bcbc7f1c&scraper_sdk=python
Timpson,77 South Bridge Street ,ML6 6JH,Airdrie ,North Lanarkshire Scotland,01236 752331,NA,NA,www.timpson.co.uk," Mini Vault Safes, Badges, Ceramic Business Signs, Cigarette Waste Bin, Custom Sized Engraved Signs, Engravable Pet Tags, Fire Signs, Garden Furniture, Gate and Garage Door Remotes, Gifts, Hazard Signs, House Numbers, House Signs, Information Signs, John Timpson Books, Key Tags, Keyrings, Letterboxes, Lockers, Memorial Plaques, Newspaper Holders, Padlocks, Pens, Pet Name Plaques, Photo Engraved Granite, Presentation & Gift Plates, Safes, School Badges, School Badges, Security Boxes, Sign Care Products, Sign Care Products, Stainless Steel & Brass Business Signs, Stamps , Table Signs & Door Sliders, Trophies, Walking Sticks & Umbrellas, Zippo Lighters, Stamps","Carpet Cleaner Hire, Remote Car Keys, Mobile Locksmiths, Shoe Repairs, Domestic Locksmiths Services, Engraving, Photo ID, Locksmith, Photo Processing, Clothing Repair & Alterations, Watch Repairs, Business Engraving, Dry Cleaning & Laundry, Locker Repairs, Non Remote Car Keys, Key Cutting","Photo Engraving, Letter Boxes, Engraving Business, Mini Vault Safes",NA,"Locksmith, Mobile Locksmith, Domestic Locksmith",09:00 - 17:00,09:00 - 17:00,09:00 - 17:00,Closed,09:00 - 17:00,09:00 - 17:00,09:00 - 17:00,https://api.scraperapi.com/?url=https%3A%2F%2Fairdrie.cylex-uk.co.uk%2Fcompany%2Ftimpson-19557995.html&api_key=adc3d866682a18dad67c04d3bcbc7f1c&scraper_sdk=python
Alix's Wedding Cars,21 HILLHOUSE ROAD ,FK6 5PG,Denny ,Falkirk Scotland,0132 441 0028,0160-481-5023,NA,,NA,Wedding Planner,"Wedding Accessories, Wedding Ideas, Wedding Suppliers, Wedding Shops, Wedding Stores",NA,NA,NA,NA,NA,NA,NA,NA,NA,https://api.scraperapi.com/?url=https%3A%2F%2Fdenny.cylex-uk.co.uk%2Fcompany%2Falix%2527s-wedding-cars-18711791.html&api_key=adc3d866682a18dad67c04d3bcbc7f1c&scraper_sdk=python
DR FIX LIMITED,91 Alexander Street ,ML6 0BD,Airdrie ,North Lanarkshire Scotland,NA,NA,NA,,NA,NA,"Watch Repairs, Clock Repairs, Jewellery Repairs",NA,NA,NA,NA,NA,NA,NA,NA,NA,https://api.scraperapi.com/?url=https%3A%2F%2Fairdrie.cylex-uk.co.uk%2Fcompany%2Fdr-fix-limited-25498967.html&api_key=adc3d866682a18dad67c04d3bcbc7f1c&scraper_sdk=python
Argos Airdrie Retail Park,"Unit 4 Retail Park,Gartlea Road ",ML6 9JB,Airdrie ,North Lanarkshire Scotland,01993 707889,0845 640 2020,0845 403 3030,www.argos.co.uk,"baby products, clothes, gifts, beauty products, jewellery, watches, toys",NA,Department Store,NA,Home Retail Store,09:00 - 20:00,09:00 - 20:00,09:00 - 18:00,10:00 - 18:00,09:00 - 20:00,09:00 - 20:00,09:00 - 20:00,https://api.scraperapi.com/?url=https%3A%2F%2Fairdrie.cylex-uk.co.uk%2Fcompany%2Fargos-airdrie-retail-park-17037576.html&api_key=adc3d866682a18dad67c04d3bcbc7f1c&scraper_sdk=python
The Watch Medic Limited,91 ALEXANDER STREET ,ML6 0BD,Airdrie ,North Lanarkshire Scotland,NA,NA,NA,,NA,NA,"Jewellery Repairs, Watch Repairs, Clock Repairs",NA,NA,NA,NA,NA,NA,NA,NA,NA,https://api.scraperapi.com/?url=https%3A%2F%2Fairdrie.cylex-uk.co.uk%2Fcompany%2Fthe-watch-medic-limited-22132620.html&api_key=adc3d866682a18dad67c04d3bcbc7f1c&scraper_sdk=python
Cash Generator Airdrie,11-15 Hallcraig Street ,ML6 6AH,Airdrie ,North Lanarkshire Scotland,01236 758900,NA,NA,www.cashgenerator.co.uk,"PC Games, Console Gaming, DVDs, Video DVDs, Music CDs, PCs, Laptops, TVs, Recorders, Photographic Equipment, Sound Equipment, Mobile Phones, Home Phones, Toys, Games, Musical Instruments, Collectables, Beauty Products, Outdoor Equiment, Sporting Goods, Jewellery, Watches, Gifts","Buy Online, Bag a bargain, Gold deals, Buy back, Short term loans, Travel Money, Cheque Cashing, Pawnbroking","Cash Generator, DVD, TV, Recorder, Home Phone, Buybacks, Gaming Consoles, DVDs & Videos","instant cash, cash for gold",NA,09:00 - 05:30,09:00 - 05:30,09:30 - 17:30,Closed,09:00 - 05:30,09:00 - 05:30,09:00 - 05:00,https://api.scraperapi.com/?url=https%3A%2F%2Fairdrie.cylex-uk.co.uk%2Fcompany%2Fcash-generator-airdrie-17174091.html&api_key=adc3d866682a18dad67c04d3bcbc7f1c&scraper_sdk=python
RAMSDENS PAWNBROKERS,10B South Bridge Street ,ML6 6JF,Airdrie ,North Lanarkshire Scotland,01236 758800,NA,NA,www.ramsdensforcash.co.uk,"PRE-OWNED WATCHES, Jewellery, Mobile Phones, Gold, Silver","Travel Money, Travel Card, Jewellery, Sell Your Gold, Pawnbroking Loans, Cheque Cashing, Western Union, International Money Transfers","Pawnbrokers, International Money Transfer, Personal Loans",NA,NA,09:30 - 17:00,09:30 - 17:00,09:30 - 16:00,Closed,09:30 - 17:00,09:30 - 17:00,09:30 - 17:00,https://api.scraperapi.com/?url=https%3A%2F%2Fairdrie.cylex-uk.co.uk%2Fcompany%2Framsdens-pawnbrokers-19244074.html&api_key=adc3d866682a18dad67c04d3bcbc7f1c&scraper_sdk=python
Glasgow Recycling and Renewable Energy Centre Viridor,"Pioneer House, Europoint Office Park",ML1 4UF,Holytown ,North Lanarkshire Scotland,0141 301 1212,NA,NA,www.transformingwasteinglasgow.com,NA,Recycling,NA,NA,NA,NA,NA,NA,NA,NA,NA,NA,https://api.scraperapi.com/?url=https%3A%2F%2Fholytown.cylex-uk.co.uk%2Fcompany%2Fglasgow-recycling-and-renewable-energy-centre-viridor-23041588.html&api_key=adc3d866682a18dad67c04d3bcbc7f1c&scraper_sdk=python
Viridor Motherwell,"Pioneer House, Europoint Office Park",ML1 4UF,Holytown ,North Lanarkshire Scotland,0141 781 9151,NA,NA,viridor.co.uk,NA,Waste Collection,"Head Office, Corporate Head Office Management",NA,NA,09:00 - 17:00,09:00 - 17:00,Closed,Closed,09:00 - 17:00,09:00 - 17:00,09:00 - 17:00,https://api.scraperapi.com/?url=https%3A%2F%2Fholytown.cylex-uk.co.uk%2Fcompany%2Fviridor-motherwell-22975578.html&api_key=adc3d866682a18dad67c04d3bcbc7f1c&scraper_sdk=python
ON SITE PROJECT SERVICES LTD,61 Albion Street ,ML5 3SE,Coatbridge ,North Lanarkshire Scotland,NA,NA,NA,,NA,NA,Materials Recovery Services,NA,NA,NA,NA,NA,NA,NA,NA,NA,https://api.scraperapi.com/?url=https%3A%2F%2Fcoatbridge.cylex-uk.co.uk%2Fcompany%2Fon-site-project-services-ltd-25633189.html&api_key=adc3d866682a18dad67c04d3bcbc7f1c&scraper_sdk=python
"Henry Waste, Skip Hire & House Clearances",Greenhill Ind Est Coltswood Rd ,ML5 2AA,Coatbridge ,North Lanarkshire Scotland,01236 443333,NA,NA,https://www.henrywastemanagement.co.uk/?utm_source=yell&utm_medium=referral&utm_campaign=yell,NA,NA,NA,NA,"Garbage Dump Service, Moving Company, Junk Dealer, Recycling Centre, Plastic Product Manufacturer",08:00 - 17:00,08:00 - 17:00,08:00 - 12:00,Closed,08:00 - 17:00,08:00 - 17:00,08:00 - 17:00,https://api.scraperapi.com/?url=https%3A%2F%2Fcoatbridge.cylex-uk.co.uk%2Fcompany%2Fhenry-waste--skip-hire---house-clearances-27133858.html&api_key=adc3d866682a18dad67c04d3bcbc7f1c&scraper_sdk=python
Elite Waste Management Limited,"Viking Road, Unit 3A, Viking Works",ML6 9SE,Airdrie ,North Lanarkshire Scotland,0870 620 8112,NA,NA,airdrie.ukorg.org,NA,NA,NA,NA,NA,09:00 - 17:00,09:00 - 17:00,09:00 - 17:00,09:00 - 17:00,09:00 - 17:00,09:00 - 17:00,09:00 - 17:00,https://api.scraperapi.com/?url=https%3A%2F%2Fairdrie.cylex-uk.co.uk%2Fcompany%2Felite-waste-management-limited-27151807.html&api_key=adc3d866682a18dad67c04d3bcbc7f1c&scraper_sdk=python
Olleco Scotland,"Unit 6, Palacecraig Street ",ML5 4RY,Coatbridge ,North Lanarkshire Scotland,01236 433567,01236 433650,NA,www.olleco.co.uk,NA,Waste Collection,Waste Merchants,NA,NA,09:00 - 17:00,09:00 - 17:00,Closed,Closed,09:00 - 17:00,09:00 - 17:00,09:00 - 17:00,https://api.scraperapi.com/?url=https%3A%2F%2Fcoatbridge.cylex-uk.co.uk%2Fcompany%2Folleco-scotland-17139858.html&api_key=adc3d866682a18dad67c04d3bcbc7f1c&scraper_sdk=python
Northburn Industrial Services Ltd,70 NORTHBURN ROAD ,ML5 2HY,Coatbridge ,North Lanarkshire Scotland,01236 427514,01236 441148,NA,,NA,"Hazardous Waste Disposal, Waste Collection, Waste Disposal, Rubbish Removal, Waste Removal","Hazardous Waste Treatment, Waste Management, Garbage Collection, Petroleum Products Treatment, Petroleum Treatment, Chemical Waste Disposal, Waste Oil, Waste Management Companies, Waste Oil Disposal, Vacuum Tanker Hire, Marine Waste, Chemical Handling, Northburn Industrial Services",NA,NA,NA,NA,NA,NA,NA,NA,NA,https://api.scraperapi.com/?url=https%3A%2F%2Fcoatbridge.cylex-uk.co.uk%2Fcompany%2Fnorthburn-industrial-services-ltd-17163415.html&api_key=adc3d866682a18dad67c04d3bcbc7f1c&scraper_sdk=python
Greenerleaf Estate Maintenance Ltd.,91 Alexander Street ,ML6 0BD,Airdrie ,North Lanarkshire Scotland,NA,NA,NA,,NA,Landscape Services,Waste Management,NA,Landscape Gardeners,NA,NA,NA,NA,NA,NA,NA,https://api.scraperapi.com/?url=https%3A%2F%2Fairdrie.cylex-uk.co.uk%2Fcompany%2Fgreenerleaf-estate-maintenance-ltd--22532695.html&api_key=adc3d866682a18dad67c04d3bcbc7f1c&scraper_sdk=python
Henry Home Uplifts,Coltswood Rd ,ML5 2AA,Coatbridge ,North Lanarkshire Scotland,01236 443333,NA,NA,http://www.henryhomeuplifts.co.uk/?utm_source=yell&utm_medium=referral&utm_campaign=yell,NA,NA,NA,NA,Garbage Dump Service,08:00 - 17:00,08:00 - 17:00,08:00 - 13:00,Closed,08:00 - 17:00,08:00 - 17:00,08:00 - 17:00,https://api.scraperapi.com/?url=https%3A%2F%2Fcoatbridge.cylex-uk.co.uk%2Fcompany%2Fhenry-home-uplifts-27133857.html&api_key=adc3d866682a18dad67c04d3bcbc7f1c&scraper_sdk=python
Able Power Washing,15 Whitehill Avenue ,ML6 6PL,Airdrie ,North Lanarkshire Scotland,07948 695983,NA,NA,,NA,Drainage,NA,NA,"Drainage Service, Septic Tank Cleaning, Hazardous Waste Service, Gutter Installation Service",08:30 - 17:30,08:30 - 17:30,08:30 - 14:00,Closed,08:30 - 17:30,08:30 - 17:30,08:30 - 17:30,https://api.scraperapi.com/?url=https%3A%2F%2Fairdrie.cylex-uk.co.uk%2Fcompany%2Fable-power-washing-26337382.html&api_key=adc3d866682a18dad67c04d3bcbc7f1c&scraper_sdk=python
Johnston Jewellers,4 Graham St ,ML6 6BU,Airdrie ,North Lanarkshire Scotland,01236 753109,01452 531010,NA,,Gold,"antique clocks, charm bracelets, clocks & watches retail & repairs, costume jewellery, diamond specialists, engagement rings, gold, gold jewellery, gold shops, gold buyers, goldsmiths & silversmiths, jewellers, jewellery boxes, jewellery appraisals, jewellery repairs, jewellery making, silver jewellery, scrap gold, wedding rings","Jewellery Box, Jewellery Supplies, silversmiths & goldsmiths",NA,NA,09:00 - 17:30,09:00 - 17:30,09:00 - 17:30,Closed,09:00 - 17:30,09:00 - 17:30,09:00 - 17:30,https://api.scraperapi.com/?url=https%3A%2F%2Fairdrie.cylex-uk.co.uk%2Fcompany%2Fjohnston-jewellers-17133671.html&api_key=adc3d866682a18dad67c04d3bcbc7f1c&scraper_sdk=python
ISS/ Techtrade,"Unit 18 Laverock Road, Stirling Road Industrial Estate ",ML6 7UD,Airdrie ,North Lanarkshire Scotland,01236 751505,0800 849 1121,NA,tech.trade,NA,NA,"IT Services, IT Consultants, Smartphones, Apple iPhone, Apple iPad, Apple iMac, Apple Watch, Apple Displays, Apple Mac-Mini, Apple MacBooks",NA,NA,NA,NA,NA,NA,NA,NA,NA,https://api.scraperapi.com/?url=https%3A%2F%2Fairdrie.cylex-uk.co.uk%2Fcompany%2Fiss--techtrade-23866298.html&api_key=adc3d866682a18dad67c04d3bcbc7f1c&scraper_sdk=python
AM EVENT SUPPORT LIMITED,18 South Biggar Road ,ML6 9LZ,Airdrie ,North Lanarkshire Scotland,NA,NA,NA,,NA,NA,Waste Management,NA,NA,NA,NA,NA,NA,NA,NA,NA,https://api.scraperapi.com/?url=https%3A%2F%2Fairdrie.cylex-uk.co.uk%2Fcompany%2Fam-event-support-limited-23992122.html&api_key=adc3d866682a18dad67c04d3bcbc7f1c&scraper_sdk=python
Gray's Jewellers (C) Limited,17 FLOWERHILL STREET ,ML6 6AP,Airdrie ,North Lanarkshire Scotland,NA,NA,NA,,Watches,NA,Jewellery Shops,NA,NA,NA,NA,NA,NA,NA,NA,NA,https://api.scraperapi.com/?url=https%3A%2F%2Fairdrie.cylex-uk.co.uk%2Fcompany%2Fgray%2527s-jewellers--c--limited-22530820.html&api_key=adc3d866682a18dad67c04d3bcbc7f1c&scraper_sdk=python
Johnston Jewellers Ltd.,20 ANDERSON STREET ,ML6 0AA,Airdrie ,North Lanarkshire Scotland,NA,NA,NA,,Watches,NA,"Jewellery Shops, Jewellery Repairs, Watch Repairs, Clock Repairs",NA,NA,NA,NA,NA,NA,NA,NA,NA,https://api.scraperapi.com/?url=https%3A%2F%2Fairdrie.cylex-uk.co.uk%2Fcompany%2Fjohnston-jewellers-ltd--22602843.html&api_key=adc3d866682a18dad67c04d3bcbc7f1c&scraper_sdk=python
Cash For Clothes,86 DEEDES STREET ,ML6 9AF,Airdrie ,North Lanarkshire Scotland,0141 952 2644,NA,NA,glasgow-recycling.co.uk,"Textile Waste, Watches, Dresses, Bags, Jackets, Textiles, Sandals, Shirts, Garments, Slippers, Gloves, Skirts, Jeans, Coats, Hats, Shorts, Handbags, Belts, T-Shirts, Scarves, Suits, Socks, Ties, Wallets",Recycling,"Cash 4 Clothes, Used Clothing, Clothes Bank, Clothing Bank, Unwanted Clothes, Unwanted Textiles, Textile Bank, Clothing Recycling, Donate Clothes, Textile Recyclers, Used Clothes, Second-Hand Clothing, Second-Hand Clothes, Recycling Bank, Textile Recycling, Clothes Recycling, Charities, Clothes, Shoes, Boots, Trainers, Cash, Children's Clothes, Purses, Blouses, Household Items, Recycling Bins, Household Textiles, School Collections, Recycling Banks Scotland",NA,NA,10:00 - 17:00,10:00 - 17:00,10:00 - 17:00,Closed,10:00 - 17:00,10:00 - 17:00,10:00 - 17:00,https://api.scraperapi.com/?url=https%3A%2F%2Fairdrie.cylex-uk.co.uk%2Fcompany%2Fcash-for-clothes-17777804.html&api_key=adc3d866682a18dad67c04d3bcbc7f1c&scraper_sdk=python
H m l Floorcovering Contractors,6 Shelley Drive ,G71 8TA,Bothwell ,South Lanarkshire Scotland,01698 854589,NA,NA,,NA,Flooring Services,"Flooring Contractors, Wallcovering Installation, Tiling Contractors",NA,NA,NA,NA,NA,NA,NA,NA,NA,https://api.scraperapi.com/?url=https%3A%2F%2Fbothwell.cylex-uk.co.uk%2Fcompany%2Fh-m-l-floorcovering-contractors-17272738.html&api_key=adc3d866682a18dad67c04d3bcbc7f1c&scraper_sdk=python
"Stanley, a G, Ltd","9 EASTERHOUSE, TOWNSHIP CENTRE ",G34 9DT,Glasgow ,Glasgow City Scotland,0141-773-0560,NA,NA,,"Wallpaper, Wallcoverings",NA,Wallpaper Borders,NA,NA,NA,NA,NA,NA,NA,NA,NA,https://api.scraperapi.com/?url=https%3A%2F%2Fglasgow.cylex-uk.co.uk%2Fcompany%2Fstanley--a-g--ltd-18686150.html&api_key=adc3d866682a18dad67c04d3bcbc7f1c&scraper_sdk=python
Thru Deck Services Ltd,UNIT 6 347 ORBISTON STREET ,ML1 1QW,Motherwell ,North Lanarkshire Scotland,01698 239 224,01698 404 401,NA,,Wallcoverings,Decking,"Manufacturing, Wallcovering Installation, Flooring Contractors, Tiling Contractors",NA,NA,NA,NA,NA,NA,NA,NA,NA,https://api.scraperapi.com/?url=https%3A%2F%2Fmotherwell.cylex-uk.co.uk%2Fcompany%2Fthru-deck-services-ltd-19743449.html&api_key=adc3d866682a18dad67c04d3bcbc7f1c&scraper_sdk=python
Martin Flooring Ltd.,79 GLENTANAR DRIVE ,G69 0HW,Moodiesburn ,North Lanarkshire Scotland,NA,NA,NA,,Wallcoverings,NA,"Wallcovering Installation, Flooring Contractors, Tiling Contractors",NA,NA,NA,NA,NA,NA,NA,NA,NA,https://api.scraperapi.com/?url=https%3A%2F%2Fmoodiesburn.cylex-uk.co.uk%2Fcompany%2Fmartin-flooring-ltd--20592205.html&api_key=adc3d866682a18dad67c04d3bcbc7f1c&scraper_sdk=python
Homestyle By Fads,"RANNOCH RD, UNIT C BIRKENSHAW EST ",G71 5PR,Uddingston ,North Lanarkshire Scotland,01698 814529,NA,NA,,"Wallpaper, Wallcoverings",NA,Wallpaper Borders,NA,NA,NA,NA,NA,NA,NA,NA,NA,https://api.scraperapi.com/?url=https%3A%2F%2Fuddingston.cylex-uk.co.uk%2Fcompany%2Fhomestyle-by-fads-18784424.html&api_key=adc3d866682a18dad67c04d3bcbc7f1c&scraper_sdk=python
Glitter Wallpaper Coverings,"3 Dalilea Gardens, Easterhouse ",G34 0EZ,Glasgow ,Glasgow City Scotland,07492 865916,NA,NA,,NA,Home Improvements,"Local Business, Shopping & Retail, Business Services, Chunky Glitter, Glitter Wallpaper, Glitter Wallpaper Coverings",NA,NA,09:00 - 18:00,09:00 - 18:00,09:00 - 18:00,09:00 - 18:00,09:00 - 18:00,09:00 - 18:00,09:00 - 18:00,https://api.scraperapi.com/?url=https%3A%2F%2Fglasgow.cylex-uk.co.uk%2Fcompany%2Fglitter-wallpaper-coverings-23789647.html&api_key=adc3d866682a18dad67c04d3bcbc7f1c&scraper_sdk=python
Dulux Decorator Centre - Motherwell,Unit 17 Motherwell Business Centre  Coursington Road ,ML1 1PW,Motherwell ,North Lanarkshire Scotland,01698 262741,01698 264389,NA,www.duluxdecoratorcentre.co.uk,"floor paints, metal paint, exterior paint, masonry paint, dust sheets, workwear, ladders, platforms, brushes, rollers, wallpaper, wood filler, wood treatment",NA,"Paint Supplies, Floor Paint, Roller",NA,NA,07:00 - 17:00,07:00 - 17:00,08:00 - 12:00,Closed,07:00 - 17:00,07:00 - 17:00,07:00 - 17:00,https://api.scraperapi.com/?url=https%3A%2F%2Fmotherwell.cylex-uk.co.uk%2Fcompany%2Fdulux-decorator-centre---motherwell-17079436.html&api_key=adc3d866682a18dad67c04d3bcbc7f1c&scraper_sdk=python
Best Price Wallpaper,The Boundary Shopping Village,ML5 3RT,Coatbridge ,North Lanarkshire Scotland,NA,NA,NA,www.untouchables.co.uk,Wallpaper,NA,"Designer Wallpaper, Wallpaper Stores, Buy Wallpaper Online, Coloroll Wallpaper, Crown Wallpaper, Fine Decor Wallpaper, Affordable Wallpaper, Best Price Wallpaper, Crown Wallpaper Designs, Erismann Wallpaper, Wallpaper for Sale Online, Wallpaper Sale UK",NA,NA,Open 24 Hours,Open 24 Hours,Open 24 Hours,Open 24 Hours,Open 24 Hours,Open 24 Hours,Open 24 Hours,https://api.scraperapi.com/?url=https%3A%2F%2Fcoatbridge.cylex-uk.co.uk%2Fcompany%2Fbest-price-wallpaper-26262866.html&api_key=adc3d866682a18dad67c04d3bcbc7f1c&scraper_sdk=python
North Calder Decorators,North Calder Drive ,ML6 8BZ,Airdrie ,North Lanarkshire Scotland,7432539622,NA,NA,,NA,"Exterior Painting, Interior Painting","Painters, Decorators, Glossing, Wallpapering",NA,NA,NA,NA,NA,NA,NA,NA,NA,https://api.scraperapi.com/?url=https%3A%2F%2Fairdrie.cylex-uk.co.uk%2Fcompany%2Fnorth-calder-decorators-27058679.html&api_key=adc3d866682a18dad67c04d3bcbc7f1c&scraper_sdk=python
Hulme & Scott,74 Stirling Street ,ML6 0AS,Airdrie ,North Lanarkshire Scotland,01236 762369,01236 762369,NA,,NA,NA,"Floor covering, Carpet Shops, Carpet Stores, Rug Shops, Shopping & Retail, Home Decor, Carpets & Rugs Retail & Repair, Wallpaper Shops, Carpet & Flooring Shops",NA,NA,09:00 - 17:00,09:00 - 17:00,09:00 - 16:00,Closed,09:00 - 17:00,09:00 - 17:00,09:00 - 17:00,https://api.scraperapi.com/?url=https%3A%2F%2Fairdrie.cylex-uk.co.uk%2Fcompany%2Fhulme---scott-17050636.html&api_key=adc3d866682a18dad67c04d3bcbc7f1c&scraper_sdk=python
Abbey Flooring Glasgow Ltd,57 FAIRHAVEN AVENUE ,ML6 8EW,Airdrie ,North Lanarkshire Scotland,NA,NA,NA,,NA,NA,"Carpet and Rug Retailers, Floor covering, Carpet Shops, Rug Shops, Wallpaper Shops",NA,NA,NA,NA,NA,NA,NA,NA,NA,https://api.scraperapi.com/?url=https%3A%2F%2Fairdrie.cylex-uk.co.uk%2Fcompany%2Fabbey-flooring-glasgow-ltd-22270322.html&api_key=adc3d866682a18dad67c04d3bcbc7f1c&scraper_sdk=python
Afg Scotland Limited,33 LAIRD STREET ,ML5 3LW,Coatbridge ,North Lanarkshire Scotland,NA,NA,NA,,Wallcoverings,NA,"Wallcovering Installation, Flooring Contractors, Tiling Contractors",NA,NA,NA,NA,NA,NA,NA,NA,NA,https://api.scraperapi.com/?url=https%3A%2F%2Fcoatbridge.cylex-uk.co.uk%2Fcompany%2Fafg-scotland-limited-22280950.html&api_key=adc3d866682a18dad67c04d3bcbc7f1c&scraper_sdk=python
Nps Building Services Ltd.,91 Alexander Street ,ML6 0BD,Airdrie ,North Lanarkshire Scotland,NA,NA,NA,,Wallcoverings,"Building Completion, Building Maintenance","Wallcovering Installation, Flooring Contractors, Tiling Contractors",NA,Builders,NA,NA,NA,NA,NA,NA,NA,https://api.scraperapi.com/?url=https%3A%2F%2Fairdrie.cylex-uk.co.uk%2Fcompany%2Fnps-building-services-ltd--22721042.html&api_key=adc3d866682a18dad67c04d3bcbc7f1c&scraper_sdk=python
Scope Flooring Ltd.,20 Anderson Street ,ML6 0AA,Airdrie ,North Lanarkshire Scotland,NA,NA,NA,,Wallcoverings,NA,"Wallcovering Installation, Flooring Contractors, Tiling Contractors",NA,NA,NA,NA,NA,NA,NA,NA,NA,https://api.scraperapi.com/?url=https%3A%2F%2Fairdrie.cylex-uk.co.uk%2Fcompany%2Fscope-flooring-ltd--22825529.html&api_key=adc3d866682a18dad67c04d3bcbc7f1c&scraper_sdk=python
Floortec (Scotland) Ltd.,22 CRAIGVALE CRESCENT ,ML6 8EP,Airdrie ,North Lanarkshire Scotland,01236 760709,NA,NA,www.floortecscotland.co.uk,NA,NA,NA,NA,NA,08:30 - 17:30,08:30 - 17:30,09:00 - 13:00,Closed,08:30 - 17:30,08:30 - 17:30,08:30 - 17:30,https://api.scraperapi.com/?url=https%3A%2F%2Fairdrie.cylex-uk.co.uk%2Fcompany%2Ffloortec--scotland--ltd--22496813.html&api_key=adc3d866682a18dad67c04d3bcbc7f1c&scraper_sdk=python
A.k Fraser Painter & Decorator,17 Strathgoil Crescent ,ML6 6ED,Airdrie ,North Lanarkshire Scotland,07775 741190,NA,NA,,"Wallpaper, Cornice","artex, artex removal, cornices, coving, decorating paint effects, exterior decorating, floor painting, interior designers, paint & cellulose spraying, paint stripping, painting contractors, plastering & screeding, skimming, wallpaper, wallpapers & paints, Private, Commercial & Industrial, Competitive Prices, Painting, Plastering, Repair, Refurbishment","Painters, Decorators, Decorating, Painters and Decorators, Plasterers, Redecoration, Coveing, Tileing, Papering, Property, Workmanship, Industrial, Private, Crafts, Commercials, Walls, Experienced, Domestics, Assistance, Taping, Satisfaction, Mammoth, Commercial and Industrial",NA,NA,07:30 - 22:00,07:30 - 22:00,09:00 - 17:00,09:00 - 17:00,07:30 - 22:00,07:30 - 22:00,07:30 - 22:00,https://api.scraperapi.com/?url=https%3A%2F%2Fairdrie.cylex-uk.co.uk%2Fcompany%2Fa-k-fraser-painter---decorator-17157137.html&api_key=adc3d866682a18dad67c04d3bcbc7f1c&scraper_sdk=python
Mclelland Floor & Wall (Contracts) Ltd.,20 ANDERSON STREET ,ML6 0AA,Airdrie ,North Lanarkshire Scotland,NA,NA,NA,,Wallcoverings,NA,"Wallcovering Installation, Flooring Contractors, Tiling Contractors",NA,NA,NA,NA,NA,NA,NA,NA,NA,https://api.scraperapi.com/?url=https%3A%2F%2Fairdrie.cylex-uk.co.uk%2Fcompany%2Fmclelland-floor---wall--contracts--ltd--22674850.html&api_key=adc3d866682a18dad67c04d3bcbc7f1c&scraper_sdk=python
J & S Waste Management Limited,21B Meadow Road ,ML1 1QB,Motherwell ,North Lanarkshire Scotland,01698 230830,01698 259257,01698 230830,www.jandswaste.com,NA,Waste Disposal,"Waste Management, Waste Treatment",NA,NA,NA,NA,NA,NA,NA,NA,NA,https://api.scraperapi.com/?url=https%3A%2F%2Fmotherwell.cylex-uk.co.uk%2Fcompany%2Fj---s-waste-management-limited-20495749.html&api_key=adc3d866682a18dad67c04d3bcbc7f1c&scraper_sdk=python
ARGYLL ENERGY SOLUTIONS LTD,"WDM CHARTERED ACCOUNTANTS OAKFIELD HOUSE, 378 BRANDON STREET ",ML1 1XA,Motherwell ,North Lanarkshire Scotland,NA,NA,NA,,NA,Waste Disposal,Waste Treatment,NA,NA,NA,NA,NA,NA,NA,NA,NA,https://api.scraperapi.com/?url=https%3A%2F%2Fmotherwell.cylex-uk.co.uk%2Fcompany%2Fargyll-energy-solutions-ltd-22460558.html&api_key=adc3d866682a18dad67c04d3bcbc7f1c&scraper_sdk=python
Tidy Up Trash,I travel to the location of my customers.',,Cumbernauld ,North Lanarkshire Scotland,7450393866,NA,NA,,NA,"Cumbernauld
Cumbernauld Village
Motherwell
Wishaw
Bellshill>
Coatbridge
Seafar
Kildrum
Abronhill
Kilsyth
Croy
Condorrat
Moodiesburn
Allansdale
Castlecary
Dullater
Falkirk
Airdrie
GartCosh
Haggs
Allanton
Annathill
Auchinloch
Banton
Bargeddie
Birkenshaw
Bogside
Bonkle
Calderbank
Caldercruix
Cardowan
Carfin
Carnbroe
Chapelhall
Chryston
Cleland
Croy
Dullatur
Forrestfield
Garrion Bridge
Gartcosh
Glenboig
Glenmavis
Greengairs
Hareshaw
Harthill
Holytown
Longriggend
Luggiebank
Millerston
Mollinsburn
Moodiesburn
Morningside
Mossend
Muirhead
Murdostoun
Newarthill
Newhouse
Newmains
New Stevenston
Overtown
Plains
Queenzieburn
Ravenscraig
Riggend
Salsburgh
Shotts
Stand
Stepps
Tannochside
Viewpark
Wattston
Glasgow","Garbage Collection, Cardboard Recycling, Waste Merchants, Garden Waste, Commercial Waste, Shredding Services, Green Waste, Clutter, Bath and Sink Waste Pipe Clearance, Clutter Management, Household Rubbish/Junk Removals, Kitchen Sink Clearance, Recycling Sorting, Small Waste Pipe Clearance",NA,NA,07:00 - 21:00,07:00 - 21:00,07:00 - 21:00,07:00 - 21:00,07:00 - 21:00,07:00 - 21:00,07:00 - 21:00,https://api.scraperapi.com/?url=https%3A%2F%2Fcumbernauld.cylex-uk.co.uk%2Fcompany%2Ftidy-up-trash-23292496.html&api_key=adc3d866682a18dad67c04d3bcbc7f1c&scraper_sdk=python
Diamond Decor,66 Cherrybank Walk ,ML6 0LY,Airdrie ,North Lanarkshire Scotland,01236 591467,07961 879368,NA,www.diamonddecor.net,Wallpaper,NA,"Painters, Decorators, Diamond Decor",NA,NA,NA,NA,NA,NA,NA,NA,NA,https://api.scraperapi.com/?url=https%3A%2F%2Fairdrie.cylex-uk.co.uk%2Fcompany%2Fdiamond-decor-18865581.html&api_key=adc3d866682a18dad67c04d3bcbc7f1c&scraper_sdk=python
APPLE OILS LTD,2236 London Road ,G32 8YF,Glasgow ,Glasgow City Scotland,0141 554 8706,NA,NA,,NA,"Waste Disposal, Recycling",Waste Treatment,NA,NA,NA,NA,NA,NA,NA,NA,NA,https://api.scraperapi.com/?url=https%3A%2F%2Fglasgow.cylex-uk.co.uk%2Fcompany%2Fapple-oils-ltd-24011487.html&api_key=adc3d866682a18dad67c04d3bcbc7f1c&scraper_sdk=python
FCC Environment - Municipal Services,Meikle Drumgray Road ,ML6 7TD,Greengairs ,North Lanarkshire Scotland,NA,NA,NA,www.fccenvironment.co.uk,NA,"Business Waste Solutions, Municipal Services, Recycling, Green Energy, Waste Processing",Recycling Centre,NA,NA,NA,NA,NA,NA,NA,NA,NA,https://api.scraperapi.com/?url=https%3A%2F%2Fgreengairs.cylex-uk.co.uk%2Fcompany%2Ffcc-environment---municipal-services-26209424.html&api_key=adc3d866682a18dad67c04d3bcbc7f1c&scraper_sdk=python
MGH Scotland,131 Deerdykes View ,G68 9HN,Cumbernauld ,North Lanarkshire Scotland,01236 782878,01236 730444,NA,mghscotland.co.uk,NA,"Asset Management, IT Equipment Refurbishment, Secure IT Equipment Recycling, Waste Collection, Waste Disposal, Recycling, Weee Recycling","Waste Management, Garbage Collection, Recycling Centre, Recycled Products, Waste Processing, Computer Recycling, IT Recycling, Laptop Recycling, Waste Management Companies, Monitor Recycling, Waste Disposal & Reclamations, Public Administration, Waste Merchants, Hard Drive Wiping, Server Recycling, Circuit Board Recycling, Component Recycling",NA,NA,09:00 - 17:00,09:00 - 17:00,Closed,Closed,09:00 - 17:00,09:00 - 17:00,09:00 - 17:00,https://api.scraperapi.com/?url=https%3A%2F%2Fcumbernauld.cylex-uk.co.uk%2Fcompany%2Fmgh-scotland-17163068.html&api_key=adc3d866682a18dad67c04d3bcbc7f1c&scraper_sdk=python
RELIABLE RECYCLING LTD,100 Ailsa Road ,ML5 5HZ,Coatbridge ,North Lanarkshire Scotland,NA,NA,NA,,NA,"Waste Collection, Waste Disposal","Waste Management, Waste Treatment, Materials Recovery Services",NA,NA,NA,NA,NA,NA,NA,NA,NA,https://api.scraperapi.com/?url=https%3A%2F%2Fcoatbridge.cylex-uk.co.uk%2Fcompany%2Freliable-recycling-ltd-25664129.html&api_key=adc3d866682a18dad67c04d3bcbc7f1c&scraper_sdk=python
FCC Environment - Waste Processing,Meikle Drumgray Road ,ML6 7TD,Greengairs ,North Lanarkshire Scotland,NA,NA,NA,www.fccenvironment.co.uk,NA,"Business Waste Solutions, Municipal Services, Recycling, Green Energy, Waste Processing",Recycling Centre,NA,NA,NA,NA,NA,NA,NA,NA,NA,https://api.scraperapi.com/?url=https%3A%2F%2Fgreengairs.cylex-uk.co.uk%2Fcompany%2Ffcc-environment---waste-processing-26209445.html&api_key=adc3d866682a18dad67c04d3bcbc7f1c&scraper_sdk=python
Municipal Services,Meikle Drumgray Road ,ML6 7TD,Greengairs ,North Lanarkshire Scotland,01236 830701,NA,NA,www.fccenvironment.co.uk,NA,"household waste collection, park maintenance, street cleaning, clinical waste, hazardous waste, trade waste, skip hire","Recycling Centre, Business Waste Solutions, Parks Maintenance",NA,Skip Hire,NA,NA,NA,NA,NA,NA,NA,https://api.scraperapi.com/?url=https%3A%2F%2Fgreengairs.cylex-uk.co.uk%2Fcompany%2Fmunicipal-services-19558195.html&api_key=adc3d866682a18dad67c04d3bcbc7f1c&scraper_sdk=python
PHS Wastetech AIRDRIE,"Viking Road, Brownsburn Ind Estate ",ML6 9SE,Airdrie ,North Lanarkshire Scotland,01236 801621,NA,NA,,NA,"Waste Collection, Recycling","Waste Merchants, Commercial Waste Management, Glass Recycling, Food Waste Recycling, Dry Mixed Recycling, Clinical Waste Disposal, Cooking Oil Disposal, Bulk Waste Collections",NA,NA,NA,NA,NA,NA,NA,NA,NA,https://api.scraperapi.com/?url=https%3A%2F%2Fairdrie.cylex-uk.co.uk%2Fcompany%2Fphs-wastetech-airdrie-23470483.html&api_key=adc3d866682a18dad67c04d3bcbc7f1c&scraper_sdk=python
P H S All Clear Ltd,28 FORSYTH STREET ,ML6 6AX,Airdrie ,North Lanarkshire Scotland,0123 674 8500,0123-674-8556,NA,,NA,"Waste Collection, Waste Disposal, Waste Removal","Waste Management, Garbage Collection",NA,NA,NA,NA,NA,NA,NA,NA,NA,https://api.scraperapi.com/?url=https%3A%2F%2Fairdrie.cylex-uk.co.uk%2Fcompany%2Fp-h-s-all-clear-ltd-18763928.html&api_key=adc3d866682a18dad67c04d3bcbc7f1c&scraper_sdk=python
Asap Contract Ltd,50 Skyeside Road,ML6 9RQ,Airdrie ,North Lanarkshire Scotland,01236 754575,NA,NA,www.asapcontractsltd.co.uk,NA,"Waste Transfer, waste disposal, Metal Recycling, Site Clearances, Rubbish Removal, Site Clearance, Garden Rubbish Removal",NA,NA,Skip Hire,07:30 - 22:00,07:30 - 22:00,07:30 - 22:00,Closed,07:30 - 22:00,07:30 - 22:00,07:30 - 22:00,https://api.scraperapi.com/?url=https%3A%2F%2Fairdrie.cylex-uk.co.uk%2Fcompany%2Fasap-contract-ltd-17058907.html&api_key=adc3d866682a18dad67c04d3bcbc7f1c&scraper_sdk=python
A.s.a.p. Contracts Ltd.,Cairnhill Cottage ,ML6 9RQ,Airdrie ,North Lanarkshire Scotland,01236 765968,NA,NA,www.asapcontractsltd.co.uk,NA,"Free Quotes, Free Delivery, CARDBOARD DISPOSAL, Cardboard recycling, Commercial waste disposal, CONSTRUCTION WASTE, Domestic waste disposal, GARAGE CLEARANCES, House clearance, MAXI SKIPS, Mini skips, Paper recycling, Plastic recycling, Recycling, Rubbish clearance, Site clearance, Skip hire, Waste Disposal, Garage Clearance","Waste Treatment, Non-Hazardous Waste Disposal",NA,Skip Hire,07:00 - 22:00,07:00 - 22:00,07:00 - 22:00,07:00 - 22:00,07:00 - 22:00,07:00 - 22:00,07:00 - 22:00,https://api.scraperapi.com/?url=https%3A%2F%2Fairdrie.cylex-uk.co.uk%2Fcompany%2Fa-s-a-p--contracts-ltd--22268288.html&api_key=adc3d866682a18dad67c04d3bcbc7f1c&scraper_sdk=python
J B M Recycling,"VIKING WORKS, BROWNSBURN INDUSTRIAL ESTATE ",ML6 9SE,Airdrie ,North Lanarkshire Scotland,1698360055,01236 770972,NA,,NA,"Waste Collection, Waste Disposal","Waste Management, Garbage Collection, Waste Management Companies",NA,NA,NA,NA,NA,NA,NA,NA,NA,https://api.scraperapi.com/?url=https%3A%2F%2Fairdrie.cylex-uk.co.uk%2Fcompany%2Fj-b-m-recycling-17124557.html&api_key=adc3d866682a18dad67c04d3bcbc7f1c&scraper_sdk=python
UK RUBBER LIMITED,20 Anderson Street ,ML6 0AA,Airdrie ,North Lanarkshire Scotland,NA,NA,NA,,NA,Waste Disposal,Waste Treatment,NA,NA,NA,NA,NA,NA,NA,NA,NA,https://api.scraperapi.com/?url=https%3A%2F%2Fairdrie.cylex-uk.co.uk%2Fcompany%2Fuk-rubber-limited-25731179.html&api_key=adc3d866682a18dad67c04d3bcbc7f1c&scraper_sdk=python
Busy Lizzies,4 Hallcraig St ,ML6 6AH,Airdrie ,North Lanarkshire Scotland,01236 749499,NA,NA,busylizziesairdrie.co.uk,"Flower Arrangement, Balloons","Florists, Flower arrangements, Flower delivery, Hand tied bouquets, Flowers, Funeral flowers, Wedding flowers, Balloons, Mother's day flowers, Valentine's day flowers, Sympathy flowers, floral bouquets, international flower delivery, christmas flowers",NA,NA,Florists,09:00 - 17:00,09:00 - 17:00,09:00 - 14:00,Closed,09:00 - 17:00,09:00 - 17:00,09:00 - 17:00,https://api.scraperapi.com/?url=https%3A%2F%2Fairdrie.cylex-uk.co.uk%2Fcompany%2Fbusy-lizzies-19904877.html&api_key=adc3d866682a18dad67c04d3bcbc7f1c&scraper_sdk=python
Muirhead Flowers,94 Cumbernauld Rd ,G69 9AB,Muirhead ,North Lanarkshire Scotland,0141 779 3555,NA,NA,www.facebook.com/muirhead-flowers-678652195614446/?ref=br_rs,Flower Arrangement,NA,"Flowers, Wedding Flowers, Flower Delivery, Flower Bouquets, Birthday Flowers, Special Occasion Flowers, Bouquets, Florist Shops, Flower Shops, Flowers and Gifts, Posies, Mother's Day Flowers, Valentine's Day Flowers",NA,Florists,09:00 - 17:00,09:00 - 17:00,09:00 - 14:00,Closed,09:00 - 17:00,09:00 - 17:00,09:00 - 17:00,https://api.scraperapi.com/?url=https%3A%2F%2Fmuirhead-north-lanarkshire.cylex-uk.co.uk%2Fcompany%2Fmuirhead-flowers-17057110.html&api_key=adc3d866682a18dad67c04d3bcbc7f1c&scraper_sdk=python
Ann Baff Flowers,10 Kerse Lane ,FK1 1RQ,Falkirk ,Falkirk Scotland,01324 623115,07780 601051,NA,www.annbaffflorist.co.uk,Flower Arrangement,"Wedding flowers, Funeral flowers, Free Quotes, Free Initial Consultation, Florists, Florists online, Flower arrangements, Flower delivery, Champagne & Wines, Gifts, Flower Arrangements, Buttonholes & Corsages, Celebration Balloons, Gund Bears, Weddings","Flowers, Online Florists, Birthday Bouquets, Services, Birthday, Funerals, Anniversary, Weddings Funerals, Wine Champagne",NA,Florists,09:00 - 17:00,09:00 - 17:00,09:00 - 16:00,10:00 - 14:00,09:00 - 17:00,09:00 - 17:00,09:00 - 17:00,https://api.scraperapi.com/?url=https%3A%2F%2Ffalkirk.cylex-uk.co.uk%2Fcompany%2Fann-baff-flowers-17116781.html&api_key=adc3d866682a18dad67c04d3bcbc7f1c&scraper_sdk=python
Mary Wilson Flowers,5 High St ,ML6 0DT,Airdrie ,North Lanarkshire Scotland,01236 752243,0845 291 5973,NA,www.marywilsonflowers.com,NA,NA,"Flowers, Flower Bouquets, Special Occasion Flowers, Flowers and Gifts, Valentine's Day Flowers, Wedding Flowers, Local Business, Local Services, Non-Profit Organisation",NA,Florists,09:00 - 17:00,09:00 - 17:00,09:00 - 16:00,Closed,09:00 - 17:00,09:00 - 17:00,09:00 - 17:00,https://api.scraperapi.com/?url=https%3A%2F%2Fairdrie.cylex-uk.co.uk%2Fcompany%2Fmary-wilson-flowers-17139560.html&api_key=adc3d866682a18dad67c04d3bcbc7f1c&scraper_sdk=python
Bouquets & Bows,71 Stirling Street ,ML6 0AS,Airdrie ,North Lanarkshire Scotland,01236 897630,NA,NA,www.bouquetsnbows.co.uk,"Flower Arrangement, Artificial Flowers","artificial flowers, floral bouquets, flower arrangements, flower delivery, funeral flowers, wedding flowers","Bouquets, Flower Shops, Artificial Arrangements",NA,Florists,09:00 - 17:00,09:00 - 17:00,09:00 - 17:00,Closed,09:00 - 17:00,09:00 - 17:00,09:00 - 17:00,https://api.scraperapi.com/?url=https%3A%2F%2Fairdrie.cylex-uk.co.uk%2Fcompany%2Fbouquets---bows-25826463.html&api_key=adc3d866682a18dad67c04d3bcbc7f1c&scraper_sdk=python
The Flower Basket,8 FORSYTH STREET ,ML6 6DF,Airdrie ,North Lanarkshire Scotland,01236 751666,NA,NA,,NA,NA,"Flowers, Flower Delivery, Flower Bouquets, Birthday Flowers, Special Occasion Flowers, Flowers and Gifts, Mother's Day Flowers, Valentine's Day Flowers, Wedding Flowers",NA,Florists,09:00 - 17:00,09:00 - 17:00,09:00 - 15:30,Closed,09:00 - 17:00,09:00 - 17:00,09:00 - 13:00,https://api.scraperapi.com/?url=https%3A%2F%2Fairdrie.cylex-uk.co.uk%2Fcompany%2Fthe-flower-basket-17066895.html&api_key=adc3d866682a18dad67c04d3bcbc7f1c&scraper_sdk=python
Elite Flowers,57 South Bridge Street ,ML6 6JH,Airdrie ,North Lanarkshire Scotland,01236 753439,NA,NA,www.eliteflowersairdrie.co.uk,"Flower Arrangement, Balloons","balloons, christmas flowers, floral bouquets, floral table decorations, florists online, flower arrangements, flower delivery, funeral tributes, mother's day flowers, plants, valentine's day flowers, wedding flowers","Flowers, Flower Bouquets, Birthday Flowers, Special Occasion Flowers, Flowers and Gifts, Online Florists, Local Business, Non-Profit Organisation, Arts and Entertainment",NA,Florists,09:00 - 17:00,09:00 - 17:00,09:00 - 13:00,Closed,09:00 - 17:00,09:00 - 17:00,09:00 - 17:00,https://api.scraperapi.com/?url=https%3A%2F%2Fairdrie.cylex-uk.co.uk%2Fcompany%2Felite-flowers-17045586.html&api_key=adc3d866682a18dad67c04d3bcbc7f1c&scraper_sdk=python
Norbert Dentressangle Uk Ltd,Regional Distribution Centre,ML4 3QD,Bellshill ,North Lanarkshire Scotland,01698 844 050,NA,NA,,NA,NA,"Logistics, Supply Chain Services",NA,NA,NA,NA,NA,NA,NA,NA,NA,https://api.scraperapi.com/?url=https%3A%2F%2Fbellshill-north-lanarkshire.cylex-uk.co.uk%2Fcompany%2Fnorbert-dentressangle-uk-ltd-19950856.html&api_key=adc3d866682a18dad67c04d3bcbc7f1c&scraper_sdk=python
Domain Design Agency Ltd. Bellshill,"Unit 13, Evans Business Centre, Belgrave Street, Bellshill Ind Est ",ML4 3NP,Bellshill Industrial Estate ,North Lanarkshire Scotland,01698 743155,0845 026 1069,0800 197 6404,www.domaindesignagency.com,"Posters, Graphics, Flyers, Leaflets, Brochure","SEO, Design","E-commerce, Web Design, Scotland, Agency, Developments, Online Shop, Corporates, Identity, Optimisation",NA,NA,09:00 - 17:30,09:00 - 17:30,Closed,Closed,09:00 - 17:30,09:00 - 17:30,09:00 - 17:30,https://api.scraperapi.com/?url=https%3A%2F%2Fbellshill-industrial-estate.cylex-uk.co.uk%2Fcompany%2Fdomain-design-agency-ltd--bellshill-19134511.html&api_key=adc3d866682a18dad67c04d3bcbc7f1c&scraper_sdk=python
Barclay Communications Bellshill,EVANS BUSINESS CENTRE BELLSHILL INDUSTRIAL ESTATE BELGRAVE STREET ,ML4 3NP,Bellshill Industrial Estate ,North Lanarkshire Scotland,028 9096 0366,NA,NA,www.barclaycomms.com,NA,NA,"Web Development, Web Apps, IT Services, Web Design, Mobile Apps, Business Mobiles",NA,NA,NA,NA,NA,NA,NA,NA,NA,https://api.scraperapi.com/?url=https%3A%2F%2Fbellshill-industrial-estate.cylex-uk.co.uk%2Fcompany%2Fbarclay-communications-bellshill-19137024.html&api_key=adc3d866682a18dad67c04d3bcbc7f1c&scraper_sdk=python
Pmg Web Services Ltd,"Duart House, Finch Way ",ML4 3PR,Strathclyde Business Park ,North Lanarkshire Scotland,07792 458828,0845 053 3169,0333 222 4056,pmgweb.co.uk,NA,"SEO, Search Engine Optimisation, Graphic Design","Web Development, Web Optimisation, E-commerce, Web Design, Website Design, Scotland, Web Designers, Website Designers",NA,NA,09:00 - 17:00,09:00 - 17:00,Closed,Closed,09:00 - 17:00,09:00 - 17:00,09:00 - 17:00,https://api.scraperapi.com/?url=https%3A%2F%2Fstrathclyde-business-park.cylex-uk.co.uk%2Fcompany%2Fpmg-web-services-ltd-19345387.html&api_key=adc3d866682a18dad67c04d3bcbc7f1c&scraper_sdk=python
Firefly Enterprises Ltd,Willow House Kestrel View Strathclyde Business Park ,ML4 3PB,Strathclyde Business Park ,North Lanarkshire Scotland,0870 141 7114,0870 141 7114,NA,www.fireflyuk.net,NA,NA,"Website Builder, Bespoke Websites, CMS Systems, Web Design, Website Design, Web Design Company, Web Designers, Web Design Agency, Custom Design",NA,NA,NA,NA,NA,NA,NA,NA,NA,https://api.scraperapi.com/?url=https%3A%2F%2Fstrathclyde-business-park.cylex-uk.co.uk%2Fcompany%2Ffirefly-enterprises-ltd-17148223.html&api_key=adc3d866682a18dad67c04d3bcbc7f1c&scraper_sdk=python
Seyeneco Web Design,"18, PARKVILLE ROAD ",ML4 1JD,Bellshill ,North Lanarkshire Scotland,01698 292296,0113 243 9602,NA,seyeneco.com,NA,NA,"Web Development, Website Development, Website Services, Web Development Companies, Web Design, Website Design, Web Design Company, Web Designers, Web Design Agency, Website Designers, Internet Web Design, Website Design Companies, Website Design Agencies",NA,NA,NA,NA,NA,NA,NA,NA,NA,https://api.scraperapi.com/?url=https%3A%2F%2Fbellshill-north-lanarkshire.cylex-uk.co.uk%2Fcompany%2Fseyeneco-web-design-17142391.html&api_key=adc3d866682a18dad67c04d3bcbc7f1c&scraper_sdk=python
Thistle Packaging Services Ltd,"UNIT E7, NORTH CALDEEN ROAD ",ML5 4EF,Coatbridge ,North Lanarkshire Scotland,01236 437500,01236 440868,NA,,NA,NA,"Packaging Supplies, E-commerce, Web Design, Custom Packaging, Packaging Equipment, Wrapping Equipment, Packaging & Wrapping Equipment & Supplies, supplies and services",NA,NA,NA,NA,NA,NA,NA,NA,NA,https://api.scraperapi.com/?url=https%3A%2F%2Fcoatbridge.cylex-uk.co.uk%2Fcompany%2Fthistle-packaging-services-ltd-17099317.html&api_key=adc3d866682a18dad67c04d3bcbc7f1c&scraper_sdk=python
Spiders Web Ltd.,91 Alexander Street ,ML6 0BD,Airdrie ,North Lanarkshire Scotland,NA,NA,NA,,NA,NA,Property Developers,NA,Building Companies,NA,NA,NA,NA,NA,NA,NA,https://api.scraperapi.com/?url=https%3A%2F%2Fairdrie.cylex-uk.co.uk%2Fcompany%2Fspiders-web-ltd--22855607.html&api_key=adc3d866682a18dad67c04d3bcbc7f1c&scraper_sdk=python
Binary Forge Software,"Unit 18, Stirling Road Ind Estate, Laverock Road ",ML6 7UD,Airdrie ,North Lanarkshire Scotland,01236 751505,NA,NA,,NA,NA,"Web Development, Software Consultancy, Development Company, Mobile Development",NA,NA,NA,NA,NA,NA,NA,NA,NA,https://api.scraperapi.com/?url=https%3A%2F%2Fairdrie.cylex-uk.co.uk%2Fcompany%2Fbinary-forge-software-23468483.html&api_key=adc3d866682a18dad67c04d3bcbc7f1c&scraper_sdk=python
Central Webs,62 WOODBURN AVE ,ML6 9EW,Airdrie ,North Lanarkshire Scotland,01236 761888,NA,NA,www.centralwebs.co.uk,NA,NA,"Web Development, Web Developers, Web Design, Multimedia Web Design",NA,NA,NA,NA,NA,NA,NA,NA,NA,https://api.scraperapi.com/?url=https%3A%2F%2Fairdrie.cylex-uk.co.uk%2Fcompany%2Fcentral-webs-16846618.html&api_key=adc3d866682a18dad67c04d3bcbc7f1c&scraper_sdk=python
Almond Valley Wedding Cars,"2, Polkemmet Lane ",ML7 5RQ,Harthill ,North Lanarkshire Scotland,01501 753645,NA,NA,,"Cars, Vehicles","Wedding Car Hire, Car Hire, Car Rental, Vehicle Hire, Chauffeur Driven Car Hire, Vehicle Leasing","Car Dealers, Vehicle Dealer, Auto Sales, Automobile Dealer, Auto Dealers, Car Dealerships, Buy Car, Motorcar, Automotive, Autos, Automobiles, Auto Hire, Automobile Rental, Auto Rentals, Autoleasing",NA,Vehicle Sales,NA,NA,NA,NA,NA,NA,NA,https://api.scraperapi.com/?url=https%3A%2F%2Fharthill-north-lanarkshire.cylex-uk.co.uk%2Fcompany%2Falmond-valley-wedding-cars-17157838.html&api_key=adc3d866682a18dad67c04d3bcbc7f1c&scraper_sdk=python
des2dev.co.uk,92 DEVERON STREET ,ML5 2JB,Coatbridge ,North Lanarkshire Scotland,07950 855227,NA,NA,,NA,NA,"Website Builder, Bespoke Websites, CMS Systems, Web Design, Website Design, Web Design Company, Web Designers, Web Design Agency, Custom Design, Multimedia Web Design",NA,NA,NA,NA,NA,NA,NA,NA,NA,https://api.scraperapi.com/?url=https%3A%2F%2Fcoatbridge.cylex-uk.co.uk%2Fcompany%2Fdes2dev-co-uk-16744900.html&api_key=adc3d866682a18dad67c04d3bcbc7f1c&scraper_sdk=python
Pacific Chauffeur Drive,Auchinairn Road ,G64 1UR,Bishopbriggs ,East Dunbartonshire Scotland,0141 762 3815,07930 377051,NA,,NA,"Wedding Car Hire, Limo Hire",Business Events,NA,NA,Open 24 Hours,Open 24 Hours,Open 24 Hours,Open 24 Hours,Open 24 Hours,Open 24 Hours,Open 24 Hours,https://api.scraperapi.com/?url=https%3A%2F%2Fbishopbriggs.cylex-uk.co.uk%2Fcompany%2Fpacific-chauffeur-drive-20016516.html&api_key=adc3d866682a18dad67c04d3bcbc7f1c&scraper_sdk=python
Premier Photography Ltd,5A Auchingramont Road ,ML3 6JP,Hamilton ,South Lanarkshire Scotland,01698 286745,NA,NA,premierphotography.co.uk,"Pictures, Photo",Wedding Car Hire,"Photographer, Professional Photography, Professional Photographer, Digital Photography, Photo Processing, Digital Photo Gallery, Wedding Photography, Portrait Photography, Wedding Cars, Wedding Photographers, Wedding Car Rental, Portrait Photographer, Event Photography, Fashion Photography, Photoshoot, Photography, Photo Gallery, Commercial Photography, Commercial Photographers, Local Business, Professional Services, Images, Events, Scotland, Fashion, Commercials, Professionals, Fashion Photographer, Event Photographer, Glamour, Working throughout",NA,NA,09:00 - 20:00,09:00 - 17:30,09:00 - 17:00,Closed,09:00 - 20:00,09:00 - 17:30,09:00 - 17:30,https://api.scraperapi.com/?url=https%3A%2F%2Fhamilton-south-lanarkshire.cylex-uk.co.uk%2Fcompany%2Fpremier-photography-ltd-17969726.html&api_key=adc3d866682a18dad67c04d3bcbc7f1c&scraper_sdk=python
St. Clair Wedding Cars Hamilton,1 NEWPARK STREET ,ML3 0BN,Hamilton ,South Lanarkshire Scotland,01698 458095,NA,NA,,NA,"Wedding Car Hire, Airport Transfers, Prom Car Hire",Sporting Event Car,NA,NA,NA,NA,NA,NA,NA,NA,NA,https://api.scraperapi.com/?url=https%3A%2F%2Fhamilton-south-lanarkshire.cylex-uk.co.uk%2Fcompany%2Fst--clair-wedding-cars-hamilton-19688633.html&api_key=adc3d866682a18dad67c04d3bcbc7f1c&scraper_sdk=python
DEFINITIVE CLASS WEDDING CARS LTD,21 Victoria Street ,ML3 0LE,Hamilton ,South Lanarkshire Scotland,NA,NA,NA,,NA,Car Hire,NA,NA,NA,NA,NA,NA,NA,NA,NA,NA,https://api.scraperapi.com/?url=https%3A%2F%2Fhamilton-south-lanarkshire.cylex-uk.co.uk%2Fcompany%2Fdefinitive-class-wedding-cars-ltd-24290661.html&api_key=adc3d866682a18dad67c04d3bcbc7f1c&scraper_sdk=python
White Diamond Wedding Hire,10 Saline St ,ML6 9BE,Airdrie ,North Lanarkshire Scotland,01236 748988,07940 388727,NA,www.whitediamondweddingcars.co.uk,Silver,"Wedding Planning, Classic Wedding Cars, Wedding Car Hire, Spa, Executive Car Hire, Executive Hire","Vintage Wedding Cars, Wedding Cars, Wedding Car Rental, Hotel, Events, Event Planners, Mercedes-Benz, Beauford, Uniformed Drivers, The Regent",NA,local business,09:00 - 21:00,09:00 - 21:00,09:00 - 21:00,09:00 - 21:00,09:00 - 21:00,09:00 - 21:00,09:00 - 21:00,https://api.scraperapi.com/?url=https%3A%2F%2Fairdrie.cylex-uk.co.uk%2Fcompany%2Fwhite-diamond-wedding-hire-17103333.html&api_key=adc3d866682a18dad67c04d3bcbc7f1c&scraper_sdk=python
Flyer Scotland,"20 Melford Rd, Rigged Industrial Estate",ML4 3LR,Bellshill ,North Lanarkshire Scotland,07976 291531,NA,NA,www.flyerscotland.com,"Banners, Posters, Signage, Flyers, Leaflets, Brochure, Vehicle Graphics, Window Graphics, Exhibition Display","Design,  Printing,  Websites,  Signage,  Vehicle Graphics,  Window Graphics,  Banners,  Exhibition Displays,  Posters,  Flyers,  Leaflets,  Brochures,  Shop Displays & Fascias, Printing","Website Design, Website, Shop Display, Shop Displays & Fascias",NA,NA,NA,NA,NA,NA,NA,NA,NA,https://api.scraperapi.com/?url=https%3A%2F%2Fbellshill-north-lanarkshire.cylex-uk.co.uk%2Fcompany%2Fflyer-scotland-23702696.html&api_key=adc3d866682a18dad67c04d3bcbc7f1c&scraper_sdk=python
Spr,6 Drumgelloch St ,ML6 7EW,Airdrie ,North Lanarkshire Scotland,01236 764911,0845 123 5284,NA,www.spr.co.uk,NA,"Remote Computer Support, IT Secuirty Services, Network Installations, Spyware Removal","Web Design, Computer Software, Computer Hardware, Computer Systems, Website Hosting, Network Installation",NA,NA,NA,NA,NA,NA,NA,NA,NA,https://api.scraperapi.com/?url=https%3A%2F%2Fairdrie.cylex-uk.co.uk%2Fcompany%2Fspr-17032859.html&api_key=adc3d866682a18dad67c04d3bcbc7f1c&scraper_sdk=python
IMAD Scotland,2 Golfhill Quadrant ,ML6 6SU,Airdrie ,North Lanarkshire Scotland,0141 416 1117,NA,NA,imadscotlandgroup.com,"Boxes, Engines","Graphic Design, Search Engine Optimisation, Design","Website Development, Content Management Systems, Corporate Branding, E-commerce, Services, Website Design, Marketing, Scotland, Internet, Companies, Web, Email, Website Hosting, Search, Domain, Names, Media & News Company",NA,NA,09:00 - 17:00,09:00 - 17:00,Closed,Closed,09:00 - 17:00,09:00 - 17:00,09:00 - 17:00,https://api.scraperapi.com/?url=https%3A%2F%2Fairdrie.cylex-uk.co.uk%2Fcompany%2Fimad-scotland-17522829.html&api_key=adc3d866682a18dad67c04d3bcbc7f1c&scraper_sdk=python
Cj Designs,Coatbridge,ML5 1PG,Coatbridge ,North Lanarkshire Scotland,07714 082536,NA,NA,cjdesignsgd.co.uk,"Stationery, Posters","graphic design, printing, printing services","Web Design, Graphic Designers, Logo Design, Web Designers, Social Media Marketing, Web Development",NA,NA,08:30 - 17:00,08:30 - 17:00,Closed,Closed,08:30 - 17:00,08:30 - 17:00,08:30 - 17:00,https://api.scraperapi.com/?url=https%3A%2F%2Fcoatbridge.cylex-uk.co.uk%2Fcompany%2Fcj-designs-19699630.html&api_key=adc3d866682a18dad67c04d3bcbc7f1c&scraper_sdk=python
Hurtle Creative Ltd,24 Maroney Drive ,G33 6PB,Stepps ,North Lanarkshire Scotland,0141 237 9328,07814 451737,NA,www.hurtlecreative.com,NA,Graphic Design,"Web Design, Graphic Designers, Web Designers, Web Design and Development, Professional Services, Marketing Consultants",NA,NA,Open 24 Hours,Open 24 Hours,Open 24 Hours,Open 24 Hours,Open 24 Hours,Open 24 Hours,Open 24 Hours,https://api.scraperapi.com/?url=https%3A%2F%2Fstepps.cylex-uk.co.uk%2Fcompany%2Fhurtle-creative-ltd-25778797.html&api_key=adc3d866682a18dad67c04d3bcbc7f1c&scraper_sdk=python
The Freckled Fish,75 Ferguson Way ,ML6 6EX,Airdrie ,North Lanarkshire Scotland,07891 992 416,NA,NA,,NA,NA,"Web Development, Website Development, Website Services, Web Development Companies, Web Publishing and Web Design, Flash Developer, Web Companies, Freelance Designer, Web Design, Designers, Website Design, Graphic Designers, Web Design Company, Web Designers, Web Design Agency, Website Designers, Internet Web Design, Developers, Copywriting Services, Website Design Companies, Design Companies, Website Design Agencies, Photo Shop, Multimedia Web Design, Actionscript 3, Actionscript2, Freckled Fish",NA,NA,NA,NA,NA,NA,NA,NA,NA,https://api.scraperapi.com/?url=https%3A%2F%2Fairdrie.cylex-uk.co.uk%2Fcompany%2Fthe-freckled-fish-17001381.html&api_key=adc3d866682a18dad67c04d3bcbc7f1c&scraper_sdk=python
Maveric Designs,"T1 House, 63a Black Street ",ML6 6LU,Airdrie ,North Lanarkshire Scotland,01236 324210,NA,NA,mavericdesign.com,NA,"Graphic Design, Search Engine Optimisation","Website Optimisation, Website Packages, Professional Websites, Web Design, App Development, Mobile Websites, Website Re-Design, E-commerce, Website Design, Professionals, Social Media, Usa, Customs, Stylish, Canada, Professional Website Design, Ecommerce Website Design, Custom Built, Bespoke Web Design, Custom Web Design, Stunning, Mobile Development, Ios, Mobile Website Design, Mobile Web Design, System Development, iPad iPhone, Maveric Design",NA,Design Studios,09:00 - 17:30,09:00 - 17:30,Closed,Closed,09:00 - 17:30,09:00 - 17:30,09:00 - 17:30,https://api.scraperapi.com/?url=https%3A%2F%2Fairdrie.cylex-uk.co.uk%2Fcompany%2Fmaveric-designs-19137321.html&api_key=adc3d866682a18dad67c04d3bcbc7f1c&scraper_sdk=python
Solo Photography,4 Talbot Terrace ,G71 6ER,Uddingston ,North Lanarkshire Scotland,01698 813274,NA,NA,,Portrait,Weddings,"Photographer, Professional Photography, Professional Photographer, Digital Photography, Photo Processing, Digital Photo Gallery, Wedding Photography, Portrait Photography, Wedding Photographers, Portrait Photographer, Photoshoot, Lonsdale, Roy, Conferences & Events",NA,NA,NA,NA,NA,NA,NA,NA,NA,https://api.scraperapi.com/?url=https%3A%2F%2Fuddingston.cylex-uk.co.uk%2Fcompany%2Fsolo-photography-17762950.html&api_key=adc3d866682a18dad67c04d3bcbc7f1c&scraper_sdk=python
Mackenzie Rhind Lbipp Motherwell Hareshaw,"RHINMOIR, 18 WILSON'S ROAD, HARESHAW CLELAND ",ML1 5NA,Hareshaw ,North Lanarkshire Scotland,01698 861077,NA,NA,,NA,Pet Portraits,"Wedding Photography, Wedding Images, Professional Photography, Photographic Services, Professional Photographic Services, Family Portraits Gallery, Commercial Photography",NA,NA,NA,NA,NA,NA,NA,NA,NA,https://api.scraperapi.com/?url=https%3A%2F%2Fhareshaw.cylex-uk.co.uk%2Fcompany%2Fmackenzie-rhind-lbipp-motherwell-hareshaw-19273946.html&api_key=adc3d866682a18dad67c04d3bcbc7f1c&scraper_sdk=python
BLG Video & Audio Productions,13 Glenfinnan Grove ,ML4 2AY,Bellshill ,North Lanarkshire Scotland,7514795480,NA,NA,http://www.blgvideoaudioproductions.co.uk/,NA,"Wedding Videos, Music Videos, Business Media, Christening Videos, Baptism Videos, KIds Partys, Weddings","Wedding Video, Kids Parties, Music Video, Media Business",NA,NA,09:00 - 21:00,09:00 - 21:00,09:00 - 17:00,Closed,09:00 - 21:00,09:00 - 21:00,09:00 - 21:00,https://api.scraperapi.com/?url=https%3A%2F%2Fbellshill-north-lanarkshire.cylex-uk.co.uk%2Fcompany%2Fblg-video---audio-productions-23816090.html&api_key=adc3d866682a18dad67c04d3bcbc7f1c&scraper_sdk=python
Fifth Avenue Photography,7 Glengoyne Drive,ML1 4GB,Motherwell ,North Lanarkshire Scotland,01698 259743,07881 446846,NA,www.fifthavenuephotography.co.uk,NA,NA,"Wedding Photographers, Photography",NA,NA,NA,NA,NA,NA,NA,NA,NA,https://api.scraperapi.com/?url=https%3A%2F%2Fmotherwell.cylex-uk.co.uk%2Fcompany%2Ffifth-avenue-photography-23552314.html&api_key=adc3d866682a18dad67c04d3bcbc7f1c&scraper_sdk=python
Dom Quigley Photography,25 Addie Street ,ML1 1LG,Motherwell ,North Lanarkshire Scotland,01698 262522,07552 760719,NA,www.domquigleyphotography.com,Portrait,"Weddings, Portrait, Modelling, Family, Children, Pets, Proms, Graduations, Communion, Events, Corporate, Commercial","Wedding Photographers, General Photographers, Commercials, Corporates, Child, Prom",NA,NA,10:00 - 23:00,10:00 - 23:00,10:00 - 23:00,10:00 - 23:00,10:00 - 23:00,10:00 - 23:00,10:00 - 23:00,https://api.scraperapi.com/?url=https%3A%2F%2Fmotherwell.cylex-uk.co.uk%2Fcompany%2Fdom-quigley-photography-17769800.html&api_key=adc3d866682a18dad67c04d3bcbc7f1c&scraper_sdk=python
Cynthia Photography,"4 Mainhill Rd, Bargeddie ",G69 7SS,Bargeddie ,Glasgow City Scotland,0141 771 3692,7705901005,NA,,"Pictures, Portrait, Photo",Weddings,"Photo Processing, Digital Photo Gallery, Wedding Photography, Photographer, Photography, Professional Photographer, Digital Photography, Images, Scotland, General Photographers, Cindy Glass, Party Pictures",NA,NA,NA,NA,NA,NA,NA,NA,NA,https://api.scraperapi.com/?url=https%3A%2F%2Fbargeddie.cylex-uk.co.uk%2Fcompany%2Fcynthia-photography-17136178.html&api_key=adc3d866682a18dad67c04d3bcbc7f1c&scraper_sdk=python
Bridal Image Photography,3 Cumnock Dr ,ML6 9XL,Airdrie ,North Lanarkshire Scotland,01236 755361,07557 649601,NA,www.bridalimage.co.uk,"Pictures, Photo",NA,"Photographer, Professional Photography, Professional Photographer, Digital Photography, Photo Gallery, Photo Processing, Digital Photo Gallery, Photoshoot, Photography, Wedding Photographers, Professional Services, Images, Bridal Shops, Public Services, Arts and Entertainment, Musicians & Bands",NA,NA,Open 24 Hours,Open 24 Hours,Open 24 Hours,Open 24 Hours,Open 24 Hours,Open 24 Hours,Open 24 Hours,https://api.scraperapi.com/?url=https%3A%2F%2Fairdrie.cylex-uk.co.uk%2Fcompany%2Fbridal-image-photography-17155606.html&api_key=adc3d866682a18dad67c04d3bcbc7f1c&scraper_sdk=python
Inveresk Photography,"Inveresk, Springwells Avenue ",ML6 6EA,Airdrie ,North Lanarkshire Scotland,01236 761 458,NA,NA,,NA,Weddings,General Photographers,NA,NA,NA,NA,NA,NA,NA,NA,NA,https://api.scraperapi.com/?url=https%3A%2F%2Fairdrie.cylex-uk.co.uk%2Fcompany%2Finveresk-photography-19904621.html&api_key=adc3d866682a18dad67c04d3bcbc7f1c&scraper_sdk=python
Alec Kirkham Photography,11 Linkwood Road ,ML6 6GP,Airdrie ,North Lanarkshire Scotland,01236 770370,07515 997819,NA,aleckirkham.co.uk,"Portrait, Album","Childcare, Weddings, Groups","Wedding Photographers, Photography, Photographer, Professional Services, Events, Package, Cheap, Birthday, Studios, Anniversary, Christenings, Reportage, Non-Profit Organisation, Charity Organizations, Formal, Communion, Glasgow, Regatta, Regions, Hamilton, Motherwell, Livingston, Coatbridge, Bellshill, Lanarkshire, Informal, Reasonable, North Lanarkshire, Airdire",NA,NA,Open 24 Hours,Open 24 Hours,Open 24 Hours,Open 24 Hours,Open 24 Hours,Open 24 Hours,Open 24 Hours,https://api.scraperapi.com/?url=https%3A%2F%2Fairdrie.cylex-uk.co.uk%2Fcompany%2Falec-kirkham-photography-17521621.html&api_key=adc3d866682a18dad67c04d3bcbc7f1c&scraper_sdk=python
A H Welding Ltd.,20 Anderson Street ,ML6 0AA,Airdrie ,North Lanarkshire Scotland,NA,NA,NA,,NA,NA,"Manufacture of General Machinery, Industrial Equipment Manufacturer",NA,NA,NA,NA,NA,NA,NA,NA,NA,https://api.scraperapi.com/?url=https%3A%2F%2Fairdrie.cylex-uk.co.uk%2Fcompany%2Fa-h-welding-ltd--22264882.html&api_key=adc3d866682a18dad67c04d3bcbc7f1c&scraper_sdk=python
Airdrie Flowers,4 Broomknoll Street ,ML6 6BN,Airdrie ,North Lanarkshire Scotland,01236 766236,NA,NA,airdrieflorist.co.uk,Flower Arrangement,"Birthday Bouquets, artificial flowers & plants, christmas flowers, floral bouquets, floral table decorations, flower arrangements, flower delivery, funeral flowers, hand tied bouquets, mother's day flowers, valentine's day flowers, wedding flowers, Advertising & Marketing","Flowers, Flower Bouquets, Birthday Flowers, Special Occasion Flowers, Floral Displays, Bouquets, Florist Shops, Flower Shops, Flowers and Gifts, Posies, Photographer, Professional Services",NA,Florists,09:00 - 17:00,09:00 - 17:00,09:00 - 17:00,Closed,09:00 - 17:00,09:00 - 17:00,09:00 - 17:00,https://api.scraperapi.com/?url=https%3A%2F%2Fairdrie.cylex-uk.co.uk%2Fcompany%2Fairdrie-flowers-17123813.html&api_key=adc3d866682a18dad67c04d3bcbc7f1c&scraper_sdk=python
Maureen Bell Photography,1 Mc Gurk Way,ML4 3PJ,Bellshill ,North Lanarkshire Scotland,7910215480,NA,NA,maureenbellphotography.co.uk,NA,NA,"Photographer, Wedding Photography, Wedding Photographers, Family Photography, Professional Services, Canvase Streching, Christening Photography, Babys Photography",NA,NA,Open 24 Hours,Open 24 Hours,Open 24 Hours,Open 24 Hours,Open 24 Hours,Open 24 Hours,Open 24 Hours,https://api.scraperapi.com/?url=https%3A%2F%2Fbellshill-north-lanarkshire.cylex-uk.co.uk%2Fcompany%2Fmaureen-bell-photography-23697690.html&api_key=adc3d866682a18dad67c04d3bcbc7f1c&scraper_sdk=python
Turner Welding Ltd.,20 Anderson Street ,ML6 0AA,Airdrie ,North Lanarkshire Scotland,NA,NA,NA,,NA,NA,"Commercial Equipment Repair, Industrial Equipment Repair, Machinery Repairs, Repair Equipment",NA,NA,NA,NA,NA,NA,NA,NA,NA,https://api.scraperapi.com/?url=https%3A%2F%2Fairdrie.cylex-uk.co.uk%2Fcompany%2Fturner-welding-ltd--22923973.html&api_key=adc3d866682a18dad67c04d3bcbc7f1c&scraper_sdk=python
H McLean,"Unit 12, 38, Rochsolloch Rd ",ML6 9BA,Airdrie ,North Lanarkshire Scotland,01236 751100,NA,NA,,"Gates & Railings, Wooden Gates, Security Gates, Wrought Iron Gates, Bollards, Driveway Gates, Metal Gates, Garden Gates, Traffic Barriers, Staircases, Palisade Fencing","gate design services, metal gates, railing design services, security grilles, traffic barriers, staircases, wrought ironwork, wrought iron gates, security gates, garden gates, bollards, balustrades & handrails, balcony railings, blacksmiths & forgemasters, palisade fencing, wooden gates, driveway gates, ALLOY WHEEL WELDING, ALLOY WELDING, Stainless Steel Welding, Aluminium Welding, welding","Blacksmithing, Artist Blacksmith, Blacksmith, Forgemaster, Iron Works",NA,NA,NA,NA,NA,NA,NA,NA,NA,https://api.scraperapi.com/?url=https%3A%2F%2Fairdrie.cylex-uk.co.uk%2Fcompany%2Fh-mclean-17037734.html&api_key=adc3d866682a18dad67c04d3bcbc7f1c&scraper_sdk=python
Berryhill Blacksmiths Ltd,"Berryhill Cottage Old Biggar Rd, ",ML6 7SS,Airdrie ,Lanarkshire,01236 830378,NA,NA,http://www.berryhillblacksmiths.co.uk,NA,NA,"Welders, Metalworks, Metal Suppliers",NA,"Welder, Metal Supplier, Metalwork, General Contractor, General Contractors",08:00 - 17:00,08:00 - 17:00,08:00 - 12:00,Closed,08:00 - 17:00,08:00 - 17:00,08:00 - 17:00,https://api.scraperapi.com/?url=https%3A%2F%2Fairdrie.cylex-uk.co.uk%2Fcompany%2Fberryhill-blacksmiths-ltd-19339859.html&api_key=adc3d866682a18dad67c04d3bcbc7f1c&scraper_sdk=python
Upper Mill Street Garage,16 Upper Mill Street ,ML6 6JJ,Airdrie ,North Lanarkshire Scotland,01236 751144,NA,NA,,"Tyres, Brakes, Batteries, Exhausts, Clutches","Air Conditioning, Body Repairs, Brakes, Electronics, Engine Diagnostics, Pick Up / Drop Off, Recovery, Servicing, Tyres, MOT Testing Off-Site, Air-conditioning - by arrangement, Body repairs - by arrangement, MOT's - by arrangement, Exhausts, Clutches, Steering alignment, Batteries, Welding, Online Booking Available, Air Conditioning, Body Repairs, Brakes, Electronics, Engine Diagnostics, Pick Up / Drop Off, Recovery, Servicing, Tyres, MOT Testing Off-Site, Air-conditioning - by arrangement, Body repairs - by arrangement, MOT's - by arrangement, Exhausts, Clutches, Steering alignment, Batteries, Welding, Auto Repair, Engine Diagnostic, Body Repair, Pick-Up & Drop-Off","Air-Conditioning by Arrangement, Body Repairs by Arrangement, MOT by Arrangement",NA,NA,NA,NA,NA,NA,NA,NA,NA,https://api.scraperapi.com/?url=https%3A%2F%2Fairdrie.cylex-uk.co.uk%2Fcompany%2Fupper-mill-street-garage-26163681.html&api_key=adc3d866682a18dad67c04d3bcbc7f1c&scraper_sdk=python
Heras,"UNIT 7-8, ROCHSOLLOCH ROAD ",ML6 9BG,Airdrie ,North Lanarkshire Scotland,01236 749995,01236 749770,NA,www.heras.co.uk,"Gates, Fences, Security Fencing, Security Gates, Automatic Gates, Sliding Gates, Steel Fencing, Welded Mesh, Swing Gates, Manual Gates, Welded Mesh Fencing, Fences & Walls",Fencing,"Sports, Security, Access Control, Secure, Permanent, Boundaries, Perimeter, Expanded Metal, Heras, Ball Courts, Multi Use Games Area, Weld Mesh Panels, Self-Raking Railing, B and Q Fencing Supplier, Court Sports",NA,"Barrier Suppliers, Fencing Manufacturers, Gate & Barrier Suppliers",NA,NA,NA,NA,NA,NA,NA,https://api.scraperapi.com/?url=https%3A%2F%2Fairdrie.cylex-uk.co.uk%2Fcompany%2Fheras-16898183.html&api_key=adc3d866682a18dad67c04d3bcbc7f1c&scraper_sdk=python
Exponential Services,"36, TARBOTHILL ROAD ",AB22 8RE,Bridge Of Don ,Aberdeen City Scotland,01224 821919,01224 821919,0333 121 0101,,NA,"DVD Duplication, CD Duplication, CD & DVD Duplication","Sound Services, Audio Services, Av Services, Audio Visual Production, Video Transfer, Audio Visual Services, Film and Video Services, Video Production, Video, Visual Services, Presentation Services, Wedding Video, Wedding DVD, CD Mastering, Video to DVD Transfer, Audio Restoration, Audio CD Duplication, DVD Wedding Video, Exponential, Video Transfer DVD, Audio Duplication, Transfer Audio Cassette to CD, Transfer Cine Film DVD, Transfer Cine Film to DVD",NA,NA,NA,NA,NA,NA,NA,NA,NA,https://api.scraperapi.com/?url=https%3A%2F%2Fbridge-of-don.cylex-uk.co.uk%2Fcompany%2Fexponential-services-17145950.html&api_key=adc3d866682a18dad67c04d3bcbc7f1c&scraper_sdk=python
Halliday's Fabrication Ltd.,20 Anderson Street ,ML6 0AA,Airdrie ,North Lanarkshire Scotland,NA,NA,NA,,NA,NA,Metal Products Repair,NA,NA,NA,NA,NA,NA,NA,NA,NA,https://api.scraperapi.com/?url=https%3A%2F%2Fairdrie.cylex-uk.co.uk%2Fcompany%2Fhalliday%2527s-fabrication-ltd--22541034.html&api_key=adc3d866682a18dad67c04d3bcbc7f1c&scraper_sdk=python
E S Welding Ltd.,20 Anderson Street ,ML6 0AA,Airdrie ,North Lanarkshire Scotland,NA,NA,NA,,NA,NA,Metal Products Repair,NA,NA,NA,NA,NA,NA,NA,NA,NA,https://api.scraperapi.com/?url=https%3A%2F%2Fairdrie.cylex-uk.co.uk%2Fcompany%2Fe-s-welding-ltd--22455640.html&api_key=adc3d866682a18dad67c04d3bcbc7f1c&scraper_sdk=python
Avc Media Enterprises,"Grandholm Mill, Grandholm Village ",AB22 8BE,Bridge Of Don ,Aberdeen City Scotland,01224 248007,01224 392828,01224 248407,avcimmedia.com,"Glass, Windows, Counter, Alarms","Banqueting, Entertainment, Conference, Groups, Replacements","Video Production, Conference Centre, Sound Services, Av Services, Conference Rooms, Convention Center, Business Conferences, Conference Rooms and Centres, Conference Halls, Audio Visual Services, Pubs, Advertising Agency, Scotland, Club, Media, Snack Bar, Lounge, Football, Activities, Function Rooms, Visual Services, Analysis, Party Rooms, Party Venues, Digital Media, Improvements, CSR, Over, Enterprises, Cans, Anglian, Doubles, Function Venues, Its, Satellite Broadband, Satellite Communications, Since, Beginning, Data Network Cabling, Proud, Stena, Specialist IT Solutions, Vision and Values",Conference Facilities,NA,08:30 - 17:00,08:30 - 16:00,Closed,Closed,08:30 - 17:00,08:30 - 17:00,08:30 - 17:00,https://api.scraperapi.com/?url=https%3A%2F%2Fbridge-of-don.cylex-uk.co.uk%2Fcompany%2Favc-media-enterprises-16824121.html&api_key=adc3d866682a18dad67c04d3bcbc7f1c&scraper_sdk=python
Concept Productions Ltd,2A CRAIGSHAW ROAD,AB12 3AQ,West Tullos Industrial Estate ,Aberdeen City Scotland,01224 894242,01224 625041,NA,www.conceptproductions.co.uk,NA,NA,"AV Production, Film Production, Internet",NA,NA,NA,NA,NA,NA,NA,NA,NA,https://api.scraperapi.com/?url=https%3A%2F%2Fwest-tullos-industrial-estate.cylex-uk.co.uk%2Fcompany%2Fconcept-productions-ltd-20018054.html&api_key=adc3d866682a18dad67c04d3bcbc7f1c&scraper_sdk=python
G&S Garage Services LLP,"Unit 1 Block 2, Chapelhall Industrial Estate, Chapelhall",ML6 6QH,Airdrie ,North Lanarkshire Scotland,01236 898033,NA,NA,gsgarage.co.uk,"Tyres, Brakes, Batteries, Exhausts, Clutches, Alternators, Starters","Servicing, Mechanical Repairs, Diagnostics, Laser Wheel Alignment (tracking), Tyres, Exhausts, Starters, Alternators, Batteries, Clutches, Brakes, Steering, Windscreen repairs/replacement, Electrical repairs/installations, Engine rebuilds, Welding, Diesel Chip Tunning, LPG Conversions, LPG, Garage Services, Engine Rebuilding, LPG Conversion","Vans, Laser Wheel Alignment Tracking",NA,NA,09:00 - 18:00,09:00 - 17:00,09:00 - 14:00,Closed,09:00 - 18:00,09:00 - 18:00,09:00 - 18:00,https://api.scraperapi.com/?url=https%3A%2F%2Fairdrie.cylex-uk.co.uk%2Fcompany%2Fg-s-garage-services-llp-22509432.html&api_key=adc3d866682a18dad67c04d3bcbc7f1c&scraper_sdk=python
"Reid, Graham",140 HAMMERFIELD AVE ,AB10 7FE,Aberdeen ,Aberdeen City Scotland,01224-318579,NA,NA,,NA,NA,"Sound Services, Audio Services, Av Services, Audio Visual Services",NA,NA,NA,NA,NA,NA,NA,NA,NA,https://api.scraperapi.com/?url=https%3A%2F%2Faberdeen.cylex-uk.co.uk%2Fcompany%2Freid--graham-18656556.html&api_key=adc3d866682a18dad67c04d3bcbc7f1c&scraper_sdk=python
Jim Parkinson Ltd,107 CARR LANE ,PR7 3JQ,Chorley ,Lancashire England,01257 261 542,01257 268 877,NA,,NA,NA,"Haulage, Transport and Communications",NA,NA,NA,NA,NA,NA,NA,NA,NA,https://api.scraperapi.com/?url=https%3A%2F%2Fchorley-chorley.cylex-uk.co.uk%2Fcompany%2Fjim-parkinson-ltd-19830488.html&api_key=adc3d866682a18dad67c04d3bcbc7f1c&scraper_sdk=python
Wigan Removals & Deliveries,"BRADLEY HALL TRADING ESTATE, BRADLEY LANE ",WN6 0XQ,Standish ,Greater Manchester England,01942 498340,NA,NA,,NA,NA,"Warehouse Services, Storage, Storage Services, Repository, Storehouse, Depository, Warehouses, Storage Solutions, Storage Space, Wholesale, Removals, Household Removals, House Removals, Stores, Household Storage, Home Storage, Removal Companies, Deposit, Home Removals, Households, Removal Storage, Household Removals and Storage",NA,NA,NA,NA,NA,NA,NA,NA,NA,https://api.scraperapi.com/?url=https%3A%2F%2Fstandish-wigan.cylex-uk.co.uk%2Fcompany%2Fwigan-removals---deliveries-14715199.html&api_key=adc3d866682a18dad67c04d3bcbc7f1c&scraper_sdk=python
Dac Handling Solutions,6 THE WILLOWS ,PR7 3RQ,Chorley ,Lancashire England,0870 166 2904,0845 601 3529,NA,www.still.co.uk,"Chains, Parts","Finance, Repair, Driver Training","Forklift Trucks, Forklift, Lift Trucks, Narrow Aisle, Sideloaders, Used Forklifts, Vna, Hawker, Tow Tractors, Container Handler, Mechanical Sweeper, Dac Plant, Euroreel, Hand Pump Truck, Warehouse Design, Material Handling Equipment, Services, Storage, Maintenance, Hire, Logistics, Rentals, Part Exchange, Mast, Combi, Stackers, Plymouths, Boltons, Tugs, Stokes, Order Pickers, Tennants, Still",NA,NA,NA,NA,NA,NA,NA,NA,NA,https://api.scraperapi.com/?url=https%3A%2F%2Fchorley-chorley.cylex-uk.co.uk%2Fcompany%2Fdac-handling-solutions-15863862.html&api_key=adc3d866682a18dad67c04d3bcbc7f1c&scraper_sdk=python
Lucy Willow Limited,"Unit 35, Bradley Hall Trading Est/Bradley La ",WN6 0XQ,Standish ,Greater Manchester England,0845 803 0988,NA,NA,,"Dressing Tables, Blanket Boxes, Tables, Kingsize Beds, Dressers, Bedside Tables & Cabinets, Sideboards, Bedding, Dining Tables, Bedroom, Mirrors, Furniture, Chairs & Seating, Wardrobes & Armoires, Four Poster Beds, Mattresses, Beds, Bookcases, TV Cabinets, Superking Beds, Bedrooms, Table, Children's Furniture, Children's Bedroom Furniture, Blanket Box, Boys' Beds, Girls Beds, Children's Bunk Beds, French Bedroom Furniture, Style Furniture, Girls Bedroom Furniture",Furniture Collection,"King Size Beds, Warehouses, Super King Beds",NA,"Furniture Shop, Furniture Manufacturers",09:30 - 17:30,09:30 - 17:30,Closed,Closed,09:30 - 17:30,09:30 - 17:30,09:30 - 17:30,https://api.scraperapi.com/?url=https%3A%2F%2Fstandish-wigan.cylex-uk.co.uk%2Fcompany%2Flucy-willow-limited-14428351.html&api_key=adc3d866682a18dad67c04d3bcbc7f1c&scraper_sdk=python
