Name,Street,Postal,Locality,Region,Phone,Mobile,Fax,Website,Products,Service,Keyword,Facilities,Categories,Thursday,Friday,Saturday,Sunday,Monday,Tuesday,Wednesday,URL
Meadow Croft - Bakewell,2 Wyebank Grove,DE45 1BJ,Bakewell ,Derbyshire England,07447 030080,NA,NA,,NA,NA,NA,NA,NA,07:00 - 22:00,07:00 - 22:00,07:00 - 22:00,07:00 - 22:00,07:00 - 22:00,07:00 - 22:00,07:00 - 22:00,https://api.scraperapi.com/?url=https%3A%2F%2Fbakewell.cylex-uk.co.uk%2Fcompany%2Fmeadow-croft---bakewell-26499167.html&api_key=adc3d866682a18dad67c04d3bcbc7f1c&scraper_sdk=python
Pelican S Pool & SPA Services,"6, WYCHWOOD GARDENS ",OX16 9QN,Banbury ,Oxfordshire England,01295 255483,NA,NA,,NA,NA,"Swimming Pool Contractors, Repairers Service",NA,NA,NA,NA,NA,NA,NA,NA,NA,https://api.scraperapi.com/?url=https%3A%2F%2Fbanbury.cylex-uk.co.uk%2Fcompany%2Fpelican-s-pool---spa-services-14541622.html&api_key=adc3d866682a18dad67c04d3bcbc7f1c&scraper_sdk=python
Keith Edwards,6 Wychwood Gardens ,OX16 9QN,Banbury ,Oxfordshire England,07733 224 510,01295 255 483,NA,,NA,NA,Warehousing & Storage,NA,Building Contractors,NA,NA,NA,NA,NA,NA,NA,https://api.scraperapi.com/?url=https%3A%2F%2Fbanbury.cylex-uk.co.uk%2Fcompany%2Fkeith-edwards-19910867.html&api_key=adc3d866682a18dad67c04d3bcbc7f1c&scraper_sdk=python
WHEELIE SERIOUS LTD,16 Yaverland Drive,GU19 5DX,Bagshot ,Surrey England,07980 658749,NA,NA,www.wheelieserious.co.uk,NA,NA,NA,NA,NA,11:30 - 21:30,11:30 - 21:30,09:00 - 21:30,Closed,11:30 - 21:30,11:30 - 21:30,11:30 - 21:30,https://api.scraperapi.com/?url=https%3A%2F%2Fbagshot.cylex-uk.co.uk%2Fcompany%2Fwheelie-serious-ltd-25989070.html&api_key=adc3d866682a18dad67c04d3bcbc7f1c&scraper_sdk=python
The Ascot Group,43 Yaverland Dr ,GU19 5DX,Bagshot ,Surrey England,07914 954094,NA,NA,,NA,NA,NA,NA,NA,09:00 - 17:00,09:00 - 17:00,Closed,Closed,09:00 - 17:00,09:00 - 17:00,09:00 - 17:00,https://api.scraperapi.com/?url=https%3A%2F%2Fbagshot.cylex-uk.co.uk%2Fcompany%2Fthe-ascot-group-26626908.html&api_key=adc3d866682a18dad67c04d3bcbc7f1c&scraper_sdk=python
Parish Church of St Aidan Bamburgh,The Vicarage ,NE69 7DB,Bamburgh ,Northumberland England,01668 214748,NA,NA,www.staidan-bamburgh.co.uk,NA,NA,"Church, Religion, Faith, Northumberland, Parish, Forsters, Grace Darling, St Aidans",NA,NA,NA,NA,NA,NA,NA,NA,NA,https://api.scraperapi.com/?url=https%3A%2F%2Fbamburgh.cylex-uk.co.uk%2Fcompany%2Fparish-church-of-st-aidan-bamburgh-19322849.html&api_key=adc3d866682a18dad67c04d3bcbc7f1c&scraper_sdk=python
N.d Berry & Sons,"41, Tullyraine Road ",BT32 4PR,Banbridge ,Down Northern Ireland,028 4066 2767,NA,NA,,NA,NA,Agricultural Services,NA,NA,NA,NA,NA,NA,NA,NA,NA,https://api.scraperapi.com/?url=https%3A%2F%2Fbanbridge.cylex-uk.co.uk%2Fcompany%2Fn-d-berry---sons-13463387.html&api_key=adc3d866682a18dad67c04d3bcbc7f1c&scraper_sdk=python
Bamburgh Cottages,39 The Wynding ,NE69 7DD,Bamburgh ,Northumberland England,0191 266 2800,07973 108553,NA,www.bamburgh-cottages.co.uk,NA,NA,NA,NA,NA,NA,NA,NA,NA,NA,NA,NA,https://api.scraperapi.com/?url=https%3A%2F%2Fbamburgh.cylex-uk.co.uk%2Fcompany%2Fbamburgh-cottages-27156278.html&api_key=adc3d866682a18dad67c04d3bcbc7f1c&scraper_sdk=python
Bamburgh Cottage Holidays,"Pepperclose Cottage, 18 The Wynding ",NE69 7DB,Bamburgh ,Northumberland England,07846 226631,NA,NA,www.bamburghcottageholidays.co.uk/index.cfm,NA,Self-catering Holiday Accommodation,"Real Estate, Hotel, Hotel & Lodging, Beach",NA,NA,08:00 - 18:00,08:00 - 18:00,08:00 - 18:00,08:00 - 18:00,08:00 - 18:00,08:00 - 18:00,08:00 - 18:00,https://api.scraperapi.com/?url=https%3A%2F%2Fbamburgh.cylex-uk.co.uk%2Fcompany%2Fbamburgh-cottage-holidays-25778779.html&api_key=adc3d866682a18dad67c04d3bcbc7f1c&scraper_sdk=python
Apple Rock Ltd,6 ASH TREE ROAD ,AB31 5JB,Banchory ,Aberdeenshire Scotland,NA,NA,NA,,NA,NA,"Accountants, Auditing",NA,NA,NA,NA,NA,NA,NA,NA,NA,https://api.scraperapi.com/?url=https%3A%2F%2Fbanchory.cylex-uk.co.uk%2Fcompany%2Fapple-rock-ltd-21039309.html&api_key=adc3d866682a18dad67c04d3bcbc7f1c&scraper_sdk=python
Banchory School Of Motoring,"TIGHNABRUAICH, ARBEADIE TER ",AB31 5TN,Banchory ,Aberdeenshire Scotland,01330 823088,NA,NA,,NA,"Driving Lessons, Driver Training",Road Regulations,NA,"Driving Schools, Driving School Instructor",NA,NA,NA,NA,NA,NA,NA,https://api.scraperapi.com/?url=https%3A%2F%2Fbanchory.cylex-uk.co.uk%2Fcompany%2Fbanchory-school-of-motoring-17084007.html&api_key=adc3d866682a18dad67c04d3bcbc7f1c&scraper_sdk=python
Mactaggart & Dallas,"TIGH-NA-BRUICH, ARBEADIE TER ",AB31 5TN,Banchory ,Aberdeenshire Scotland,01330822550,01330 825656,NA,,NA,NA,Quantity Surveyors,NA,Building Surveyors,NA,NA,NA,NA,NA,NA,NA,https://api.scraperapi.com/?url=https%3A%2F%2Fbanchory.cylex-uk.co.uk%2Fcompany%2Fmactaggart---dallas-17141246.html&api_key=adc3d866682a18dad67c04d3bcbc7f1c&scraper_sdk=python
John Henderson,5A Arbeadie Tce ,AB31 5TN,Banchory ,Aberdeenshire Scotland,01330 824821,01330 820604,NA,,NA,NA,NA,NA,NA,NA,NA,NA,NA,NA,NA,NA,https://api.scraperapi.com/?url=https%3A%2F%2Fbanchory.cylex-uk.co.uk%2Fcompany%2Fjohn-henderson-17115630.html&api_key=adc3d866682a18dad67c04d3bcbc7f1c&scraper_sdk=python
Structural Steel Draughting Ltd,1 Arbeadie Terrace ,AB31 5TN,Banchory ,Aberdeenshire Scotland,01330 820888,01330 824811,NA,,NA,NA,NA,NA,NA,NA,NA,NA,NA,NA,NA,NA,https://api.scraperapi.com/?url=https%3A%2F%2Fbanchory.cylex-uk.co.uk%2Fcompany%2Fstructural-steel-draughting-ltd-17173229.html&api_key=adc3d866682a18dad67c04d3bcbc7f1c&scraper_sdk=python
Tully More Timber Products Ltd,39 Tullymore Rd ,BT32 3PF,Banbridge ,Down Northern Ireland,07743 645487,NA,NA,,NA,NA,NA,NA,NA,NA,NA,NA,NA,NA,NA,NA,https://api.scraperapi.com/?url=https%3A%2F%2Fbanbridge.cylex-uk.co.uk%2Fcompany%2Ftully-more-timber-products-ltd-26861720.html&api_key=adc3d866682a18dad67c04d3bcbc7f1c&scraper_sdk=python
Banchory Cycles,1 Arbeadie Terrace ,AB31 5TN,Banchory ,Aberdeenshire Scotland,01330 820011,NA,NA,www.banchorycycles.com,NA,NA,"Cycle Shops, Cycle Shops & Repairs",NA,NA,09:00 - 17:00,09:00 - 17:00,09:00 - 17:00,Closed,09:00 - 17:00,09:00 - 17:00,09:00 - 17:00,https://api.scraperapi.com/?url=https%3A%2F%2Fbanchory.cylex-uk.co.uk%2Fcompany%2Fbanchory-cycles-19900149.html&api_key=adc3d866682a18dad67c04d3bcbc7f1c&scraper_sdk=python
Z K H Builders,Dental 5A Arbeadie Terrace ,AB31 5TN,Banchory ,Aberdeenshire Scotland,01330 824821,NA,NA,,NA,Building Services,NA,NA,NA,NA,NA,NA,NA,NA,NA,NA,https://api.scraperapi.com/?url=https%3A%2F%2Fbanchory.cylex-uk.co.uk%2Fcompany%2Fz-k-h-builders-18648104.html&api_key=adc3d866682a18dad67c04d3bcbc7f1c&scraper_sdk=python
J.a Merchant,Arbeadie Rd ,AB31 5XA,Banchory ,Aberdeenshire Scotland,01330 822883,NA,NA,,NA,NA,NA,NA,"House Builders, Building Companies, Builders",NA,NA,NA,NA,NA,NA,NA,https://api.scraperapi.com/?url=https%3A%2F%2Fbanchory.cylex-uk.co.uk%2Fcompany%2Fj-a-merchant-17042148.html&api_key=adc3d866682a18dad67c04d3bcbc7f1c&scraper_sdk=python
Stephens Plumbing Services,3 HILL STREET. ,CF82 7AU,Ystrad Mynach ,Caerphilly Wales,01443 812582,NA,NA,,NA,Plumbing & Heating Services,Plumbing Heating and Air Conditioning Contractors,NA,"Plumbing Contractors, Heating Contractors, Air Conditioning Contractors",NA,NA,NA,NA,NA,NA,NA,https://api.scraperapi.com/?url=https%3A%2F%2Fystrad-mynach.cylex-uk.co.uk%2Fcompany%2Fstephens-plumbing-services-14631410.html&api_key=adc3d866682a18dad67c04d3bcbc7f1c&scraper_sdk=python
J Shannon,25 TULLYMORE ROAD ,BT32 3PF,Banbridge ,Down Northern Ireland,028 3831 8285,NA,NA,,NA,NA,"Wood Products, Wood Gifts, Dairy Farms, Dairy Farming",NA,NA,NA,NA,NA,NA,NA,NA,NA,https://api.scraperapi.com/?url=https%3A%2F%2Fbanbridge.cylex-uk.co.uk%2Fcompany%2Fj-shannon-12844326.html&api_key=adc3d866682a18dad67c04d3bcbc7f1c&scraper_sdk=python
Future Training & Consulting Ltd,51 BUARTH Y CAPEL ,CF37 3NY,Ynysybwl ,Rhondda Cynon Taf Wales,01443 799067,NA,NA,,NA,NA,"Educational Services, Training Courses, Adult Education",NA,NA,NA,NA,NA,NA,NA,NA,NA,https://api.scraperapi.com/?url=https%3A%2F%2Fynysybwl.cylex-uk.co.uk%2Fcompany%2Ffuture-training---consulting-ltd-21361853.html&api_key=adc3d866682a18dad67c04d3bcbc7f1c&scraper_sdk=python
Mothers Of Africa,"UHW MAIN BUILDING, HEATH PARK",CF14 4XN,Cardiff ,Cardiff Wales,029 2074 3110,07563 709440,NA,mothersofafrica.care,NA,NA,Volunteering Opportunities,NA,NA,NA,NA,NA,NA,NA,NA,NA,https://api.scraperapi.com/?url=https%3A%2F%2Fcardiff.cylex-uk.co.uk%2Fcompany%2Fmothers-of-africa-19677479.html&api_key=adc3d866682a18dad67c04d3bcbc7f1c&scraper_sdk=python
Rhondda Animal Aid,"BRYNIFOR, 6, CHURCH TERRACE ",CF40 1RW,Penrhiwfer ,Rhondda Cynon Taf Wales,01443 437709,01886 821 106,NA,,NA,NA,"Animal Welfare, Animal Welfare Organisations, Organisations, Welfare",NA,NA,NA,NA,NA,NA,NA,NA,NA,https://api.scraperapi.com/?url=https%3A%2F%2Fpenrhiwfer.cylex-uk.co.uk%2Fcompany%2Frhondda-animal-aid-13658752.html&api_key=adc3d866682a18dad67c04d3bcbc7f1c&scraper_sdk=python
Torfaen Libraries Headquarters,COUNTY HALL,NP44 2WN,Croesyceiliog ,Monmouthshire Wales,01633 628 941,01633 648 164,NA,www.torfaen.gov.uk/intro-splash.aspx,NA,NA,"Animal Welfare, Social Services, Building Control, Business Rates, Street Cleaning, Commercial Waste, Environment Planning",NA,NA,NA,NA,NA,NA,NA,NA,NA,https://api.scraperapi.com/?url=https%3A%2F%2Fcroesyceiliog-monmouthshire.cylex-uk.co.uk%2Fcompany%2Ftorfaen-libraries-headquarters-20004130.html&api_key=adc3d866682a18dad67c04d3bcbc7f1c&scraper_sdk=python
Totten Ltd,"4 BRYNGWENNOL, THE RISE LLANBRADACH ",CF83 3PR,Llanbradach ,Caerphilly Wales,NA,NA,NA,,NA,NA,NA,NA,Dormant Companies,NA,NA,NA,NA,NA,NA,NA,https://api.scraperapi.com/?url=https%3A%2F%2Fllanbradach.cylex-uk.co.uk%2Fcompany%2Ftotten-ltd-20892297.html&api_key=adc3d866682a18dad67c04d3bcbc7f1c&scraper_sdk=python
Action for Children,"The Mount, 3A Mountain Road ",CF83 1HG,Caerphilly ,Caerphilly Wales,029 2084 9230,NA,NA,www.actionforchildren.org.uk,NA,Early years and family support,"Adoption, Fostering",NA,NA,NA,NA,NA,NA,NA,NA,NA,https://api.scraperapi.com/?url=https%3A%2F%2Fcaerphilly.cylex-uk.co.uk%2Fcompany%2Faction-for-children-26349173.html&api_key=adc3d866682a18dad67c04d3bcbc7f1c&scraper_sdk=python
D Thomas Accountancy Service,14 ROYCE CLOSE ,CF82 8HN,Penpedairheol ,Caerphilly Wales,01443 879720,NA,NA,www.accountancyservice.co.uk,NA,"accounts preparation, tax returns, vat returns, capital gains tax, company accounts, income tax, sole traders, personal tax, tax, tax refunds","Accountants, Accounting, Bookkeeping, Accountancy, Account Preparation, Financial Services, Auditors, Tax Return, Tax Experts, VAT Return, Personal Tax Services, Tax Refund, Company Account",NA,NA,09:00 - 16:30,09:00 - 16:30,09:00 - 16:30,Closed,09:00 - 16:30,09:00 - 16:30,09:00 - 16:30,https://api.scraperapi.com/?url=https%3A%2F%2Fpenpedairheol.cylex-uk.co.uk%2Fcompany%2Fd-thomas-accountancy-service-14311555.html&api_key=adc3d866682a18dad67c04d3bcbc7f1c&scraper_sdk=python
Eye For Finance,6 CAE COLLEN ,NP12 1FF,Blackwood ,Caerphilly Wales,07784 691 677,NA,NA,eyeforfinance.co.uk,NA,NA,Accountants,NA,NA,NA,NA,NA,NA,NA,NA,NA,https://api.scraperapi.com/?url=https%3A%2F%2Fblackwood.cylex-uk.co.uk%2Fcompany%2Feye-for-finance-20040866.html&api_key=adc3d866682a18dad67c04d3bcbc7f1c&scraper_sdk=python
MAKE IT STICKY LIMITED,"TASSAGH, HEOL Y COED ",NP12 2NH,Wyllie ,Caerphilly Wales,029 2000 3233,NA,NA,makeitsticky.co.uk,NA,NA,NA,NA,NA,09:00 - 17:30,09:00 - 17:30,Closed,Closed,09:00 - 17:30,09:00 - 17:30,09:00 - 17:30,https://api.scraperapi.com/?url=https%3A%2F%2Fwyllie.cylex-uk.co.uk%2Fcompany%2Fmake-it-sticky-limited-22899550.html&api_key=adc3d866682a18dad67c04d3bcbc7f1c&scraper_sdk=python
Caerphilly County Borough Council,"OLD SCHOOL, MILL ROAD ",CF83 3FD,Caerphilly ,Caerphilly Wales,01443 815588,NA,NA,www.caerphilly.gov.uk,NA,NA,"Council, Council Tax, Community Safety, Council Tax Benefit, Family Placement, County Borough Council, Business Support, Social Services, Social Care, Building Control, Permits, Fostering, Environmental Health, Adoption, Government, Housing, Animal Welfare, Licences, Street Trading",NA,NA,08:30 - 17:00,08:30 - 16:30,Closed,Closed,08:30 - 17:00,08:30 - 17:00,08:30 - 17:00,https://api.scraperapi.com/?url=https%3A%2F%2Fcaerphilly.cylex-uk.co.uk%2Fcompany%2Fcaerphilly-county-borough-council-17866830.html&api_key=adc3d866682a18dad67c04d3bcbc7f1c&scraper_sdk=python
Foster Care Associates Abercynon,Navigation Park ,CF45 4SN,Abercynon ,Rhondda Cynon Taf Wales,01443 741817,NA,NA,www.thefca.co.uk,NA,"social care services, children care, Childcare","Social Care, Care Associates",NA,NA,NA,NA,NA,NA,NA,NA,NA,https://api.scraperapi.com/?url=https%3A%2F%2Fabercynon.cylex-uk.co.uk%2Fcompany%2Ffoster-care-associates-abercynon-25753929.html&api_key=adc3d866682a18dad67c04d3bcbc7f1c&scraper_sdk=python
Blackwood Working Mens Club,10 Woodbine Road ,NP12 1QJ,Blackwood ,Caerphilly Wales,01495 223298,NA,NA,,NA,Entertainment,"Social Club, Social Clubs & Associations, Leisure, Pubs, Sports, Bars, Associations, Social Services, Leisure Cultural, Club, Clubs & Associations, Night Clubs",NA,NA,16:00 - 24:00,14:00 - 24:00,12:00 - 24:00,11:30 - 24:00,16:00 - 24:00,16:00 - 24:00,16:00 - 24:00,https://api.scraperapi.com/?url=https%3A%2F%2Fblackwood.cylex-uk.co.uk%2Fcompany%2Fblackwood-working-mens-club-15572280.html&api_key=adc3d866682a18dad67c04d3bcbc7f1c&scraper_sdk=python
Action for Children,Cwrt Llanfabon,F83 2WP,Energlyn ,,029 2086 7447,NA,NA,www.actionforchildren.org.uk,NA,Children's centre,"Adoption, Fostering",NA,NA,NA,NA,NA,NA,NA,NA,NA,https://api.scraperapi.com/?url=https%3A%2F%2Fenerglyn.cylex-uk.co.uk%2Fcompany%2Faction-for-children-25813993.html&api_key=adc3d866682a18dad67c04d3bcbc7f1c&scraper_sdk=python
Barnardo's Bargoed,59 Hanbury Road ,CF81 8QX,Bargoed ,Caerphilly Wales,01443 837136,NA,NA,www.barnardos.org.uk,"Birthday Cards, Everyday Cards, Everyday Wrapping, General Cards, Occasion Cards","Family placement, Fostering and adoption services, Domestic violence support","Charities, Fostering Agencies, Child Adoption",NA,NA,09:00 - 17:00,09:00 - 17:00,09:00 - 17:00,Closed,09:00 - 17:00,09:00 - 17:00,09:00 - 17:00,https://api.scraperapi.com/?url=https%3A%2F%2Fbargoed.cylex-uk.co.uk%2Fcompany%2Fbarnardo%2527s-bargoed-15695238.html&api_key=adc3d866682a18dad67c04d3bcbc7f1c&scraper_sdk=python
Caerphilly County Borough Council,"AVENUE HOUSE, KING EDWARD AVENUE ",CF83 1HE,Caerphilly ,Caerphilly Wales,01443 815588,NA,NA,www.caerphilly.gov.uk,NA,NA,"Council, Council Tax, Community Safety, Council Tax Benefit, Family Placement, County Borough Council, Business Support, Social Services, Social Care, Building Control, Permits, Fostering, Environmental Health, Adoption, Government, Housing, Animal Welfare, Licences, Street Trading",NA,NA,08:30 - 17:00,08:30 - 16:30,Closed,Closed,08:30 - 17:00,08:30 - 17:00,08:30 - 17:00,https://api.scraperapi.com/?url=https%3A%2F%2Fcaerphilly.cylex-uk.co.uk%2Fcompany%2Fcaerphilly-county-borough-council-17866813.html&api_key=adc3d866682a18dad67c04d3bcbc7f1c&scraper_sdk=python
Caerphilly County Borough Council,"2 TIR-Y-BERTH INDUSTRIAL ESTATE, NEW ROAD ",CF82 8AU,Tir-Y-Berth ,Caerphilly Wales,01443 815588,NA,NA,www.caerphilly.gov.uk,NA,NA,"Council, Council Tax, Community Safety, Council Tax Benefit, Family Placement, County Borough Council, Business Support, Social Services, Social Care, Building Control, Permits, Fostering, Environmental Health, Adoption, Government, Housing, Animal Welfare, Licences, Street Trading",NA,NA,08:30 - 17:00,08:30 - 16:30,Closed,Closed,08:30 - 17:00,08:30 - 17:00,08:30 - 17:00,https://api.scraperapi.com/?url=https%3A%2F%2Ftir-y-berth.cylex-uk.co.uk%2Fcompany%2Fcaerphilly-county-borough-council-17866823.html&api_key=adc3d866682a18dad67c04d3bcbc7f1c&scraper_sdk=python
Ali Max Motor Sport,HIGH STREET ,CF82 7BB,Ystrad Mynach ,Caerphilly Wales,01443 816929,01443 816929,NA,,Motorbikes,Motor Racing,"Karting and Motor Sports, Motorsport",NA,NA,NA,NA,NA,NA,NA,NA,NA,https://api.scraperapi.com/?url=https%3A%2F%2Fystrad-mynach.cylex-uk.co.uk%2Fcompany%2Fali-max-motor-sport-15615213.html&api_key=adc3d866682a18dad67c04d3bcbc7f1c&scraper_sdk=python
Ystrad Mynach Library,39 High St ,CF82 7BB,Ystrad Mynach ,Caerphilly Wales,01443 812988,01443 862711,NA,www.caerphilly.gov.uk,"Library Books, Books, Literature",NA,"Library, Books for Sale, Council, Novel, County Borough Council",NA,NA,09:30 - 13:00,09:30 - 18:00,09:30 - 13:00,Closed,09:30 - 17:00,09:30 - 18:00,09:30 - 17:00,https://api.scraperapi.com/?url=https%3A%2F%2Fystrad-mynach.cylex-uk.co.uk%2Fcompany%2Fystrad-mynach-library-13929113.html&api_key=adc3d866682a18dad67c04d3bcbc7f1c&scraper_sdk=python
ANDREW ROBERTS ACCOUNTING SERVICES LIMITED,15 Burnet Drive ,NP12 2FN,Pontllanfraith ,Caerphilly Wales,NA,NA,NA,,NA,NA,"Accountants, Bookkeeper, Auditing",NA,NA,NA,NA,NA,NA,NA,NA,NA,https://api.scraperapi.com/?url=https%3A%2F%2Fpontllanfraith.cylex-uk.co.uk%2Fcompany%2Fandrew-roberts-accounting-services-limited-24043449.html&api_key=adc3d866682a18dad67c04d3bcbc7f1c&scraper_sdk=python
A P T Windows,High Street ,CF82 7BB,Ystrad Mynach ,Caerphilly Wales,01443 812004,07745 630705,01443 819116,,"Casement Windows, Conservatories, Doors, French Doors, French Windows, Patio Doors, Victorian Conservatory, Windows, Victorian Conservatories","pvc windows manufacturing, pvc doors fitting",NA,NA,Double Glazing Manufacturers,08:00 - 17:00,08:00 - 17:00,Closed,Closed,08:00 - 17:00,08:00 - 17:00,08:00 - 17:00,https://api.scraperapi.com/?url=https%3A%2F%2Fystrad-mynach.cylex-uk.co.uk%2Fcompany%2Fa-p-t-windows-15550267.html&api_key=adc3d866682a18dad67c04d3bcbc7f1c&scraper_sdk=python
Barnardo's Blackwood,Unit 1B Blackwood Retail Park,NP12 0NT,Blackwood ,Caerphilly Wales,01495 221655,NA,NA,www.barnardos.org.uk,NA,"Family placement, adoption services, Domestic violence support","Charities, Adoption, Fostering Agencies, Child Adoption",NA,NA,09:00 - 18:00,09:00 - 18:00,09:00 - 18:00,10:00 - 16:00,09:00 - 18:00,09:00 - 18:00,09:00 - 18:00,https://api.scraperapi.com/?url=https%3A%2F%2Fblackwood.cylex-uk.co.uk%2Fcompany%2Fbarnardo%2527s-blackwood-23811677.html&api_key=adc3d866682a18dad67c04d3bcbc7f1c&scraper_sdk=python
Barnardo's Blackwood,86 High Street ,NP12 1AE,Blackwood ,Caerphilly Wales,01495 229100,NA,NA,www.barnardos.org.uk,"Birthday Cards, Everyday Cards, Everyday Wrapping, General Cards, Occasion Cards","Family placement, Fostering and adoption services, Domestic violence support","Charities, Fostering Agencies, Child Adoption",NA,NA,09:00 - 17:30,09:00 - 17:30,09:00 - 17:30,Closed,09:00 - 17:30,09:00 - 17:30,09:00 - 17:30,https://api.scraperapi.com/?url=https%3A%2F%2Fblackwood.cylex-uk.co.uk%2Fcompany%2Fbarnardo%2527s-blackwood-15694964.html&api_key=adc3d866682a18dad67c04d3bcbc7f1c&scraper_sdk=python
C.a. Mortgage Services Ltd,8 CLOS Y GORON,NP12 2HZ,Blackwood ,Caerphilly Wales,01443 866303,07780 925185,NA,,NA,NA,"Financial Services, Mortgages, First Time Buyer",NA,NA,08:00 - 20:00,08:00 - 20:00,08:00 - 20:00,08:00 - 20:00,08:00 - 20:00,08:00 - 20:00,08:00 - 20:00,https://api.scraperapi.com/?url=https%3A%2F%2Fblackwood.cylex-uk.co.uk%2Fcompany%2Fc-a--mortgage-services-ltd-18862905.html&api_key=adc3d866682a18dad67c04d3bcbc7f1c&scraper_sdk=python
Barclays Bank PLC,27 Bedwlwyn Road ,CF82 7AA,Ystrad Mynach ,Caerphilly Wales,0845 755 5555,0345 734 5345,NA,www.barclays.co.uk,NA,"Barclays Bank Account, Barclays Personalised Card, Car Insurance, Credit cards, Home insurance, Instant Cash ISA, Life Insurance, Personal loans, Travel Insurance","Financial Services, Bank, Credit Card",NA,NA,09:30 - 16:30,09:30 - 16:30,Closed,Closed,09:30 - 16:30,09:30 - 16:30,09:30 - 16:30,https://api.scraperapi.com/?url=https%3A%2F%2Fystrad-mynach.cylex-uk.co.uk%2Fcompany%2Fbarclays-bank-plc-13505158.html&api_key=adc3d866682a18dad67c04d3bcbc7f1c&scraper_sdk=python
Jual Limited,3 GELLIDEG LANE ,CF82 7SD,Maesycwmmer ,Caerphilly Wales,NA,NA,NA,,NA,NA,NA,NA,Dormant Companies,NA,NA,NA,NA,NA,NA,NA,https://api.scraperapi.com/?url=https%3A%2F%2Fmaesycwmmer.cylex-uk.co.uk%2Fcompany%2Fjual-limited-22605575.html&api_key=adc3d866682a18dad67c04d3bcbc7f1c&scraper_sdk=python
Rily Accountancy and Business Solutions Limited,"RILY HOUSE, 55, STRYD HYWEL, HARRIS ",CF82 7DN,Ystrad Mynach ,Caerphilly Wales,NA,NA,NA,,NA,NA,"Accountants, Accounting, Management Consultants, Financial Management, Business Consultants, Auditing",NA,NA,NA,NA,NA,NA,NA,NA,NA,https://api.scraperapi.com/?url=https%3A%2F%2Fystrad-mynach.cylex-uk.co.uk%2Fcompany%2Frily-accountancy-and-business-solutions-limited-22800833.html&api_key=adc3d866682a18dad67c04d3bcbc7f1c&scraper_sdk=python
Georgina Anne Training Enterprises Limited,"OFFICE NO 1 THE BUSINESS CENTRE WAUN BORFA ROAD, CEFN FFOREST ",NP12 3RJ,Fleur De Lis ,Caerphilly Wales,NA,NA,NA,,NA,NA,NA,NA,Dormant Companies,NA,NA,NA,NA,NA,NA,NA,https://api.scraperapi.com/?url=https%3A%2F%2Ffleur-de-lis.cylex-uk.co.uk%2Fcompany%2Fgeorgina-anne-training-enterprises-limited-21376978.html&api_key=adc3d866682a18dad67c04d3bcbc7f1c&scraper_sdk=python
Caerphilly County Borough Council,NEW ROAD,CF82 8NR,Hengoed ,Caerphilly Wales,01443 815588,07919 627303,01443 873778,www.caerphilly.gov.uk,NA,"Waste Collection, Waste Disposal, Recycling, Street Cleansing","Health Improvement, Urban Renewal, Family Placement, County Borough Council, Social Services, Social Care, Council Tax, Trading Standards, Council Tax Benefit, Fostering, Permits, Development Control, Adoption, Environmental Health, Business Support, Government, Housing, Council, Cemetery, Animal Welfare, Bereavement, Building Control, Community Safety, Licensing, Emergency Planning, Licences, Street Trading",NA,NA,08:30 - 17:00,08:30 - 16:30,Closed,Closed,08:30 - 17:00,08:30 - 17:00,08:30 - 17:00,https://api.scraperapi.com/?url=https%3A%2F%2Fhengoed.cylex-uk.co.uk%2Fcompany%2Fcaerphilly-county-borough-council-17866837.html&api_key=adc3d866682a18dad67c04d3bcbc7f1c&scraper_sdk=python
Brian Hancock Assembly Member,"4, COMMERCIAL HOUSE, COMMERCIAL STREET, , BLACKWOOD ",NP12 2JY,Pontllanfraith ,Caerphilly Wales,01495 227558,01495 231160,NA,,NA,NA,"Political Parties, Party, Government Politics, Political",NA,NA,NA,NA,NA,NA,NA,NA,NA,https://api.scraperapi.com/?url=https%3A%2F%2Fpontllanfraith.cylex-uk.co.uk%2Fcompany%2Fbrian-hancock-assembly-member-14247160.html&api_key=adc3d866682a18dad67c04d3bcbc7f1c&scraper_sdk=python
Peter Kitchin,"FAIRVIEW, HEATHLANDS ",CF82 7AZ,Ystrad Mynach ,Caerphilly Wales,01443 815968,NA,NA,,NA,NA,"Accountants, Accounting, Bookkeeping, Accountancy, Financial Services, Financial, Tax",NA,NA,NA,NA,NA,NA,NA,NA,NA,https://api.scraperapi.com/?url=https%3A%2F%2Fystrad-mynach.cylex-uk.co.uk%2Fcompany%2Fpeter-kitchin-17274677.html&api_key=adc3d866682a18dad67c04d3bcbc7f1c&scraper_sdk=python
Alan J Jenner,6 Bedwlwyn Close ,CF82 7BA,Ystrad Mynach ,Caerphilly Wales,01443 813403,01443 813403,NA,,NA,NA,"Accountants, Accounting, Bookkeeping, Accountancy, Financial Services",NA,NA,NA,NA,NA,NA,NA,NA,NA,https://api.scraperapi.com/?url=https%3A%2F%2Fystrad-mynach.cylex-uk.co.uk%2Fcompany%2Falan-j-jenner-13120292.html&api_key=adc3d866682a18dad67c04d3bcbc7f1c&scraper_sdk=python
Quicktaxrebates,PO BOX 117,CF82 9AZ,Hengoed ,Caerphilly Wales,01443879720,NA,NA,,NA,NA,"Accountants, Tax Advisor, Income Tax, Self Assessment Tax Return, Tax Refund, Tax Rebate, Tax, Industry, Cis, Subcontractors, Cis Tax Refund",NA,Construction Companies,NA,NA,NA,NA,NA,NA,NA,https://api.scraperapi.com/?url=https%3A%2F%2Fhengoed.cylex-uk.co.uk%2Fcompany%2Fquicktaxrebates-17779768.html&api_key=adc3d866682a18dad67c04d3bcbc7f1c&scraper_sdk=python
Fairview Labour Club,Cross Road Fairview ,NP12 3NS,Blackwood ,Caerphilly Wales,01443 830 435,NA,NA,,NA,NA,Club,NA,NA,NA,NA,NA,NA,NA,NA,NA,https://api.scraperapi.com/?url=https%3A%2F%2Fblackwood.cylex-uk.co.uk%2Fcompany%2Ffairview-labour-club-19920171.html&api_key=adc3d866682a18dad67c04d3bcbc7f1c&scraper_sdk=python
OAKMAIN PROPERTIES HOLDINGS LIMITED,1 East Road ,CF82 7SU,Penallta Industrial Estate ,Caerphilly Wales,01443 810510,NA,NA,www.oakmain.co.uk,NA,NA,Membership Organisations,NA,NA,07:30 - 17:30,07:30 - 17:30,08:00 - 12:00,Closed,07:30 - 17:30,07:30 - 17:30,07:30 - 17:30,https://api.scraperapi.com/?url=https%3A%2F%2Fpenallta-industrial-estate.cylex-uk.co.uk%2Fcompany%2Foakmain-properties-holdings-limited-24845520.html&api_key=adc3d866682a18dad67c04d3bcbc7f1c&scraper_sdk=python
Lindsay Constitutional Club,GELLIGAER ROAD ,CF82 7HL,Cefn Hengoed ,Caerphilly Wales,01443 814116,01443 812161,NA,,NA,Entertainment,"Social Club, Social Clubs & Associations, Leisure, Pubs, Sports, Bars, Associations, Social Services, Leisure Cultural, Clubs & Associations, Night Clubs",NA,NA,NA,NA,NA,NA,NA,NA,NA,https://api.scraperapi.com/?url=https%3A%2F%2Fcefn-hengoed.cylex-uk.co.uk%2Fcompany%2Flindsay-constitutional-club-14465098.html&api_key=adc3d866682a18dad67c04d3bcbc7f1c&scraper_sdk=python
Air Training Corps,14 VALE VIEW ,CF82 7PW,Maesycwmmer ,Caerphilly Wales,01443 812594,NA,NA,,NA,NA,"Youth Organisations, Youth Centre, Centres, Voluntary, Youth Organisations & Centres",NA,NA,NA,NA,NA,NA,NA,NA,NA,https://api.scraperapi.com/?url=https%3A%2F%2Fmaesycwmmer.cylex-uk.co.uk%2Fcompany%2Fair-training-corps-15561166.html&api_key=adc3d866682a18dad67c04d3bcbc7f1c&scraper_sdk=python
Pontllanfraith Ex-Servicemans Club & Institute,"6, COMMERCIAL STREET, , BLACKWOOD ",NP12 2JY,Pontllanfraith ,Caerphilly Wales,01495 223101,01495 223101,NA,,NA,Entertainment,"Social Club, Social Clubs & Associations, Leisure, Pubs, Sports, Bars, Associations, Social Services, Leisure Cultural, Club, Clubs & Associations, Night Clubs",NA,NA,NA,NA,NA,NA,NA,NA,NA,https://api.scraperapi.com/?url=https%3A%2F%2Fpontllanfraith.cylex-uk.co.uk%2Fcompany%2Fpontllanfraith-ex-servicemans-club---institute-15674159.html&api_key=adc3d866682a18dad67c04d3bcbc7f1c&scraper_sdk=python
Hot - Therm UK Ltd,"UNIT 1 WEST ROAD, PENALLTA INDUSTRIAL ESTATE ",CF82 7QZ,Hengoed ,Caerphilly Wales,NA,NA,NA,,NA,NA,"Business Organisations, Non-Trading Company",NA,NA,NA,NA,NA,NA,NA,NA,NA,https://api.scraperapi.com/?url=https%3A%2F%2Fhengoed.cylex-uk.co.uk%2Fcompany%2Fhot---therm-uk-ltd-22561663.html&api_key=adc3d866682a18dad67c04d3bcbc7f1c&scraper_sdk=python
Hawkstage Limited,"Old Junction House Commercial Street, Pontllanfraith",NP12 2JY,Blackwood ,Caerphilly Wales,NA,NA,NA,,NA,NA,"Business Organisations, Non-Trading Company",NA,NA,NA,NA,NA,NA,NA,NA,NA,https://api.scraperapi.com/?url=https%3A%2F%2Fblackwood.cylex-uk.co.uk%2Fcompany%2Fhawkstage-limited-21421235.html&api_key=adc3d866682a18dad67c04d3bcbc7f1c&scraper_sdk=python
Rily Ltd,"RILY HOUSE, 55 STRYD HYWEL, HARRIS ",CF82 7DN,Ystrad Mynach ,Caerphilly Wales,NA,NA,NA,,NA,NA,"Estate Agents, Business Organisations, Real Estate, Consultancy, Head Office, Corporate Head Office Management",NA,NA,NA,NA,NA,NA,NA,NA,NA,https://api.scraperapi.com/?url=https%3A%2F%2Fystrad-mynach.cylex-uk.co.uk%2Fcompany%2Frily-ltd-22800834.html&api_key=adc3d866682a18dad67c04d3bcbc7f1c&scraper_sdk=python
Palace Bingo Club,BEDWLWYN ROAD ,CF82 7AA,Ystrad Mynach ,Caerphilly Wales,01443 814591,NA,NA,,NA,Entertainment,"Social Club, Social Clubs & Associations, Leisure, Sports, Associations, Social Services, Leisure Cultural, Club, Clubs & Associations",NA,NA,NA,NA,NA,NA,NA,NA,NA,https://api.scraperapi.com/?url=https%3A%2F%2Fystrad-mynach.cylex-uk.co.uk%2Fcompany%2Fpalace-bingo-club-15669232.html&api_key=adc3d866682a18dad67c04d3bcbc7f1c&scraper_sdk=python
Penallta Rugby Club,PENALLTA ROAD ,CF82 7GL,Ystrad Mynach ,Caerphilly Wales,01443 814066,NA,NA,,NA,NA,"Sports Club, Sports Association, Athletics Club, Sports Clubs and Associations, Associations",NA,NA,NA,NA,NA,NA,NA,NA,NA,https://api.scraperapi.com/?url=https%3A%2F%2Fystrad-mynach.cylex-uk.co.uk%2Fcompany%2Fpenallta-rugby-club-15671092.html&api_key=adc3d866682a18dad67c04d3bcbc7f1c&scraper_sdk=python
Ystrad Mynach Sports & Social Club,38 PENALLTA ROAD ,CF82 7AN,Ystrad Mynach ,Caerphilly Wales,01443 816814,NA,NA,,NA,Entertainment,"Social Club, Social Clubs & Associations, Leisure, Sports, Associations, Leisure Cultural, Club, Clubs & Associations",NA,NA,NA,NA,NA,NA,NA,NA,NA,https://api.scraperapi.com/?url=https%3A%2F%2Fystrad-mynach.cylex-uk.co.uk%2Fcompany%2Fystrad-mynach-sports---social-club-14727231.html&api_key=adc3d866682a18dad67c04d3bcbc7f1c&scraper_sdk=python
Ystrad Mynach Non-Political Club Ltd,23 BEDWLWYN ROAD ,CF82 7AA,Ystrad Mynach ,Caerphilly Wales,01443 814399,NA,NA,,NA,Entertainment,"Social Club, Social Clubs & Associations, Leisure, Pubs, Sports, Bars, Associations, Social Services, Leisure Cultural, Club, Clubs & Associations, Night Clubs",NA,NA,NA,NA,NA,NA,NA,NA,NA,https://api.scraperapi.com/?url=https%3A%2F%2Fystrad-mynach.cylex-uk.co.uk%2Fcompany%2Fystrad-mynach-non-political-club-ltd-14727230.html&api_key=adc3d866682a18dad67c04d3bcbc7f1c&scraper_sdk=python
Swan Rescue (South Wales),"20, HIGH CROSS DRIVE ",NP10 9AB,Rogerstone ,Newport Wales,01633 895241,01633 895241,NA,www.swanrescue.org.uk,NA,NA,"Animal Welfare, Animal Welfare Organisations, Animal Rights, Animal Welfare Society",NA,NA,NA,NA,NA,NA,NA,NA,NA,https://api.scraperapi.com/?url=https%3A%2F%2Frogerstone.cylex-uk.co.uk%2Fcompany%2Fswan-rescue--south-wales--15693972.html&api_key=adc3d866682a18dad67c04d3bcbc7f1c&scraper_sdk=python
The Royal Society for the Prevention of Cruelty to Animals (RSPCA) MERTHYR TYDFIL,The Willows,CF48 1YF,Merthyr Tydfil ,Merthyr Tydfil Wales,0300 123 0725,NA,NA,www.rspca.org.uk/home,NA,"Veterinary care, Animal rescue, Investigating cruelty",Animal Welfare Charity,NA,NA,09:00 - 17:00,09:00 - 17:00,Closed,Closed,09:00 - 17:00,09:00 - 17:00,09:00 - 17:00,https://api.scraperapi.com/?url=https%3A%2F%2Fmerthyr-tydfil.cylex-uk.co.uk%2Fcompany%2Fthe-royal-society-for-the-prevention-of-cruelty-to-animals--rspca--merthyr-tydfil-19094007.html&api_key=adc3d866682a18dad67c04d3bcbc7f1c&scraper_sdk=python
Disability CANDO,1 Bryn Ln ,NP12 2PG,Blackwood ,Caerphilly Wales,01495 233555,NA,NA,disabilitycando.business.site,NA,NA,"Charitable & Voluntary Organisations, Non-Profit Organisation, Charity Organizations, Other",NA,NA,09:00 - 17:00,09:00 - 14:30,Closed,Closed,09:00 - 17:00,09:00 - 17:00,09:00 - 17:00,https://api.scraperapi.com/?url=https%3A%2F%2Fblackwood.cylex-uk.co.uk%2Fcompany%2Fdisability-cando-23834056.html&api_key=adc3d866682a18dad67c04d3bcbc7f1c&scraper_sdk=python
Merthyr Netherland Rabbit Rescue,9 ARTHUR STREET ,CF48 4DG,Pentrebach ,Merthyr Tydfil Wales,01443 692542,NA,NA,,NA,NA,"Animal Welfare, Animal Welfare Organisations",NA,NA,NA,NA,NA,NA,NA,NA,NA,https://api.scraperapi.com/?url=https%3A%2F%2Fpentrebach-merthyr-tydfil.cylex-uk.co.uk%2Fcompany%2Fmerthyr-netherland-rabbit-rescue-15658954.html&api_key=adc3d866682a18dad67c04d3bcbc7f1c&scraper_sdk=python
Animal Health,66 TY GLAS ROAD,CF14 5ZB,Llanishen ,Cardiff Wales,029 2076 8555,029 2076 8520,NA,www.gov.uk/government/organisations/animal-health-and-veterinary-laboratories-agency,NA,Environmental Protection,"Animal Welfare, Animal Health, Environment, Government Politics, Horticulture, Farming Services, Pollution Control, Rural Development, Rural Affairs, Natural Environment, Rural Communities, Farming Industry",NA,NA,NA,NA,NA,NA,NA,NA,NA,https://api.scraperapi.com/?url=https%3A%2F%2Fllanishen.cylex-uk.co.uk%2Fcompany%2Fanimal-health-15692370.html&api_key=adc3d866682a18dad67c04d3bcbc7f1c&scraper_sdk=python
Fforest Uchaf Horse & Pony Centre,Fforest Uchaf Farm Maendy Road ,CF37 1PS,Penycoedcae ,Rhondda Cynon Taf Wales,01443 480327,01443 400110,NA,www.pitponies.co.uk,NA,Trips,"Coal, Animal Welfare Organisations, Animal Welfare Society, University, Farm, Horses, Animal, Welfare, Mining, Walking, Welsh, Valley, Ponies, Glamorgan, Mines, Lovers, Birthday Treats",NA,NA,NA,NA,NA,NA,NA,NA,NA,https://api.scraperapi.com/?url=https%3A%2F%2Fpenycoedcae.cylex-uk.co.uk%2Fcompany%2Ffforest-uchaf-horse---pony-centre-14359468.html&api_key=adc3d866682a18dad67c04d3bcbc7f1c&scraper_sdk=python
Beacon Life and Learning Centre,"VENTURE HOUSE, PARC NAVIGATION ",CF45 4SN,Abercynon ,Rhondda Cynon Taf Wales,NA,NA,NA,,NA,NA,"Volunteering Opportunities, Animal Sanctuary",NA,NA,NA,NA,NA,NA,NA,NA,NA,https://api.scraperapi.com/?url=https%3A%2F%2Fabercynon.cylex-uk.co.uk%2Fcompany%2Fbeacon-life-and-learning-centre-23015725.html&api_key=adc3d866682a18dad67c04d3bcbc7f1c&scraper_sdk=python
CENTRE FOR CITIZENSHIP ENTERPRISE AND GOVERNANCE LIMITED,Merthyr Vale,CF48 4RS,Merthyr Vale ,Merthyr Tydfil Wales,NA,NA,NA,,NA,NA,"Educational Services, Training Courses, Adult Education",NA,NA,NA,NA,NA,NA,NA,NA,NA,https://api.scraperapi.com/?url=https%3A%2F%2Fmerthyr-vale.cylex-uk.co.uk%2Fcompany%2Fcentre-for-citizenship-enterprise-and-governance-limited-24195653.html&api_key=adc3d866682a18dad67c04d3bcbc7f1c&scraper_sdk=python
Rt Training (South Wales) Ltd,"UNIT C, UPPER BOAT BUSINESS CENTRE ",CF37 5BP,Pontypridd ,Rhondda Cynon Taf Wales,NA,NA,NA,,NA,NA,"Educational Services, Training Courses, Adult Education",NA,NA,NA,NA,NA,NA,NA,NA,NA,https://api.scraperapi.com/?url=https%3A%2F%2Fpontypridd.cylex-uk.co.uk%2Fcompany%2Frt-training--south-wales--ltd-20764922.html&api_key=adc3d866682a18dad67c04d3bcbc7f1c&scraper_sdk=python
SUPERSTARS IN THE MAKING LIMITED,"Highdale House, 7 Centre Court Main Avenue ",CF37 5YR,Treforest Industrial Estate ,Rhondda Cynon Taf Wales,NA,NA,NA,www.superstarsinthemaking.com,NA,NA,"Educational Services, Training Courses, Adult Education",NA,NA,NA,NA,NA,NA,NA,NA,NA,https://api.scraperapi.com/?url=https%3A%2F%2Ftreforest-industrial-estate.cylex-uk.co.uk%2Fcompany%2Fsuperstars-in-the-making-limited-25701607.html&api_key=adc3d866682a18dad67c04d3bcbc7f1c&scraper_sdk=python
Caerphilly County Borough Council- Hengoed,DYFFRYN INDUSTRIAL ESTATE,CF82 7FP,Ystrad Mynach ,Caerphilly Wales,01443 863474,NA,NA,www.caerphilly.gov.uk,NA,NA,"Council, Council Tax, Community Safety, Council Tax Benefit, Family Placement, County Borough Council, Business Support, Social Services, Social Care, Building Control, Permits, Fostering, Environmental Health, Adoption, Government, Housing, Animal Welfare, Licences, Street Trading, Employee Services",NA,NA,NA,NA,NA,NA,NA,NA,NA,https://api.scraperapi.com/?url=https%3A%2F%2Fystrad-mynach.cylex-uk.co.uk%2Fcompany%2Fcaerphilly-county-borough-council--hengoed-17866820.html&api_key=adc3d866682a18dad67c04d3bcbc7f1c&scraper_sdk=python
Cardiff Chamber Of Commerce,"COUNCIL BUILDINGS, NELSON ROAD",CF82 7WF,Ystrad Mynach ,Caerphilly Wales,01443 866260,NA,NA,,NA,NA,"Trade Associations, Chamber of Commerce, Business Advice, Marketing, Sales, Commerce, Customers, Database, Trades, Accredited, Chambers, International Trade, Vale of Glamorgan, Merthyr, Rhondda Cynon Taff, Customer Database, New Customers",NA,NA,NA,NA,NA,NA,NA,NA,NA,https://api.scraperapi.com/?url=https%3A%2F%2Fystrad-mynach.cylex-uk.co.uk%2Fcompany%2Fcardiff-chamber-of-commerce-15771242.html&api_key=adc3d866682a18dad67c04d3bcbc7f1c&scraper_sdk=python
All Creatures Great & Small,"3A, Fairwater Cwmbran Charity Shop ",NP44 4TA,Fairwater ,Torfaen Wales,01633 872 388,NA,NA,www.allcreaturesgreatandsmall.org.uk,NA,NA,"Animal Charities, Animal Sanctuary",NA,NA,09:30 - 16:00,09:30 - 16:00,09:30 - 16:00,Closed,09:30 - 16:00,09:30 - 16:00,09:30 - 16:00,https://api.scraperapi.com/?url=https%3A%2F%2Ffairwater-torfaen.cylex-uk.co.uk%2Fcompany%2Fall-creatures-great---small-20004085.html&api_key=adc3d866682a18dad67c04d3bcbc7f1c&scraper_sdk=python
Caerphilly County Borough Council,"Tredomen Business & Technology Centre, Tredomen Business Park ",CF82 7FN,Ystrad Mynach ,Caerphilly Wales,01443 815588,01443 866222,01443 866200,,NA,"Waste Collection, Waste Disposal, Recycling, Street Cleansing","Health Improvement, Urban Renewal, Family Placement, County Borough Council, Social Services, Social Care, Council Tax, Community Regeneration, Trading Standards, Council Tax Benefit, Fostering, Permits, Development Control, Adoption, Environmental Health, Business Support, Government, Housing, Council, Cemetery, Animal Welfare, Bereavement, Building Control, Community Safety, Licensing, Emergency Planning, Licences, Street Trading",NA,NA,NA,NA,NA,NA,NA,NA,NA,https://api.scraperapi.com/?url=https%3A%2F%2Fystrad-mynach.cylex-uk.co.uk%2Fcompany%2Fcaerphilly-county-borough-council-17866841.html&api_key=adc3d866682a18dad67c04d3bcbc7f1c&scraper_sdk=python
THE YOUTH DEVELOPMENT AGENCY LTD,Britannia House Caerphilly Business Park ,CF83 3GG,Caerphilly ,Caerphilly Wales,07863 612627,NA,NA,theyouthdevelopmentagency.com,NA,NA,"Educational Services, Training Courses, Adult Education",NA,NA,09:00 - 17:00,09:00 - 17:00,Closed,09:00 - 17:00,09:00 - 17:00,09:00 - 17:00,09:00 - 17:00,https://api.scraperapi.com/?url=https%3A%2F%2Fcaerphilly.cylex-uk.co.uk%2Fcompany%2Fthe-youth-development-agency-ltd-25187094.html&api_key=adc3d866682a18dad67c04d3bcbc7f1c&scraper_sdk=python
Panda Education & Training Ltd,"Britannia House, Van Rd ",CF83 3GG,Caerphilly ,Caerphilly Wales,029 2167 9037,07932 500907,07540 595483,,NA,NA,"Education, Vocational Education, Management Training, Community Education, Regions, Employability Training",NA,NA,09:00 - 17:00,09:00 - 17:00,Closed,Closed,09:00 - 17:00,09:00 - 17:00,09:00 - 17:00,https://api.scraperapi.com/?url=https%3A%2F%2Fcaerphilly.cylex-uk.co.uk%2Fcompany%2Fpanda-education---training-ltd-23889328.html&api_key=adc3d866682a18dad67c04d3bcbc7f1c&scraper_sdk=python
CATERING TRAINING CONSULTANCY LIMITED,Mountain Ash,CF45 4SN,Abercynon ,Rhondda Cynon Taf Wales,NA,NA,NA,,NA,NA,"Educational Services, Training Courses, Adult Education",NA,NA,NA,NA,NA,NA,NA,NA,NA,https://api.scraperapi.com/?url=https%3A%2F%2Fabercynon.cylex-uk.co.uk%2Fcompany%2Fcatering-training-consultancy-limited-25466299.html&api_key=adc3d866682a18dad67c04d3bcbc7f1c&scraper_sdk=python
Caerphilly County Borough Council,"Tredomen House, Tredomen Park",CF82 7WF,Ystrad Mynach ,Caerphilly Wales,01443 866595,01443 863167,NA,www.caerphilly.gov.uk,NA,Wedding Planning,"Council, Council Tax, Community Safety, Council Tax Benefit, Arts Development, Family Placement, County Borough Council, Business Support, Social Services, Social Care, Public Services, Building Control, Permits, Fostering, Environmental Health, Community Education, Adoption, Local Business, Leisure, Government, Housing, Animal Welfare, Event Planners, Licences, Sports Development, Street Trading, School Improvement, Education Welfare Service",NA,NA,09:00 - 17:00,09:00 - 17:00,Closed,Closed,09:00 - 17:00,09:00 - 17:00,09:00 - 17:00,https://api.scraperapi.com/?url=https%3A%2F%2Fystrad-mynach.cylex-uk.co.uk%2Fcompany%2Fcaerphilly-county-borough-council-17866829.html&api_key=adc3d866682a18dad67c04d3bcbc7f1c&scraper_sdk=python
MUSCLE MEDICS LIMITED,"LLANOVER HOUSE, LLANOVER ROAD ",CF37 4DY,Pontypridd ,Rhondda Cynon Taf Wales,NA,NA,NA,,NA,NA,"Educational Services, Training Courses, Adult Education",NA,NA,NA,NA,NA,NA,NA,NA,NA,https://api.scraperapi.com/?url=https%3A%2F%2Fpontypridd.cylex-uk.co.uk%2Fcompany%2Fmuscle-medics-limited-22073866.html&api_key=adc3d866682a18dad67c04d3bcbc7f1c&scraper_sdk=python
School Of Training Limited,TY MENTER NAVIGATION PARK ,CF45 4SN,Abercynon ,Rhondda Cynon Taf Wales,NA,NA,NA,,NA,NA,"Educational Services, Training Courses, Adult Education",NA,NA,NA,NA,NA,NA,NA,NA,NA,https://api.scraperapi.com/?url=https%3A%2F%2Fabercynon.cylex-uk.co.uk%2Fcompany%2Fschool-of-training-limited-22003723.html&api_key=adc3d866682a18dad67c04d3bcbc7f1c&scraper_sdk=python
Beacon Support Ltd,Goitre Coed Road,CF46 5BB,Quakers Yard ,Merthyr Tydfil Wales,07837 518315,NA,NA,http://beacon-services.org?utm_source=yell&utm_medium=referral&utm_campaign=yell,NA,NA,"Private Schools, Faith Schools, Religious Schools",NA,"Child Development Centre, Trade School, Learning Centre, School Supplies, University, Learning Disabilities School, Faith School, Private School, Religious School, Adult Education School",Open 24 Hours,Open 24 Hours,Open 24 Hours,Open 24 Hours,Open 24 Hours,Open 24 Hours,Open 24 Hours,https://api.scraperapi.com/?url=https%3A%2F%2Fquakers-yard.cylex-uk.co.uk%2Fcompany%2Fbeacon-support-ltd-26350401.html&api_key=adc3d866682a18dad67c04d3bcbc7f1c&scraper_sdk=python
Qualtech Services Limited,London House 1 - 3 Penallta Road ,CF82 7AP,Ystrad Mynach ,Caerphilly Wales,NA,NA,NA,,NA,NA,"Educational Services, Education, Training Courses, Adult Education",NA,NA,NA,NA,NA,NA,NA,NA,NA,https://api.scraperapi.com/?url=https%3A%2F%2Fystrad-mynach.cylex-uk.co.uk%2Fcompany%2Fqualtech-services-limited-20728106.html&api_key=adc3d866682a18dad67c04d3bcbc7f1c&scraper_sdk=python
Bamburgh Castle Golf Club,40 The Wynding ,NE69 7DE,Bamburgh ,Northumberland England,01668 214378,01668 214607,NA,www.bamburghcastlegolfclub.co.uk,NA,Weddings,"Golf Course, Golf Club, Golf Courses & Clubs, Golf, Pubs, Bars, Museum, Golfing, Golf Club Membership, Golf Players, Night Clubs, History, Courses & Professionals, Castle, Historic, Northumberland, Coast, Archaeology, Golfer, Visitor Attractions, Fortress",NA,NA,08:00 - 18:00,08:00 - 18:00,08:00 - 18:00,08:00 - 18:00,08:00 - 18:00,08:00 - 18:00,08:00 - 18:00,https://api.scraperapi.com/?url=https%3A%2F%2Fbamburgh.cylex-uk.co.uk%2Fcompany%2Fbamburgh-castle-golf-club-14224128.html&api_key=adc3d866682a18dad67c04d3bcbc7f1c&scraper_sdk=python
Stevens Heating,29 Yaverland Dr ,GU19 5DX,Bagshot ,Surrey England,07850 741221,NA,NA,,NA,NA,NA,NA,NA,NA,NA,NA,NA,NA,NA,NA,https://api.scraperapi.com/?url=https%3A%2F%2Fbagshot.cylex-uk.co.uk%2Fcompany%2Fstevens-heating-26871393.html&api_key=adc3d866682a18dad67c04d3bcbc7f1c&scraper_sdk=python
Nigel Jeffries Landscapes Ltd,30 Yaverland Dr ,GU19 5DX,Bagshot ,Surrey England,01276 476365,NA,NA,www.nigel-jeffries.co.uk,NA,NA,NA,NA,NA,07:00 - 17:30,07:00 - 17:30,Closed,Closed,07:00 - 17:30,07:00 - 17:30,07:00 - 17:30,https://api.scraperapi.com/?url=https%3A%2F%2Fbagshot.cylex-uk.co.uk%2Fcompany%2Fnigel-jeffries-landscapes-ltd-26738512.html&api_key=adc3d866682a18dad67c04d3bcbc7f1c&scraper_sdk=python
Aminti Kids Ltd,8 Yaverland Drive ,GU19 5DX,Bagshot ,Surrey England,020 3488 2133,NA,NA,,"Dresses, Shirts, Skirts, Waistcoats, Party Dresses",We serve and deliver our products to all areas of the UK as well as worldwide.,"Children's Clothing Store, Children's & Babies' Clothes Shops, Clothing Shops, Business Support, Children's Clothing Boutique, African Dresses for Girls, African Print Dresses for Kids, African Print Shirts for Boys, African Skirts for Girls, Christmas Clothes for Girls, Clothes for Children Online, Cute Clothes for Little Girls, Girls Flared Dresses, Girls Party Dresses Online, Girls Skirts Online, Kids Apparel Online, Kids Dresses Online, Kids Party Wear Dresses for Girls, Kids Wear Online, Kids Wear UK, Unique Children Clothing",NA,NA,NA,NA,NA,NA,NA,NA,NA,https://api.scraperapi.com/?url=https%3A%2F%2Fbagshot.cylex-uk.co.uk%2Fcompany%2Faminti-kids-ltd-25754101.html&api_key=adc3d866682a18dad67c04d3bcbc7f1c&scraper_sdk=python
ALF SCAFFOLDING LIMITED,125 Yaverland Drive ,GU19 5DZ,Bagshot ,Surrey England,NA,NA,NA,,NA,NA,Scaffolding Erectors,NA,NA,NA,NA,NA,NA,NA,NA,NA,https://api.scraperapi.com/?url=https%3A%2F%2Fbagshot.cylex-uk.co.uk%2Fcompany%2Falf-scaffolding-limited-24024340.html&api_key=adc3d866682a18dad67c04d3bcbc7f1c&scraper_sdk=python
Rs Jones Roofing,88 Yaverland Drive ,GU19 5DY,Bagshot ,Surrey England,01276 471928,07798 587149,NA,rs-jones.co.uk,NA,"roof repair, roof extension, roof replacement, lead welding, slating, legworks, Roofing Services","Roofing Contractors, Slate Roof Replacing",NA,NA,NA,NA,NA,NA,NA,NA,NA,https://api.scraperapi.com/?url=https%3A%2F%2Fbagshot.cylex-uk.co.uk%2Fcompany%2Frs-jones-roofing-19321379.html&api_key=adc3d866682a18dad67c04d3bcbc7f1c&scraper_sdk=python
Nationwide Assessment Ltd,159 YAVERLAND DRIVE ,GU19 5DY,Bagshot ,Surrey England,NA,NA,NA,,NA,NA,"Research Organisations, Scientific and Technical Services",NA,NA,NA,NA,NA,NA,NA,NA,NA,https://api.scraperapi.com/?url=https%3A%2F%2Fbagshot.cylex-uk.co.uk%2Fcompany%2Fnationwide-assessment-ltd-21821241.html&api_key=adc3d866682a18dad67c04d3bcbc7f1c&scraper_sdk=python
Little Yews Management Limited,95 YAVERLAND DRIVE ,GU19 5DZ,Bagshot ,Surrey England,NA,NA,NA,,NA,NA,Private Households,NA,NA,NA,NA,NA,NA,NA,NA,NA,https://api.scraperapi.com/?url=https%3A%2F%2Fbagshot.cylex-uk.co.uk%2Fcompany%2Flittle-yews-management-limited-21736914.html&api_key=adc3d866682a18dad67c04d3bcbc7f1c&scraper_sdk=python
Funky Felines,33 Yaverland Drive ,GU19 5DX,Bagshot ,Surrey England,01276 475668,NA,NA,funky-felines.co.uk,NA,Pet Services,"Dog Toys, Cat Toys, Cat Accessories, Pet Sitting",NA,NA,NA,NA,NA,NA,NA,NA,NA,https://api.scraperapi.com/?url=https%3A%2F%2Fbagshot.cylex-uk.co.uk%2Fcompany%2Ffunky-felines-22985947.html&api_key=adc3d866682a18dad67c04d3bcbc7f1c&scraper_sdk=python
Vma Design Limited,165 YAVERLAND DRIVE ,GU19 5DY,Bagshot ,Surrey England,NA,NA,NA,,NA,"Joinery, Joinery Installation",NA,NA,NA,NA,NA,NA,NA,NA,NA,NA,https://api.scraperapi.com/?url=https%3A%2F%2Fbagshot.cylex-uk.co.uk%2Fcompany%2Fvma-design-limited-22188722.html&api_key=adc3d866682a18dad67c04d3bcbc7f1c&scraper_sdk=python
JELLY BEAN LTD,21 Ynysglyd Street,CF82 7ET,Ystrad Mynach ,Caerphilly Wales,NA,NA,NA,,NA,NA,"Patent Leasing, Non-Financial Intangible Assets Leasing, Trademark Leasing",NA,NA,NA,NA,NA,NA,NA,NA,NA,https://api.scraperapi.com/?url=https%3A%2F%2Fystrad-mynach.cylex-uk.co.uk%2Fcompany%2Fjelly-bean-ltd-24587421.html&api_key=adc3d866682a18dad67c04d3bcbc7f1c&scraper_sdk=python
P W Services,4 YNYSGLYD STREET ,CF82 7ET,Ystrad Mynach ,Caerphilly Wales,01443 815132,01443 815178,NA,,NA,NA,"Road Haulage, Haulage, Road Haulage Contractors, Road Haulage Transport, Road Transport, Haulage Contractors, Transportation & Logistics, Road Haulage Companies, Logistics, Transport & Logistics",NA,NA,NA,NA,NA,NA,NA,NA,NA,https://api.scraperapi.com/?url=https%3A%2F%2Fystrad-mynach.cylex-uk.co.uk%2Fcompany%2Fp-w-services-15668921.html&api_key=adc3d866682a18dad67c04d3bcbc7f1c&scraper_sdk=python
