Name,Street,Postal,Locality,Region,Phone,Mobile,Fax,Website,Products,Service,Keyword,Facilities,Categories,Thursday,Friday,Saturday,Sunday,Monday,Tuesday,Wednesday,URL
Joe Curran,2 ZION STREET ,OL13 9LT,Bacup ,Lancashire England,01706 878851,01706 878851,NA,,Paint,"Painting, Design Services, Decorating Services, Painting Service, Design","Painters, Decorators, Decorating, Interior Design, Designers, Interior Designers, Interior Decoration, Painting Contractors, Painters and Decorators, Decorating Contractors, Interior Decorators, House Painters, Home Decorators, House Decorators, Decoration, Workmanship",NA,NA,NA,NA,NA,NA,NA,NA,NA,https://api.scraperapi.com/?url=https%3A%2F%2Fbacup.cylex-uk.co.uk%2Fcompany%2Fjoe-curran-12908999.html&api_key=adc3d866682a18dad67c04d3bcbc7f1c&scraper_sdk=python
E. Coulson Building Services Ltd,16 Mons Ave ,SG7 6JP,Baldock ,Hertfordshire England,07891 238407,NA,NA,www.ecbuild.co.uk,NA,NA,NA,NA,NA,NA,NA,NA,NA,NA,NA,NA,https://api.scraperapi.com/?url=https%3A%2F%2Fbaldock.cylex-uk.co.uk%2Fcompany%2Fe--coulson-building-services-ltd-26380153.html&api_key=adc3d866682a18dad67c04d3bcbc7f1c&scraper_sdk=python
Mark Wardley (Electrical),3 Mons Avenue ,SG7 6JP,Baldock ,Hertfordshire England,01462 635632,NA,NA,,NA,Electrical Services,"Electrical Contractors, Electricians & Electrical Contractors, Gas, Installers",NA,Gas Installers,NA,NA,NA,NA,NA,NA,NA,https://api.scraperapi.com/?url=https%3A%2F%2Fbaldock.cylex-uk.co.uk%2Fcompany%2Fmark-wardley--electrical--16282203.html&api_key=adc3d866682a18dad67c04d3bcbc7f1c&scraper_sdk=python
Duneire Ballater,11 Viewfield Rd ,AB35 5RD,Ballater ,Aberdeenshire Scotland,01339 755900,NA,NA,duneireballater.co.uk,NA,NA,NA,NA,NA,NA,NA,NA,NA,NA,NA,NA,https://api.scraperapi.com/?url=https%3A%2F%2Fballater.cylex-uk.co.uk%2Fcompany%2Fduneire-ballater-27114662.html&api_key=adc3d866682a18dad67c04d3bcbc7f1c&scraper_sdk=python
Children of Rwanda,6 Victoria Rd ,AB35 5QQ,Ballater ,Aberdeenshire Scotland,07427 659913,NA,NA,www.childrenofrwanda.org,NA,NA,NA,NA,NA,NA,NA,NA,NA,NA,NA,NA,https://api.scraperapi.com/?url=https%3A%2F%2Fballater.cylex-uk.co.uk%2Fcompany%2Fchildren-of-rwanda-26575055.html&api_key=adc3d866682a18dad67c04d3bcbc7f1c&scraper_sdk=python
,,,,,NA,NA,NA,,NA,NA,NA,NA,NA,NA,NA,NA,NA,NA,NA,NA,https://api.scraperapi.com/?url=https%3A%2F%2Fballater.cylex-uk.co.uk%2Fcompany%2Fnorth-british-trust-hotels-ltd-19908276.html&api_key=adc3d866682a18dad67c04d3bcbc7f1c&scraper_sdk=python
Stud Farm Gallery-Framing,UPPER YELD ROAD ,DE45 1JB,Bakewell ,Derbyshire England,01629 814610,NA,NA,,"Greeting Cards, Pictures, Glassware, Ceramics, Fine Art",NA,"Photo Framing, Picture Services, Picture and Photo Framing Services, Print, Gallery, Orginals",NA,NA,NA,NA,NA,NA,NA,NA,NA,https://api.scraperapi.com/?url=https%3A%2F%2Fbakewell.cylex-uk.co.uk%2Fcompany%2Fstud-farm-gallery-framing-15805931.html&api_key=adc3d866682a18dad67c04d3bcbc7f1c&scraper_sdk=python
Abs Metals And Waste Limited,"PEACEHAVEN 14 CALTON VIEW, YELD ROAD ",DE45 1FN,Bakewell ,Derbyshire England,NA,NA,NA,,NA,Waste Disposal,"Waste Treatment, Non-Hazardous Waste Disposal",NA,NA,NA,NA,NA,NA,NA,NA,NA,https://api.scraperapi.com/?url=https%3A%2F%2Fbakewell.cylex-uk.co.uk%2Fcompany%2Fabs-metals-and-waste-limited-20994373.html&api_key=adc3d866682a18dad67c04d3bcbc7f1c&scraper_sdk=python
VICKY IRONSIDE LIMITED,The Crest Yeld Road ,DE45 1FJ,Bakewell ,Derbyshire England,NA,NA,NA,,NA,NA,Veterinarian,NA,NA,NA,NA,NA,NA,NA,NA,NA,https://api.scraperapi.com/?url=https%3A%2F%2Fbakewell.cylex-uk.co.uk%2Fcompany%2Fvicky-ironside-limited-25251603.html&api_key=adc3d866682a18dad67c04d3bcbc7f1c&scraper_sdk=python
Goboka Rwanda Trust,"Yeld Road, Tanglewood House ",DE45 1FJ,Bakewell ,Derbyshire England,01629 813824,07974 133091,NA,www.thegobokarwandatrust.co.uk,NA,NA,NA,NA,NA,NA,NA,NA,NA,NA,NA,NA,https://api.scraperapi.com/?url=https%3A%2F%2Fbakewell.cylex-uk.co.uk%2Fcompany%2Fgoboka-rwanda-trust-26622714.html&api_key=adc3d866682a18dad67c04d3bcbc7f1c&scraper_sdk=python
Silken Strands,20 Y Rhos ,LL57 2LT,Bangor ,Gwynedd Wales,01248 362361,NA,NA,http://WWW.SILKENSTRANDS.CO.UK,NA,NA,"Craft Shops, Fabric Shops",NA,"Needlework Shop, Upholstery Shop, Fabric Shop, Bedding Shop, Craft Shop, Knit Shop, Quilt Shop, Upholstery Shops",09:30 - 16:30,09:30 - 16:30,Closed,Closed,09:30 - 16:30,09:30 - 16:30,09:30 - 16:30,https://api.scraperapi.com/?url=https%3A%2F%2Fbangor.cylex-uk.co.uk%2Fcompany%2Fsilken-strands-13278906.html&api_key=adc3d866682a18dad67c04d3bcbc7f1c&scraper_sdk=python
WHEELIE SERIOUS LTD,16 Yaverland Drive,GU19 5DX,Bagshot ,Surrey England,07980 658749,NA,NA,www.wheelieserious.co.uk,NA,NA,NA,NA,NA,11:30 - 21:30,11:30 - 21:30,09:00 - 21:30,Closed,11:30 - 21:30,11:30 - 21:30,11:30 - 21:30,https://api.scraperapi.com/?url=https%3A%2F%2Fbagshot.cylex-uk.co.uk%2Fcompany%2Fwheelie-serious-ltd-25989070.html&api_key=adc3d866682a18dad67c04d3bcbc7f1c&scraper_sdk=python
Emlyn Davies & Co,YORK PLACE ,LL57 1HE,Bangor ,Gwynedd Wales,01248 353352,NA,NA,,NA,"Betting, Bookbinding",NA,NA,"Bookmakers, Bookie",NA,NA,NA,NA,NA,NA,NA,https://api.scraperapi.com/?url=https%3A%2F%2Fbangor.cylex-uk.co.uk%2Fcompany%2Femlyn-davies---co-13536367.html&api_key=adc3d866682a18dad67c04d3bcbc7f1c&scraper_sdk=python
Stirling Cars,13 Victoria Court ,GU19 5QH,Bagshot ,Surrey England,01276 474946,NA,NA,,NA,"Taxis, Minicabs, Airport Transfers","Radio Cars, Book Cabs",NA,NA,NA,NA,NA,NA,NA,NA,NA,https://api.scraperapi.com/?url=https%3A%2F%2Fbagshot.cylex-uk.co.uk%2Fcompany%2Fstirling-cars-20009459.html&api_key=adc3d866682a18dad67c04d3bcbc7f1c&scraper_sdk=python
G Fearn Spa & Pool Services,"HILLCREST, UPPER YELD RD ",DE45 1JB,Bakewell ,Derbyshire England,01629 812410,01629 812414,NA,,NA,NA,"Swimming Pool Contractors, Repairers Service",NA,NA,NA,NA,NA,NA,NA,NA,NA,https://api.scraperapi.com/?url=https%3A%2F%2Fbakewell.cylex-uk.co.uk%2Fcompany%2Fg-fearn-spa---pool-services-14371495.html&api_key=adc3d866682a18dad67c04d3bcbc7f1c&scraper_sdk=python
The Village Beauty at Banstead,"25, Yewlands Close ",SM7 3DB,Banstead ,Surrey England,01737 357745,07917 357745,NA,villagebeauty.com,NA,NA,"Beauty Salon, Body Treatments, Dermalogica Facial Treatments, Hair Removal, Skin Care Centre, Eye Treatment",NA,NA,09:00 - 21:00,09:00 - 17:30,09:00 - 17:30,Closed,09:00 - 17:30,09:00 - 17:30,Closed,https://api.scraperapi.com/?url=https%3A%2F%2Fbanstead.cylex-uk.co.uk%2Fcompany%2Fthe-village-beauty-at-banstead-16514362.html&api_key=adc3d866682a18dad67c04d3bcbc7f1c&scraper_sdk=python
N.G.HOSFORD TUNNELLING LIMITED,2 William St. Glanrhyd ,SA9 1AT,Ystradgynlais ,Neath Port Talbot Wales,NA,NA,NA,,NA,"Civil Engineering, Bridge Construction, Tunnel Construction",NA,NA,NA,NA,NA,NA,NA,NA,NA,NA,https://api.scraperapi.com/?url=https%3A%2F%2Fystradgynlais.cylex-uk.co.uk%2Fcompany%2Fn-g-hosford-tunnelling-limited-24806424.html&api_key=adc3d866682a18dad67c04d3bcbc7f1c&scraper_sdk=python
Wired And Wonderful (UK) Ltd,28 Yewlands Close ,SM7 3DB,Banstead ,Surrey England,020 8947 6441,07590 680671,NA,www.wiredandwonderful.co.uk,NA,"Electrical testing services, Electrical installations, Electrical emergency services, Landlord safety certificates, Fuse boards, Rewiring, Outdoor electrical wiring, Electric Showers, Emergency lighting, LED lighting, Outdoor lighting, Lighting LED upgrades, Emergency lighting annual testing, Security & Emergency lighting installations, Electrical safety certificates, Fuseboard upgrades, Rewires, Electrical Testing","Electricians, Electricity Company, Electricity Suppliers, Fuse Board Upgrade, Electrical Safety Certificate, Local Business, Landlord Safety Certificate, Emergency Electrical Services",NA,NA,08:00 - 16:00,08:00 - 16:00,Closed,Closed,08:00 - 16:00,08:00 - 16:00,08:00 - 16:00,https://api.scraperapi.com/?url=https%3A%2F%2Fbanstead.cylex-uk.co.uk%2Fcompany%2Fwired-and-wonderful--uk--ltd-20948564.html&api_key=adc3d866682a18dad67c04d3bcbc7f1c&scraper_sdk=python
Mj Photography,"FOREST EDGE, 2 VICARAGE ROAD ",GU19 5EJ,Bagshot ,Surrey England,01276 489788,01274 371 349,NA,,"Photographs, Portrait",NA,"Photography Studios, Photoshoot, Photographer, Photo Gallery, Photography, Professional Photographer, Digital Photography, Photography Services, Professional Photography, General, General Photographers, Professional Photographs",NA,NA,NA,NA,NA,NA,NA,NA,NA,https://api.scraperapi.com/?url=https%3A%2F%2Fbagshot.cylex-uk.co.uk%2Fcompany%2Fmj-photography-13264750.html&api_key=adc3d866682a18dad67c04d3bcbc7f1c&scraper_sdk=python
Texaco,Wind Rd ,SA9 2JX,Ystradgynlais ,Neath Port Talbot Wales,01639 845190,NA,NA,texaco.co.uk,NA,NA,NA,NA,NA,NA,NA,NA,NA,NA,NA,NA,https://api.scraperapi.com/?url=https%3A%2F%2Fystradgynlais.cylex-uk.co.uk%2Fcompany%2Ftexaco-26631142.html&api_key=adc3d866682a18dad67c04d3bcbc7f1c&scraper_sdk=python
Quaynow Limited,48 YEWLANDS CLOSE ,SM7 3DB,Banstead ,Surrey England,NA,NA,NA,,NA,NA,"Engineering Companies, Engineering, Surveyors",NA,NA,NA,NA,NA,NA,NA,NA,NA,https://api.scraperapi.com/?url=https%3A%2F%2Fbanstead.cylex-uk.co.uk%2Fcompany%2Fquaynow-limited-21933128.html&api_key=adc3d866682a18dad67c04d3bcbc7f1c&scraper_sdk=python
Apple Resources Limited,44 YEWLANDS CLOSE ,SM7 3DB,Banstead ,Surrey England,NA,NA,NA,,NA,NA,"Educational Services, Education, Training Courses, Adult Education, Technical College, Vocational School, Vocational Education",NA,NA,NA,NA,NA,NA,NA,NA,NA,https://api.scraperapi.com/?url=https%3A%2F%2Fbanstead.cylex-uk.co.uk%2Fcompany%2Fapple-resources-limited-21039307.html&api_key=adc3d866682a18dad67c04d3bcbc7f1c&scraper_sdk=python
LUMO LIQUIDS LTD,"Units 9-10, Woodlands Business Park ",SA9 1JW,Ystradgynlais ,Neath Port Talbot Wales,0800 035 2846,NA,NA,,NA,NA,Miscellaneous Manufacturing,NA,NA,09:00 - 17:30,09:00 - 17:30,Closed,Closed,09:00 - 17:30,09:00 - 17:30,09:00 - 17:30,https://api.scraperapi.com/?url=https%3A%2F%2Fystradgynlais.cylex-uk.co.uk%2Fcompany%2Flumo-liquids-ltd-24704725.html&api_key=adc3d866682a18dad67c04d3bcbc7f1c&scraper_sdk=python
Husky South Wales,unit 16 woodlands business park ,SA9 1JW,Ystradgynlais ,Neath Port Talbot Wales,01639 874285,07487 693682,NA,,NA,NA,"Motorcycle Dealership, Recreation & Fitness, Outdoors",NA,NA,09:00 - 17:00,09:00 - 17:00,09:00 - 17:00,Closed,09:00 - 17:00,09:00 - 17:00,09:00 - 17:00,https://api.scraperapi.com/?url=https%3A%2F%2Fystradgynlais.cylex-uk.co.uk%2Fcompany%2Fhusky-south-wales-25783953.html&api_key=adc3d866682a18dad67c04d3bcbc7f1c&scraper_sdk=python
Springdew Ltd,"Unit 9-12, Woodlands Business Park ",SA9 1JW,Ystradgynlais ,Neath Port Talbot Wales,01639 849676,01639 845662,NA,springdew.co.uk,NA,NA,"Packaging Services, Pallets, Packing, Packaging, Custom Packaging, Packers, Containers, Crates",NA,NA,07:00 - 17:00,07:00 - 14:00,Closed,Closed,07:00 - 17:00,07:00 - 17:00,07:00 - 17:00,https://api.scraperapi.com/?url=https%3A%2F%2Fystradgynlais.cylex-uk.co.uk%2Fcompany%2Fspringdew-ltd-13188807.html&api_key=adc3d866682a18dad67c04d3bcbc7f1c&scraper_sdk=python
TOURATECH LIMITED,"Unit 16, Woodlands Business Park ",SA9 1JW,Ystradgynlais ,Neath Port Talbot Wales,01639 841765,01639 841790,NA,www.touratech-uk.co.uk/distri-uk/about-touratech-uk.html,Motorcycle Parts,Motorcycle Repair,"Motorcycle Dealers, Motorcycle Dealership, Motorcycle Repair Shop, Automotive, Aircraft & Boat",NA,NA,09:00 - 17:30,09:00 - 17:30,09:00 - 17:30,Closed,09:00 - 17:30,09:00 - 17:30,09:00 - 17:30,https://api.scraperapi.com/?url=https%3A%2F%2Fystradgynlais.cylex-uk.co.uk%2Fcompany%2Ftouratech-limited-25723995.html&api_key=adc3d866682a18dad67c04d3bcbc7f1c&scraper_sdk=python
Bull Art Graphics,"Unit 2, Ystradgynlais Workshops, Trawsfford Road ",SA9 1BS,Ystradgynlais ,Neath Port Talbot Wales,01639 502026,NA,NA,,NA,"badge makers, poster printing, printers' services, embroidery, Custom Workwear, Clothing Printing, stag and hen t-shirts","Printer Service, Stag and Hen T Shirts",NA,T-Shirt Printers,08:00 - 16:00,08:00 - 16:00,Closed,Closed,08:00 - 16:00,08:00 - 16:00,08:00 - 16:00,https://api.scraperapi.com/?url=https%3A%2F%2Fystradgynlais.cylex-uk.co.uk%2Fcompany%2Fbull-art-graphics-26255739.html&api_key=adc3d866682a18dad67c04d3bcbc7f1c&scraper_sdk=python
TRACHIS SERVICES LIMITED,"Unit 1, Ystradgynlais Workshops Trawsfford Road ",SA9 1BS,Ystradgynlais ,Neath Port Talbot Wales,NA,NA,NA,,NA,NA,Road Haulage,NA,NA,NA,NA,NA,NA,NA,NA,NA,https://api.scraperapi.com/?url=https%3A%2F%2Fystradgynlais.cylex-uk.co.uk%2Fcompany%2Ftrachis-services-limited-25209570.html&api_key=adc3d866682a18dad67c04d3bcbc7f1c&scraper_sdk=python
BULLART GRAPHICS LTD,"UNIT 204 YSTRADGYNLAIS WORK SHOPS, TRAWFFORDD ",SA9 1BS,Ystradgynlais ,Neath Port Talbot Wales,NA,NA,NA,,NA,NA,Business Support,NA,NA,NA,NA,NA,NA,NA,NA,NA,https://api.scraperapi.com/?url=https%3A%2F%2Fystradgynlais.cylex-uk.co.uk%2Fcompany%2Fbullart-graphics-ltd-22294089.html&api_key=adc3d866682a18dad67c04d3bcbc7f1c&scraper_sdk=python
Glantawe Cardiac Support Group Swansea Ystradgynlais,YSTRADGYNLAIS COMMUNITY HOSPITAL ,SA9 1AU,Ystradgynlais ,Neath Port Talbot Wales,NA,NA,NA,,NA,NA,NA,NA,NA,NA,NA,NA,NA,NA,NA,NA,https://api.scraperapi.com/?url=https%3A%2F%2Fystradgynlais.cylex-uk.co.uk%2Fcompany%2Fglantawe-cardiac-support-group-swansea-ystradgynlais-19284123.html&api_key=adc3d866682a18dad67c04d3bcbc7f1c&scraper_sdk=python
Classy Curtains Limited,Ystradgynlais ,SA9 1EU,Ystradgynlais ,Neath Port Talbot Wales,01639 415885,NA,NA,classycurtainsltd.co.uk,"Blinds, Curtains, Roman Blinds, Curtain Poles, Made to Measure Curtains, Made to Measure Blinds, Curtain Tracks, Fabrics, Cushions, Headboards, Curtain Fabric","Swansea,  Ammanford,  Pontardawe,  Ystradgynlais,  Clydach,  Llansamlet,  Mumbles,  Gower,  Llanelli,  Neath,  Llandeilo,  Carmarthen,  Cowbridge,  Brecon,  Ystradgynlais,  Sennybridge,  Crynant,  Seven Sisters","Interior Design, Manufacture of Household Textiles, Soft Furnishings, Bedding, Lampshades",NA,Upholstery Cleaners,10:00 - 17:30,10:00 - 17:30,10:00 - 15:00,Closed,Closed,10:00 - 17:30,10:00 - 17:30,https://api.scraperapi.com/?url=https%3A%2F%2Fystradgynlais.cylex-uk.co.uk%2Fcompany%2Fclassy-curtains-limited-23552310.html&api_key=adc3d866682a18dad67c04d3bcbc7f1c&scraper_sdk=python
T Ashford,"SWNYRAFON, YNYS ISAF ",SA9 1RU,Ystradgynlais ,Neath Port Talbot Wales,01639 843255,NA,NA,,NA,NA,"Road Haulage, Road Haulage Contractors, Road Haulage Transport, Haulage Contractors, Road Haulage Companies",NA,NA,NA,NA,NA,NA,NA,NA,NA,https://api.scraperapi.com/?url=https%3A%2F%2Fystradgynlais.cylex-uk.co.uk%2Fcompany%2Ft-ashford-18708837.html&api_key=adc3d866682a18dad67c04d3bcbc7f1c&scraper_sdk=python
Ystradgynlais r f C,YNYSCEDWYN ROAD,SA9 1HB,Ystradgynlais ,Neath Port Talbot Wales,01639 842446,01639 842948,NA,,NA,Entertainment,"Sports Club, Sports Association, Athletics Club, Sports Clubs and Associations, Leisure, Sports, Associations",NA,NA,NA,NA,NA,NA,NA,NA,NA,https://api.scraperapi.com/?url=https%3A%2F%2Fystradgynlais.cylex-uk.co.uk%2Fcompany%2Fystradgynlais-r-f-c-15717919.html&api_key=adc3d866682a18dad67c04d3bcbc7f1c&scraper_sdk=python
Phillipa Morton Aromatherapy Clinic,41 Heol Ynyscedwyn ,SA9 1BH,Ystradgynlais ,Neath Port Talbot Wales,01639 845980,NA,NA,,NA,NA,Aromatherapy Services,NA,NA,NA,NA,NA,NA,NA,NA,NA,https://api.scraperapi.com/?url=https%3A%2F%2Fystradgynlais.cylex-uk.co.uk%2Fcompany%2Fphillipa-morton-aromatherapy-clinic-14547490.html&api_key=adc3d866682a18dad67c04d3bcbc7f1c&scraper_sdk=python
Amandas Hair Studio,41 Heol Ynyscedwyn ,SA9 1BH,Ystradgynlais ,Neath Port Talbot Wales,01639 841106,NA,NA,,NA,NA,NA,NA,Hairdressers,NA,NA,NA,NA,NA,NA,NA,https://api.scraperapi.com/?url=https%3A%2F%2Fystradgynlais.cylex-uk.co.uk%2Fcompany%2Famandas-hair-studio-13688730.html&api_key=adc3d866682a18dad67c04d3bcbc7f1c&scraper_sdk=python
Hands on Property Maintenance,41 Ynyscedwyn Road ,SA9 1BH,Ystradgynlais ,Neath Port Talbot Wales,01639 560271,07751 315357,NA,handsonpropertymaintenance.webs.com,Built-In Furniture,"Door handle fitting ,  Hanging shelves ,  Gutter cleaning ,  Flat pack furniture assembly ,  Stair gate fitting ,  Decking ,  Shaving doors ,  DIY help ,  Kitchen fitting ,  Fencing ,  Patios ,  Built in furniture ,  Door hanging ,  Upvc window/door referbishment, Property Maintenance, Fencing, Decking, Kitchen Fitting, Gutter Cleaning, Door Hanging, Flatpack Furniture Assembly","Handyman, Patios, DIY Help, Hanging Shelves, Door Handle Fitting, Stair Gate Fitting, Shaving Doors, uPVC Window/Door Referbishment",NA,NA,09:00 - 17:30,09:00 - 17:30,09:00 - 17:00,09:00 - 17:00,09:00 - 17:30,09:00 - 17:30,09:00 - 17:30,https://api.scraperapi.com/?url=https%3A%2F%2Fystradgynlais.cylex-uk.co.uk%2Fcompany%2Fhands-on-property-maintenance-19222874.html&api_key=adc3d866682a18dad67c04d3bcbc7f1c&scraper_sdk=python
C Jones,Ynyscedwyn Road ,SA9 1BE,Ystradgynlais ,Neath Port Talbot Wales,01639 844822,01639 845490,NA,,NA,"Transportation, Transport","Road Haulage, Haulage, Road Haulage Contractors, Road Haulage Transport, Hauling, Freight Companies, Haulage Contractors, Hauliers, Transportation & Logistics, Road Haulage Companies, Transport Companies, Haul, Logistics, Transport & Logistics",NA,NA,NA,NA,NA,NA,NA,NA,NA,https://api.scraperapi.com/?url=https%3A%2F%2Fystradgynlais.cylex-uk.co.uk%2Fcompany%2Fc-jones-15578195.html&api_key=adc3d866682a18dad67c04d3bcbc7f1c&scraper_sdk=python
Legato Consulting Limited,59 YNYSCEDWYN ROAD ,SA9 1BH,Ystradgynlais ,Neath Port Talbot Wales,NA,NA,NA,,NA,NA,"IT Services, IT Consultants",NA,NA,NA,NA,NA,NA,NA,NA,NA,https://api.scraperapi.com/?url=https%3A%2F%2Fystradgynlais.cylex-uk.co.uk%2Fcompany%2Flegato-consulting-limited-20550698.html&api_key=adc3d866682a18dad67c04d3bcbc7f1c&scraper_sdk=python
BULLSHIRT LTD,"UNIT 201 YSTRADGYNLAIS WORK SHOPS, TRAWFFORDD YSTRADGYNLAIS ",SA9 1BS,Ystradgynlais ,Neath Port Talbot Wales,01639 843134,NA,NA,,NA,NA,"Business Support, Business Advice",NA,NA,NA,NA,NA,NA,NA,NA,NA,https://api.scraperapi.com/?url=https%3A%2F%2Fystradgynlais.cylex-uk.co.uk%2Fcompany%2Fbullshirt-ltd-20624505.html&api_key=adc3d866682a18dad67c04d3bcbc7f1c&scraper_sdk=python
1st Strike Welding Services,"Ystradgynlais Workshops, Trawsfford Road, Unit 301 ",SA9 1BS,Ystradgynlais ,Neath Port Talbot Wales,01639 849319,NA,NA,first-strike-welding-services.business.site,"Motorcycles, Motorbikes, Bikes",Motorcycle Repair,"Buy Motorcycle, Motorcycle Sales, Mopeds, Motor Scooters, Motorcycle Service, Cycles, Motorcycle Repair & Service",NA,NA,NA,NA,NA,NA,NA,NA,NA,https://api.scraperapi.com/?url=https%3A%2F%2Fystradgynlais.cylex-uk.co.uk%2Fcompany%2F1st-strike-welding-services-14175008.html&api_key=adc3d866682a18dad67c04d3bcbc7f1c&scraper_sdk=python
B G Evans Electrical Contractors,"Unit 23, Ystradgynlais Workshops, Trawsfford Rd ",SA9 1BS,Ystradgynlais ,Neath Port Talbot Wales,07926 093557,NA,NA,bgevanselectricalcontractors.yolasite.com,NA,"24 hour electricians, Electrical Testing","Electricians, Electricians & Electrical Contractors, 24 Hour Electrician",NA,NA,Open 24 Hours,Open 24 Hours,Open 24 Hours,Open 24 Hours,Open 24 Hours,Open 24 Hours,Open 24 Hours,https://api.scraperapi.com/?url=https%3A%2F%2Fystradgynlais.cylex-uk.co.uk%2Fcompany%2Fb-g-evans-electrical-contractors-23682545.html&api_key=adc3d866682a18dad67c04d3bcbc7f1c&scraper_sdk=python
J.a.daly Limited,"Unit 206, Ystradgynlais Workshops, Trawsfford Road ",SA91BS,Ystradgynlais ,Neath Port Talbot Wales,01639 842038,NA,NA,,NA,NA,"Hardware, Hardware Wholesalers, Plumbing Supplies, Heating Equipment, Heating Supplies, Plumbing Equipment",NA,NA,NA,NA,NA,NA,NA,NA,NA,https://api.scraperapi.com/?url=https%3A%2F%2Fystradgynlais.cylex-uk.co.uk%2Fcompany%2Fj-a-daly-limited-22590136.html&api_key=adc3d866682a18dad67c04d3bcbc7f1c&scraper_sdk=python
clearahome-Wales,"Ystradgynlais Workshops, Trawsfford Rd, Unit 17 ",SA9 1BS,Ystradgynlais ,Neath Port Talbot Wales,07436 801460,0370 850 6506,NA,www.clearahome-wales.co.uk,NA,NA,NA,NA,NA,08:00 - 19:00,08:00 - 19:00,07:30 - 18:00,07:30 - 17:00,08:00 - 19:00,08:00 - 19:00,08:00 - 19:00,https://api.scraperapi.com/?url=https%3A%2F%2Fystradgynlais.cylex-uk.co.uk%2Fcompany%2Fclearahome-wales-23889477.html&api_key=adc3d866682a18dad67c04d3bcbc7f1c&scraper_sdk=python
GLANTAWE BUSINESS FORUM C.I.C.,"Unit 14, Woodlands Business Park ",SA9 1JW,Ystradgynlais ,Neath Port Talbot Wales,NA,NA,NA,,NA,NA,Social Services,NA,NA,NA,NA,NA,NA,NA,NA,NA,https://api.scraperapi.com/?url=https%3A%2F%2Fystradgynlais.cylex-uk.co.uk%2Fcompany%2Fglantawe-business-forum-c-i-c--24448124.html&api_key=adc3d866682a18dad67c04d3bcbc7f1c&scraper_sdk=python
NICK PLUMB HOLDINGS LTD,"Unit 14, Woodlands Business Park ",SA9 1JW,Ystradgynlais ,Neath Port Talbot Wales,NA,NA,NA,,NA,NA,NA,NA,NA,NA,NA,NA,NA,NA,NA,NA,https://api.scraperapi.com/?url=https%3A%2F%2Fystradgynlais.cylex-uk.co.uk%2Fcompany%2Fnick-plumb-holdings-ltd-24826010.html&api_key=adc3d866682a18dad67c04d3bcbc7f1c&scraper_sdk=python
"The Play Quarter Ltd , Indoor and Multi Sensory Play",Unit 15 Woodlands Business Park ,SA9 1JW,Ystradgynlais ,Neath Port Talbot Wales,01639 845050,NA,NA,www.theplayquarter.co.uk,NA,NA,NA,NA,NA,09:30 - 17:30,09:30 - 17:30,09:30 - 17:30,10:00 - 16:00,Closed,09:30 - 17:30,09:30 - 17:30,https://api.scraperapi.com/?url=https%3A%2F%2Fystradgynlais.cylex-uk.co.uk%2Fcompany%2Fthe-play-quarter-ltd---indoor-and-multi-sensory-play-27064640.html&api_key=adc3d866682a18dad67c04d3bcbc7f1c&scraper_sdk=python
Lee n Del's Food Shack,"Unit 16, Woodlands Business Park ",SA9 1JW,Ystradgynlais ,Neath Port Talbot Wales,07709 087211,NA,NA,lee-n-dels-food-shack.business.site,NA,NA,NA,NA,NA,08:00 - 15:00,08:00 - 15:00,Closed,Closed,08:00 - 15:00,08:00 - 15:00,08:00 - 15:00,https://api.scraperapi.com/?url=https%3A%2F%2Fystradgynlais.cylex-uk.co.uk%2Fcompany%2Flee-n-del%2527s-food-shack-26830729.html&api_key=adc3d866682a18dad67c04d3bcbc7f1c&scraper_sdk=python
Sumitomo Electric Wiring Systems (Europe) Ltd,"UNIT 1, WOODLANDS BUSINESS PARK ",SA9 1JW,Ystradgynlais ,Neath Port Talbot Wales,01639 842281,01782 664701,NA,,NA,"Car Electrics, Auto Electrics, Vehicle Electrics",NA,NA,NA,07:30 - 16:00,07:30 - 12:30,Closed,Closed,07:30 - 16:00,07:30 - 16:00,07:30 - 16:00,https://api.scraperapi.com/?url=https%3A%2F%2Fystradgynlais.cylex-uk.co.uk%2Fcompany%2Fsumitomo-electric-wiring-systems--europe--ltd-14637478.html&api_key=adc3d866682a18dad67c04d3bcbc7f1c&scraper_sdk=python
Streetmaster Products,"Unit 4, Woodlands Business Park ",SA9 1JW,Ystradgynlais ,Neath Port Talbot Wales,01639 845394,01639 844106,NA,streetmaster.co.uk,"Cardigans, Bench, American Oak","Walks, Galvanising","Picnic, Stainless Steel Products, Traditional, Gardens, Sea, European, Budget, Acrylic, SEAT, Anchor, Engraved, Path, Woodlands, Knightsbridge, Victorians, Lakeland, Litter Bins, Robin Hood, Carved, Iroko, Cavendish, Peter Pan, European Oak, Sea Front, Clarendon, Colwyn, Goldilocks, Shaftsbury, Playground Furniture, Carnarvon, Polyboard, Pied Piper, Commemorative Inscription, Streetmaster, The Georgian, Timber Seats",Disabled Access,NA,09:00 - 17:00,09:00 - 17:00,Closed,Closed,09:00 - 17:00,09:00 - 17:00,09:00 - 17:00,https://api.scraperapi.com/?url=https%3A%2F%2Fystradgynlais.cylex-uk.co.uk%2Fcompany%2Fstreetmaster-products-16610847.html&api_key=adc3d866682a18dad67c04d3bcbc7f1c&scraper_sdk=python
The Lounge,"8-9, WIND STREET ",SA9 1AH,Ystradgynlais ,Neath Port Talbot Wales,01792 479180,NA,NA,,Counter,NA,"Pubs, Public Houses, Bars, Tavern, Gin Mill, Bars and Inns, Pub Food, Lounge, Drinking Establishments, Public Bars, Snack Bar, Gastro Pubs, Canteen, Going out, Saloon, Club, Disco, Pub Grub, Night Clubs, Clubbing, Entertainment Venue, Bar Meals, Pub Lunches, Boozers, The Watering Hole",NA,NA,NA,NA,NA,NA,NA,NA,NA,https://api.scraperapi.com/?url=https%3A%2F%2Fystradgynlais.cylex-uk.co.uk%2Fcompany%2Fthe-lounge-12941907.html&api_key=adc3d866682a18dad67c04d3bcbc7f1c&scraper_sdk=python
Sds Precision Engineering Limited,UNIT 16 WOODLANDS BUSINESS PARK ,SA9 1JW,Ystradgynlais ,Neath Port Talbot Wales,NA,NA,NA,,NA,NA,"Machine Shop, Machine Tools",NA,NA,NA,NA,NA,NA,NA,NA,NA,https://api.scraperapi.com/?url=https%3A%2F%2Fystradgynlais.cylex-uk.co.uk%2Fcompany%2Fsds-precision-engineering-limited-20783564.html&api_key=adc3d866682a18dad67c04d3bcbc7f1c&scraper_sdk=python
Tiffin India Restaurant,4 Wind Rd ,SA9 2JX,Ystradgynlais ,Neath Port Talbot Wales,01639 842144,NA,NA,www.tiffinrestaurant.co.uk,NA,NA,NA,NA,NA,17:30 - 23:00,17:30 - 23:00,17:30 - 24:00,17:30 - 23:00,17:30 - 23:00,17:30 - 23:00,17:30 - 23:00,https://api.scraperapi.com/?url=https%3A%2F%2Fystradgynlais.cylex-uk.co.uk%2Fcompany%2Ftiffin-india-restaurant-26781538.html&api_key=adc3d866682a18dad67c04d3bcbc7f1c&scraper_sdk=python
Tesco Superstore,Wind Rd ,SA9 1AD,Ystradgynlais ,Neath Port Talbot Wales,0345 671 9459,NA,NA,http://www.tesco.com/store-locator/uk/,NA,NA,"Supermarkets, Grocery Stores, Wine Stores, Bakery, Card Shops",NA,"Tesco, Supermarket, Convenience Store, Grocery Store, Produce Market",06:00 - 23:00,06:00 - 23:00,06:00 - 23:00,10:00 - 16:00,06:00 - 23:00,06:00 - 23:00,06:00 - 23:00,https://api.scraperapi.com/?url=https%3A%2F%2Fystradgynlais.cylex-uk.co.uk%2Fcompany%2Ftesco-superstore-19124475.html&api_key=adc3d866682a18dad67c04d3bcbc7f1c&scraper_sdk=python
Tours and Rider Training SWANSEA,"UNIT 15, WOODLANDS BUSINESS PARK ",SA9 1JW,Ystradgynlais ,Neath Port Talbot Wales,08452 304015,08452 304015,NA,,"Motorcycles, Bikes",Tours,BMW,NA,NA,NA,NA,NA,NA,NA,NA,NA,https://api.scraperapi.com/?url=https%3A%2F%2Fystradgynlais.cylex-uk.co.uk%2Fcompany%2Ftours-and-rider-training-swansea-19356880.html&api_key=adc3d866682a18dad67c04d3bcbc7f1c&scraper_sdk=python
Fine Dine Ltd,4 WIND ROAD ,SA9 2JX,Ystradgynlais ,Neath Port Talbot Wales,NA,NA,NA,,NA,NA,Restaurants,NA,NA,NA,NA,NA,NA,NA,NA,NA,https://api.scraperapi.com/?url=https%3A%2F%2Fystradgynlais.cylex-uk.co.uk%2Fcompany%2Ffine-dine-ltd-20379852.html&api_key=adc3d866682a18dad67c04d3bcbc7f1c&scraper_sdk=python
Lewis Body Repair,"17, WIND ROAD ",SA9 1AH,Ystradgynlais ,Neath Port Talbot Wales,07814 421124,020 8855 5389,NA,,NA,"Car Body Repairs, Auto Body Repair, Vehicle Body Repair, Car Body Shop Repairs",NA,NA,NA,NA,NA,NA,NA,NA,NA,NA,https://api.scraperapi.com/?url=https%3A%2F%2Fystradgynlais.cylex-uk.co.uk%2Fcompany%2Flewis-body-repair-13545489.html&api_key=adc3d866682a18dad67c04d3bcbc7f1c&scraper_sdk=python
Wind Road Service Station Ltd,"WIND ROAD SERVICE STATION, WIND ROAD ",SA9 2JX,Ystradgynlais ,Neath Port Talbot Wales,NA,NA,NA,,NA,NA,"Petrol Station, Automotive Fuel Retail",NA,NA,NA,NA,NA,NA,NA,NA,NA,https://api.scraperapi.com/?url=https%3A%2F%2Fystradgynlais.cylex-uk.co.uk%2Fcompany%2Fwind-road-service-station-ltd-22958852.html&api_key=adc3d866682a18dad67c04d3bcbc7f1c&scraper_sdk=python
Tesco Petrol Filling Station,Wind Road ,SA9 1AD,Ystradgynlais ,Neath Port Talbot Wales,0800 505555,NA,NA,www.tesco.com/store-locator/uk,"tesco momentum99, tesco unleaded, tesco diesel, Petrol",NA,Petrol Filling Stations,petrol,NA,06:00 - 20:00,06:00 - 20:00,06:00 - 20:00,07:00 - 20:00,06:00 - 20:00,06:00 - 20:00,06:00 - 20:00,https://api.scraperapi.com/?url=https%3A%2F%2Fystradgynlais.cylex-uk.co.uk%2Fcompany%2Ftesco-petrol-filling-station-23849554.html&api_key=adc3d866682a18dad67c04d3bcbc7f1c&scraper_sdk=python
Glanrhyd C.P School,WIND ROAD ,SA9 1AH,Ystradgynlais ,Neath Port Talbot Wales,01639 844481,01843 297828,NA,,NA,NA,"School, Schooling, Local Authority Schools, Preparatory School, Children Education, Local Education, Independent Schools, Educational Establishments, Educational Institution, Education, Learning, Teaching, Classes, Student, Teaching Activities, Teaching Methods, Lessons, Teachers, Local Education Authority",NA,NA,NA,NA,NA,NA,NA,NA,NA,https://api.scraperapi.com/?url=https%3A%2F%2Fystradgynlais.cylex-uk.co.uk%2Fcompany%2Fglanrhyd-c-p-school-13725075.html&api_key=adc3d866682a18dad67c04d3bcbc7f1c&scraper_sdk=python
Woody's Restaurant,Wind Road ,SA9 2JX,Ystradgynlais ,Neath Port Talbot Wales,01639 844055,NA,NA,,NA,NA,Restaurants,NA,NA,NA,NA,NA,NA,NA,NA,NA,https://api.scraperapi.com/?url=https%3A%2F%2Fystradgynlais.cylex-uk.co.uk%2Fcompany%2Fwoody%2527s-restaurant-18678105.html&api_key=adc3d866682a18dad67c04d3bcbc7f1c&scraper_sdk=python
Jobcentre Plus Ystradgynlais,Wind Road ,SA9 1AB,Ystradgynlais ,Neath Port Talbot Wales,01639 664600,01924 455015,0345 604 3719,jobcentreplusoffices.co.uk,NA,employment services,"Employment, Employment & Recruitment Agency",NA,NA,NA,NA,NA,NA,NA,NA,NA,https://api.scraperapi.com/?url=https%3A%2F%2Fystradgynlais.cylex-uk.co.uk%2Fcompany%2Fjobcentre-plus-ystradgynlais-12847751.html&api_key=adc3d866682a18dad67c04d3bcbc7f1c&scraper_sdk=python
Ystrad Recycle,Wind Road ,SA9 1AF,Ystradgynlais ,Neath Port Talbot Wales,01639 845475,01639 841048,NA,www.ystradgynlaisvc.org.uk,"Mobility Scooters, Wheelchairs, Furniture","Disability Aids, Wheelchair Hire, Recycling, Room Hire","Voluntary Organisations, Volunteering, Volunteer, Organisations, Health, Community, Centres, Local, Scooters, Tool Store, Pavo, Wood Store",NA,NA,NA,NA,NA,NA,NA,NA,NA,https://api.scraperapi.com/?url=https%3A%2F%2Fystradgynlais.cylex-uk.co.uk%2Fcompany%2Fystrad-recycle-15717895.html&api_key=adc3d866682a18dad67c04d3bcbc7f1c&scraper_sdk=python
Job Centre Plus,Wind Road ,SA9 1AB,Ystradgynlais ,Neath Port Talbot Wales,01639 664600,01924 455015,0800 169 0190,www.jobcentrenearme.com,NA,Flintwork,"Employment Agencies, Recruitment, Job Placements, Recruitment Consultants, Job Search, Employers, Careers Scotland",NA,NA,09:00 - 17:00,09:00 - 17:00,Closed,Closed,09:00 - 17:00,09:00 - 17:00,10:00 - 17:00,https://api.scraperapi.com/?url=https%3A%2F%2Fystradgynlais.cylex-uk.co.uk%2Fcompany%2Fjob-centre-plus-18605659.html&api_key=adc3d866682a18dad67c04d3bcbc7f1c&scraper_sdk=python
Garden Tone,3 Vicarage Road ,GU19 5EJ,Bagshot ,Surrey England,01276 473024,07764 479674,NA,gardentone.co.uk,NA,"lawn treatment, soft landscaping, lawn care, hard landscaping, Garden Maintenance, Grass Cutting, Gardening, Lawn Mowing, Strimming, Hedge Trimming",NA,NA,NA,Open 24 Hours,Open 24 Hours,Open 24 Hours,Closed,Open 24 Hours,Open 24 Hours,Open 24 Hours,https://api.scraperapi.com/?url=https%3A%2F%2Fbagshot.cylex-uk.co.uk%2Fcompany%2Fgarden-tone-12975456.html&api_key=adc3d866682a18dad67c04d3bcbc7f1c&scraper_sdk=python
Mossgrove Wells,1 Vicarage Road ,GU19 5EJ,Bagshot ,Surrey England,0118 954 5034,NA,NA,www.mossgrovewells.co.uk,NA,NA,"IT Services, IT Consultants, Business Accounting, Financial Accounting",NA,NA,NA,NA,NA,NA,NA,NA,NA,https://api.scraperapi.com/?url=https%3A%2F%2Fbagshot.cylex-uk.co.uk%2Fcompany%2Fmossgrove-wells-23652506.html&api_key=adc3d866682a18dad67c04d3bcbc7f1c&scraper_sdk=python
The Ascot Group,43 Yaverland Dr ,GU19 5DX,Bagshot ,Surrey England,07914 954094,NA,NA,,NA,NA,NA,NA,NA,09:00 - 17:00,09:00 - 17:00,Closed,Closed,09:00 - 17:00,09:00 - 17:00,09:00 - 17:00,https://api.scraperapi.com/?url=https%3A%2F%2Fbagshot.cylex-uk.co.uk%2Fcompany%2Fthe-ascot-group-26626908.html&api_key=adc3d866682a18dad67c04d3bcbc7f1c&scraper_sdk=python
Stevens Heating,29 Yaverland Dr ,GU19 5DX,Bagshot ,Surrey England,07850 741221,NA,NA,,NA,NA,NA,NA,NA,NA,NA,NA,NA,NA,NA,NA,https://api.scraperapi.com/?url=https%3A%2F%2Fbagshot.cylex-uk.co.uk%2Fcompany%2Fstevens-heating-26871393.html&api_key=adc3d866682a18dad67c04d3bcbc7f1c&scraper_sdk=python
Nigel Jeffries Landscapes Ltd,30 Yaverland Dr ,GU19 5DX,Bagshot ,Surrey England,01276 476365,NA,NA,www.nigel-jeffries.co.uk,NA,NA,NA,NA,NA,07:00 - 17:30,07:00 - 17:30,Closed,Closed,07:00 - 17:30,07:00 - 17:30,07:00 - 17:30,https://api.scraperapi.com/?url=https%3A%2F%2Fbagshot.cylex-uk.co.uk%2Fcompany%2Fnigel-jeffries-landscapes-ltd-26738512.html&api_key=adc3d866682a18dad67c04d3bcbc7f1c&scraper_sdk=python
Aminti Kids Ltd,8 Yaverland Drive ,GU19 5DX,Bagshot ,Surrey England,020 3488 2133,NA,NA,,"Dresses, Shirts, Skirts, Waistcoats, Party Dresses",We serve and deliver our products to all areas of the UK as well as worldwide.,"Children's Clothing Store, Children's & Babies' Clothes Shops, Clothing Shops, Business Support, Children's Clothing Boutique, African Dresses for Girls, African Print Dresses for Kids, African Print Shirts for Boys, African Skirts for Girls, Christmas Clothes for Girls, Clothes for Children Online, Cute Clothes for Little Girls, Girls Flared Dresses, Girls Party Dresses Online, Girls Skirts Online, Kids Apparel Online, Kids Dresses Online, Kids Party Wear Dresses for Girls, Kids Wear Online, Kids Wear UK, Unique Children Clothing",NA,NA,NA,NA,NA,NA,NA,NA,NA,https://api.scraperapi.com/?url=https%3A%2F%2Fbagshot.cylex-uk.co.uk%2Fcompany%2Faminti-kids-ltd-25754101.html&api_key=adc3d866682a18dad67c04d3bcbc7f1c&scraper_sdk=python
ACCADEMIA BRIDGE COMPANY LIMITED,1 VICARAGE ROAD ,GU19 5EJ,Bagshot ,Surrey England,NA,NA,NA,,NA,NA,"Software Development, Software Publishing",NA,NA,NA,NA,NA,NA,NA,NA,NA,https://api.scraperapi.com/?url=https%3A%2F%2Fbagshot.cylex-uk.co.uk%2Fcompany%2Faccademia-bridge-company-limited-22039372.html&api_key=adc3d866682a18dad67c04d3bcbc7f1c&scraper_sdk=python
ALF SCAFFOLDING LIMITED,125 Yaverland Drive ,GU19 5DZ,Bagshot ,Surrey England,NA,NA,NA,,NA,NA,Scaffolding Erectors,NA,NA,NA,NA,NA,NA,NA,NA,NA,https://api.scraperapi.com/?url=https%3A%2F%2Fbagshot.cylex-uk.co.uk%2Fcompany%2Falf-scaffolding-limited-24024340.html&api_key=adc3d866682a18dad67c04d3bcbc7f1c&scraper_sdk=python
Nationwide Assessment Ltd,159 YAVERLAND DRIVE ,GU19 5DY,Bagshot ,Surrey England,NA,NA,NA,,NA,NA,"Research Organisations, Scientific and Technical Services",NA,NA,NA,NA,NA,NA,NA,NA,NA,https://api.scraperapi.com/?url=https%3A%2F%2Fbagshot.cylex-uk.co.uk%2Fcompany%2Fnationwide-assessment-ltd-21821241.html&api_key=adc3d866682a18dad67c04d3bcbc7f1c&scraper_sdk=python
Rs Jones Roofing,88 Yaverland Drive ,GU19 5DY,Bagshot ,Surrey England,01276 471928,07798 587149,NA,rs-jones.co.uk,NA,"roof repair, roof extension, roof replacement, lead welding, slating, legworks, Roofing Services","Roofing Contractors, Slate Roof Replacing",NA,NA,NA,NA,NA,NA,NA,NA,NA,https://api.scraperapi.com/?url=https%3A%2F%2Fbagshot.cylex-uk.co.uk%2Fcompany%2Frs-jones-roofing-19321379.html&api_key=adc3d866682a18dad67c04d3bcbc7f1c&scraper_sdk=python
Little Yews Management Limited,95 YAVERLAND DRIVE ,GU19 5DZ,Bagshot ,Surrey England,NA,NA,NA,,NA,NA,Private Households,NA,NA,NA,NA,NA,NA,NA,NA,NA,https://api.scraperapi.com/?url=https%3A%2F%2Fbagshot.cylex-uk.co.uk%2Fcompany%2Flittle-yews-management-limited-21736914.html&api_key=adc3d866682a18dad67c04d3bcbc7f1c&scraper_sdk=python
Funky Felines,33 Yaverland Drive ,GU19 5DX,Bagshot ,Surrey England,01276 475668,NA,NA,funky-felines.co.uk,NA,Pet Services,"Dog Toys, Cat Toys, Cat Accessories, Pet Sitting",NA,NA,NA,NA,NA,NA,NA,NA,NA,https://api.scraperapi.com/?url=https%3A%2F%2Fbagshot.cylex-uk.co.uk%2Fcompany%2Ffunky-felines-22985947.html&api_key=adc3d866682a18dad67c04d3bcbc7f1c&scraper_sdk=python
Vma Design Limited,165 YAVERLAND DRIVE ,GU19 5DY,Bagshot ,Surrey England,NA,NA,NA,,NA,"Joinery, Joinery Installation",NA,NA,NA,NA,NA,NA,NA,NA,NA,NA,https://api.scraperapi.com/?url=https%3A%2F%2Fbagshot.cylex-uk.co.uk%2Fcompany%2Fvma-design-limited-22188722.html&api_key=adc3d866682a18dad67c04d3bcbc7f1c&scraper_sdk=python
S.R.L. Scaffolding Limited,125 YAVERLAND DRIVE ,GU19 5DZ,Bagshot ,Surrey England,NA,NA,NA,,NA,NA,Scaffolding Erectors,NA,NA,NA,NA,NA,NA,NA,NA,NA,https://api.scraperapi.com/?url=https%3A%2F%2Fbagshot.cylex-uk.co.uk%2Fcompany%2Fs-r-l--scaffolding-limited-21991342.html&api_key=adc3d866682a18dad67c04d3bcbc7f1c&scraper_sdk=python
T Alderman Limited,7 YAVERLAND DRIVE ,GU19 5DX,Bagshot ,Surrey England,NA,NA,NA,,NA,"Building Completion, Building Maintenance",NA,NA,Builders,NA,NA,NA,NA,NA,NA,NA,https://api.scraperapi.com/?url=https%3A%2F%2Fbagshot.cylex-uk.co.uk%2Fcompany%2Ft-alderman-limited-22087249.html&api_key=adc3d866682a18dad67c04d3bcbc7f1c&scraper_sdk=python
Athena Software Design Limited,167 YAVERLAND DRIVE ,GU19 5DY,Bagshot ,Surrey England,NA,NA,NA,,NA,NA,"Business Support, Business Advice",NA,NA,NA,NA,NA,NA,NA,NA,NA,https://api.scraperapi.com/?url=https%3A%2F%2Fbagshot.cylex-uk.co.uk%2Fcompany%2Fathena-software-design-limited-21056878.html&api_key=adc3d866682a18dad67c04d3bcbc7f1c&scraper_sdk=python
Dorota Holden Photography,Yeld Road ,DE45 1FJ,Bakewell ,Derbyshire England,07817 424672,NA,NA,www.dorotaholdenphotography.com,NA,NA,NA,NA,NA,NA,NA,NA,NA,NA,NA,NA,https://api.scraperapi.com/?url=https%3A%2F%2Fbakewell.cylex-uk.co.uk%2Fcompany%2Fdorota-holden-photography-26621849.html&api_key=adc3d866682a18dad67c04d3bcbc7f1c&scraper_sdk=python
Peak District Enterprises Ltd,53 YELD ROAD ,DE45 1FW,Bakewell ,Derbyshire England,NA,NA,NA,,NA,NA,"Management Consultants, Financial Management, Business Consultants",NA,NA,NA,NA,NA,NA,NA,NA,NA,https://api.scraperapi.com/?url=https%3A%2F%2Fbakewell.cylex-uk.co.uk%2Fcompany%2Fpeak-district-enterprises-ltd-21882233.html&api_key=adc3d866682a18dad67c04d3bcbc7f1c&scraper_sdk=python
The Old Vicarage,Yeld Road ,DE45 1FJ,Bakewell ,Derbyshire England,01629 814659,01629 814330,NA,www.westwickgroup.com,NA,Healthcare,"Residential Care Homes, Care Homes, Assisted Living, Personal Care Services, Nursing Home, Retirement Homes, Dementia Care, Residential Homes, Assisted Living Facilities, Rest Homes, Nursing Care Homes, Convalescent Homes, Elderly Care Homes, Old People's Homes, Home Care Services, Carers, Home Care Agency, Learning Difficulties, Community, Old Age 65, Residential, Home Care, Homes, Care Services, Social Interaction, Welfare, Physical Disability",NA,Hospitals and Medical Establishments,NA,NA,NA,NA,NA,NA,NA,https://api.scraperapi.com/?url=https%3A%2F%2Fbakewell.cylex-uk.co.uk%2Fcompany%2Fthe-old-vicarage-13489876.html&api_key=adc3d866682a18dad67c04d3bcbc7f1c&scraper_sdk=python
Treasures of Ballater,"1, Victoria Rd ",AB35 5QQ,Ballater ,Aberdeenshire Scotland,01339 755122,NA,NA,,NA,House Clearance,Antique Shops,NA,NA,NA,NA,NA,NA,NA,NA,NA,https://api.scraperapi.com/?url=https%3A%2F%2Fballater.cylex-uk.co.uk%2Fcompany%2Ftreasures-of-ballater-17076495.html&api_key=adc3d866682a18dad67c04d3bcbc7f1c&scraper_sdk=python
The Language Factory Scotland Ltd,"Craig Vallich, 33 Victoria Road ",AB35 5QX,Ballater ,Aberdeenshire Scotland,NA,NA,NA,,NA,NA,"Educational Services, Education, Training Courses, Adult Education",NA,NA,NA,NA,NA,NA,NA,NA,NA,https://api.scraperapi.com/?url=https%3A%2F%2Fballater.cylex-uk.co.uk%2Fcompany%2Fthe-language-factory-scotland-ltd-20870773.html&api_key=adc3d866682a18dad67c04d3bcbc7f1c&scraper_sdk=python
Arisaig Cottage,Arisaig Cottage 36 Victoria Road ,AB35 5QX,Ballater ,Aberdeenshire Scotland,01339 755177,01339 755149,NA,www.ballatercottages.co.uk,NA,"Holiday Accommodation, Self-catering Holidays","Holiday Cottages, Golf Holidays",NA,NA,NA,NA,NA,NA,NA,NA,NA,https://api.scraperapi.com/?url=https%3A%2F%2Fballater.cylex-uk.co.uk%2Fcompany%2Farisaig-cottage-22990744.html&api_key=adc3d866682a18dad67c04d3bcbc7f1c&scraper_sdk=python
India On the Green Restaurant,9 Victoria Road ,AB35 5QQ,Ballater ,Aberdeenshire Scotland,01339 755701,NA,NA,www.postcodesex.co.uk,NA,"Number of shared bathrooms, breakfast, child friendly, credit cards accepted, english restaurants, private dining, scottish restaurants, traditional lunches, wheelchair accessible, bed and breakfast, en-suite rooms","Takeaway, Scottish Restaurant, Indians, Ensuite Room, Traditional Lunch","Takes Reservations, Take Away, Good for Groups, Wheelchair Accessible, Credit Cards Accepted",NA,12:00 - 23:00,12:00 - 23:00,12:00 - 23:00,12:00 - 23:00,12:00 - 23:00,12:00 - 23:00,12:00 - 23:00,https://api.scraperapi.com/?url=https%3A%2F%2Fballater.cylex-uk.co.uk%2Fcompany%2Findia-on-the-green-restaurant-26248813.html&api_key=adc3d866682a18dad67c04d3bcbc7f1c&scraper_sdk=python
Gairnlodge Ltd,1 Victoria Road ,AB35 5QQ,Ballater ,Aberdeenshire Scotland,01339 755 122,NA,NA,,NA,NA,"Jewellers, Antique Shops, Retailers, Warehousing & Storage",NA,NA,NA,NA,NA,NA,NA,NA,NA,https://api.scraperapi.com/?url=https%3A%2F%2Fballater.cylex-uk.co.uk%2Fcompany%2Fgairnlodge-ltd-19911850.html&api_key=adc3d866682a18dad67c04d3bcbc7f1c&scraper_sdk=python
Jackal Properties Limited,33 Victoria Road ,AB35 5QX,Ballater ,Aberdeenshire Scotland,NA,NA,NA,,NA,NA,"Estate Agents, Real Estate",NA,NA,NA,NA,NA,NA,NA,NA,NA,https://api.scraperapi.com/?url=https%3A%2F%2Fballater.cylex-uk.co.uk%2Fcompany%2Fjackal-properties-limited-22591834.html&api_key=adc3d866682a18dad67c04d3bcbc7f1c&scraper_sdk=python
Skibraemar.com Ski & Board Hire,3 VICTORIA ROAD. ,AB35 5QQ,Ballater ,Aberdeenshire Scotland,07768 517829,NA,NA,,Bikes,NA,"Bike Shop, Mountain Bikes, Cycle Hire, Bike Repair, Scotland, Royal, Mountains, Cycle Shops and Repairs, Miscellaneous Sporting Goods Manufacturers",NA,NA,NA,NA,NA,NA,NA,NA,NA,https://api.scraperapi.com/?url=https%3A%2F%2Fballater.cylex-uk.co.uk%2Fcompany%2Fskibraemar-com-ski---board-hire-17170110.html&api_key=adc3d866682a18dad67c04d3bcbc7f1c&scraper_sdk=python
Rowan Antiques,1 Victoria Road ,AB35 5QQ,Ballater ,Aberdeenshire Scotland,01339 755122,NA,NA,rowanjewellery.com,Mirrors,NA,"Jewellery, Jewellery Shops, Shopping & Retail, Shopping, Retail, Jewelry & Watches Store, Lamps, Porcelain, Antique Stores, Paintigns",NA,NA,10:30 - 17:00,10:30 - 17:00,10:30 - 17:00,Closed,10:30 - 17:00,Closed,Closed,https://api.scraperapi.com/?url=https%3A%2F%2Fballater.cylex-uk.co.uk%2Fcompany%2Frowan-antiques-17119391.html&api_key=adc3d866682a18dad67c04d3bcbc7f1c&scraper_sdk=python
John M Pringle,8 Victoria Road ,AB35 5QQ,Ballater ,Aberdeenshire Scotland,01339 755525,01339 755361,NA,,Souvenirs,NA,"Gifts, Gift Shop, Birthday Gifts, Special Occasion Gifts, Gift Ideas",NA,NA,NA,NA,NA,NA,NA,NA,NA,https://api.scraperapi.com/?url=https%3A%2F%2Fballater.cylex-uk.co.uk%2Fcompany%2Fjohn-m-pringle-17057647.html&api_key=adc3d866682a18dad67c04d3bcbc7f1c&scraper_sdk=python
Victoria Garage,8 Victoria Road ,AB35 5QQ,Ballater ,Aberdeenshire Scotland,01339 755525,01376 551448,NA,,NA,Garage Services,NA,NA,NA,NA,NA,NA,NA,NA,NA,NA,https://api.scraperapi.com/?url=https%3A%2F%2Fballater.cylex-uk.co.uk%2Fcompany%2Fvictoria-garage-17129850.html&api_key=adc3d866682a18dad67c04d3bcbc7f1c&scraper_sdk=python
Cyclehighlands Ltd,"The Pavilion, Victoria Road ",AB35 5QQ,Ballater ,Aberdeenshire Scotland,01339 755864,NA,NA,www.cyclehighlands.com,"Bikes, Motorcycle Clothing","Free Quotes, Free Parking, Free Initial Consultation, Bmx bikes, Cycle hire, Cycle shops & repairs, Electric bicycles, Motorcycle clothing, Mountain bicycles, Secondhand bicycles, Repair","Bike Shop, Retail Shops, Mountain Bikes, Bicycle Shops, Cannondale, Second Hand Bicycles, Cycling, Bike Hire, Bike Repair, Local Business, Shopping & Retail, Sales, Scotland, Department Store, Performance & Event Venue, Historical Places, Royal, Ski, Felt, Charge, Mountains, Mongoose, Kona, Rocky Mountains, Snowboard Hire, GT, Cycle Shops and Repairs, The Cove",Free Parking,Art Gallery,09:00 - 17:00,09:00 - 17:00,09:00 - 17:00,09:00 - 17:00,09:00 - 17:00,09:00 - 17:00,09:00 - 17:00,https://api.scraperapi.com/?url=https%3A%2F%2Fballater.cylex-uk.co.uk%2Fcompany%2Fcyclehighlands-ltd-17732077.html&api_key=adc3d866682a18dad67c04d3bcbc7f1c&scraper_sdk=python
Ballater Golf Club,Victoria Road ,AB35 5QX,Ballater ,Aberdeenshire Scotland,01339 755567,01339 755057,NA,www.ballatergolfclub.co.uk/home.aspx?i=no,NA,NA,"Golf Course, Golf Club, Golf Equipment, Golf Accessories, Golf Goods and Equipment Retailers, Photographer, Professional Services, Club, Golf Club Membership, Golf Players, Courses & Professionals, Lifestyles, Golfer",NA,NA,11:00 - 23:00,11:00 - 23:00,11:00 - 23:00,12:00 - 22:30,11:00 - 23:00,11:00 - 23:00,11:00 - 23:00,https://api.scraperapi.com/?url=https%3A%2F%2Fballater.cylex-uk.co.uk%2Fcompany%2Fballater-golf-club-17753441.html&api_key=adc3d866682a18dad67c04d3bcbc7f1c&scraper_sdk=python
Wheelin Around,Victoria Road ,AB35 5QQ,Ballater ,Aberdeenshire Scotland,01339 755864,NA,NA,,NA,Leasing,"Cycles, Cycle Hire, Bicycle Hire, Bicycle Rental, Cycles Renting & Leasing, Renting",NA,NA,NA,NA,NA,NA,NA,NA,NA,https://api.scraperapi.com/?url=https%3A%2F%2Fballater.cylex-uk.co.uk%2Fcompany%2Fwheelin-around-17124832.html&api_key=adc3d866682a18dad67c04d3bcbc7f1c&scraper_sdk=python
Ballater Chip Shop,8-9 Viewfield Rd ,AB35 5QD,Ballater ,Aberdeenshire Scotland,01339 755119,NA,NA,,NA,NA,NA,NA,NA,16:30 - 21:00,16:30 - 21:00,16:30 - 21:00,16:30 - 21:00,Closed,16:30 - 21:00,16:30 - 21:00,https://api.scraperapi.com/?url=https%3A%2F%2Fballater.cylex-uk.co.uk%2Fcompany%2Fballater-chip-shop-26376514.html&api_key=adc3d866682a18dad67c04d3bcbc7f1c&scraper_sdk=python
Bealach Cottage,Viewfield Rd ,AB35 5RD,Ballater ,Aberdeenshire Scotland,01339 883518,NA,NA,www.bealachballater.co.uk,NA,NA,NA,NA,NA,NA,NA,NA,NA,NA,NA,NA,https://api.scraperapi.com/?url=https%3A%2F%2Fballater.cylex-uk.co.uk%2Fcompany%2Fbealach-cottage-27114663.html&api_key=adc3d866682a18dad67c04d3bcbc7f1c&scraper_sdk=python
C R H Nicol,8 Viewfield Rd ,AB35 5RD,Ballater ,Aberdeenshire Scotland,0133 975 5654,NA,NA,,NA,"Taxis, Private Hire Vehicles, Taxi Service, Minicabs, Taxicabs",NA,NA,Taxi Company,NA,NA,NA,NA,NA,NA,NA,https://api.scraperapi.com/?url=https%3A%2F%2Fballater.cylex-uk.co.uk%2Fcompany%2Fc-r-h-nicol-18747310.html&api_key=adc3d866682a18dad67c04d3bcbc7f1c&scraper_sdk=python
NAPIER & SONS LIMITED,Glen Quoich Viewfield Road ,AB35 5RD,Ballater ,Aberdeenshire Scotland,NA,NA,NA,,NA,Civil Engineering,NA,NA,NA,NA,NA,NA,NA,NA,NA,NA,https://api.scraperapi.com/?url=https%3A%2F%2Fballater.cylex-uk.co.uk%2Fcompany%2Fnapier---sons-limited-25622027.html&api_key=adc3d866682a18dad67c04d3bcbc7f1c&scraper_sdk=python
Ballater Chippy,2 Viewfield Rd ,AB35 5RD,Ballater ,Aberdeenshire Scotland,01339 755119,01339 755362,0116 272 7345,,NA,NA,"Takeaway, Fish & Chip Shops & Restaurants, Chip Shop, Fish Shop",NA,NA,NA,NA,NA,NA,NA,NA,NA,https://api.scraperapi.com/?url=https%3A%2F%2Fballater.cylex-uk.co.uk%2Fcompany%2Fballater-chippy-17267801.html&api_key=adc3d866682a18dad67c04d3bcbc7f1c&scraper_sdk=python
C & J Nicol,"DUNVEGAN, 8 VIEWFIELD ROAD ",AB35 5RD,Ballater ,Aberdeenshire Scotland,013397 55654,01582 608629,NA,,NA,"airport transfers, Private Hire, Taxis, Taxis and Private Hire, Taxi Service, Cabs, Taxicabs",Taxis & Private Hire Vehicles,NA,Taxi Company,NA,NA,NA,NA,NA,NA,NA,https://api.scraperapi.com/?url=https%3A%2F%2Fballater.cylex-uk.co.uk%2Fcompany%2Fc---j-nicol-17113627.html&api_key=adc3d866682a18dad67c04d3bcbc7f1c&scraper_sdk=python
