Name,Street,Postal,Locality,Region,Phone,Mobile,Fax,Website,Products,Service,Keyword,Facilities,Categories,Thursday,Friday,Saturday,Sunday,Monday,Tuesday,Wednesday,URL
PRECIOUS PAWS PROFESSIONAL PET CARE SERVICES LTD,29 Victoria Street ,FK10 2DZ,Alloa ,Clackmannanshire Scotland,NA,NA,NA,,NA,NA,Personal Services,NA,NA,NA,NA,NA,NA,NA,NA,NA,https://api.scraperapi.com/?url=https%3A%2F%2Falloa.cylex-uk.co.uk%2Fcompany%2Fprecious-paws-professional-pet-care-services-ltd-24927044.html&api_key=adc3d866682a18dad67c04d3bcbc7f1c&scraper_sdk=python
Mckay Logistics Ltd,"9 WOODSIDE ROAD, INGLEWOOD ",FK10 2HW,Alloa ,Clackmannanshire Scotland,NA,NA,NA,,NA,NA,Road Haulage,NA,NA,NA,NA,NA,NA,NA,NA,NA,https://api.scraperapi.com/?url=https%3A%2F%2Falloa.cylex-uk.co.uk%2Fcompany%2Fmckay-logistics-ltd-22674634.html&api_key=adc3d866682a18dad67c04d3bcbc7f1c&scraper_sdk=python
Phil Harland Photography,29 Swan Dr ,RG7 4UZ,Aldermaston ,Berkshire England,0118 971 3271,NA,NA,www.philharlandphotography.com,NA,NA,NA,NA,NA,09:00 - 18:00,09:00 - 18:00,Closed,Closed,09:00 - 18:00,09:00 - 18:00,09:00 - 18:00,https://api.scraperapi.com/?url=https%3A%2F%2Faldermaston.cylex-uk.co.uk%2Fcompany%2Fphil-harland-photography-27174991.html&api_key=adc3d866682a18dad67c04d3bcbc7f1c&scraper_sdk=python
THE SIMPLY CORPORATION LTD,"15 SWAN DRIVE, ALDERMASTON WHARF ",RG7 4UZ,Aldermaston ,Berkshire England,NA,NA,NA,,NA,NA,"Consultancy, Head Office, Corporate Head Office Management",NA,NA,NA,NA,NA,NA,NA,NA,NA,https://api.scraperapi.com/?url=https%3A%2F%2Faldermaston.cylex-uk.co.uk%2Fcompany%2Fthe-simply-corporation-ltd-21398846.html&api_key=adc3d866682a18dad67c04d3bcbc7f1c&scraper_sdk=python
Red Gem Ventures Ltd,11 SWAN DRIVE ,RG7 4UZ,Aldermaston ,Berkshire England,NA,NA,NA,,NA,NA,"Financial Services, Financial Management",NA,NA,NA,NA,NA,NA,NA,NA,NA,https://api.scraperapi.com/?url=https%3A%2F%2Faldermaston.cylex-uk.co.uk%2Fcompany%2Fred-gem-ventures-ltd-22791367.html&api_key=adc3d866682a18dad67c04d3bcbc7f1c&scraper_sdk=python
M Campion Dairies Ltd,18 UPPER HIGHWAY ,WD5 0JF,Abbots Langley ,Hertfordshire England,NA,NA,NA,,NA,NA,"Supermarkets, Specialist Shops",NA,NA,NA,NA,NA,NA,NA,NA,NA,https://api.scraperapi.com/?url=https%3A%2F%2Fabbots-langley.cylex-uk.co.uk%2Fcompany%2Fm-campion-dairies-ltd-21750907.html&api_key=adc3d866682a18dad67c04d3bcbc7f1c&scraper_sdk=python
Parvin Homeopathy,52 Upper Hwy ,WD5 0JE,Abbots Langley ,Hertfordshire England,01923 262449,07976 363743,NA,,NA,NA,NA,NA,NA,NA,NA,NA,NA,NA,NA,NA,https://api.scraperapi.com/?url=https%3A%2F%2Fabbots-langley.cylex-uk.co.uk%2Fcompany%2Fparvin-homeopathy-26743998.html&api_key=adc3d866682a18dad67c04d3bcbc7f1c&scraper_sdk=python
Kinwarton Parish Council,4 Winchcombe Rd ,B49 6QL,Alcester ,Warwickshire England,01789 400188,07886 139781,NA,www.kinwartonpc.org,NA,NA,NA,NA,NA,NA,NA,NA,NA,NA,NA,NA,https://api.scraperapi.com/?url=https%3A%2F%2Falcester.cylex-uk.co.uk%2Fcompany%2Fkinwarton-parish-council-26641172.html&api_key=adc3d866682a18dad67c04d3bcbc7f1c&scraper_sdk=python
Buick's (Alloa) Limited,9 Union St ,FK10 1EL,Alloa ,Clackmannanshire Scotland,01259 213711,NA,NA,home-hardware.co.uk,NA,NA,"DIY Stores, Hardware Retailer, Hardware Store",NA,"Paint Shop, Glass Shop",08:00 - 17:30,08:00 - 17:30,08:00 - 17:30,10:00 - 16:00,08:00 - 17:30,08:00 - 17:30,08:00 - 17:30,https://api.scraperapi.com/?url=https%3A%2F%2Falloa.cylex-uk.co.uk%2Fcompany%2Fbuick%2527s--alloa--limited-21132322.html&api_key=adc3d866682a18dad67c04d3bcbc7f1c&scraper_sdk=python
The Haulfryn Park Homes,WINKWORTH LANE ,RG7 4QA,Aldermaston ,Berkshire England,0118 981 4666,0118 981 4666,NA,,NA,NA,"Mobile Homes, Accommodation, Mobiles",NA,NA,NA,NA,NA,NA,NA,NA,NA,https://api.scraperapi.com/?url=https%3A%2F%2Faldermaston.cylex-uk.co.uk%2Fcompany%2Fthe-haulfryn-park-homes-16497242.html&api_key=adc3d866682a18dad67c04d3bcbc7f1c&scraper_sdk=python
Ats Scotland Ltd,Union Street ,FK10 1EL,Alloa ,Clackmannanshire Scotland,01259 724 253,NA,NA,,NA,NA,NA,NA,Tyre Dealers,NA,NA,NA,NA,NA,NA,NA,https://api.scraperapi.com/?url=https%3A%2F%2Falloa.cylex-uk.co.uk%2Fcompany%2Fats-scotland-ltd-19916721.html&api_key=adc3d866682a18dad67c04d3bcbc7f1c&scraper_sdk=python
Primelife - Meadow View,Wharrage Road ,B49 6PR,Alcester ,Warwickshire England,01789 766739,NA,NA,www.prime-life.co.uk,NA,"Dementia Care, Elderly Care, Mental Disability, Physical Disability",Care Homes,"All en-suite wet room bathrooms, All single room accommodation, Bedrooms leading on to private patio areas, Cold drinks dispensers in lounge areas, Full Wi-Fi Coverage, Garden Lounge, Hairdressing salon, Hearing loops in all lounges, Open access kitchen facilities, Secure garden area, Sensory room, Spacious dining and lounge areas",Hair Salon,NA,NA,NA,NA,NA,NA,NA,https://api.scraperapi.com/?url=https%3A%2F%2Falcester.cylex-uk.co.uk%2Fcompany%2Fprimelife---meadow-view-24882766.html&api_key=adc3d866682a18dad67c04d3bcbc7f1c&scraper_sdk=python
Primelife - Meadow View Cottages,Wharrage Road ,B49 6PR,Alcester ,Warwickshire England,01789 766739,NA,NA,www.prime-life.co.uk,NA,"Elderly Care, Mental Disability, Physical Disability, Respite Care",Care Homes,"Affordable service charges, All en-suite wet room bathrooms, All single room accommodation, Domestic style one bedroom cottages, Flexible funding packages, Fully fitted kitchen/diners, Independent living accommodation, Level access shower rooms, Maintaining independence, Own Parking Space",NA,NA,NA,NA,NA,NA,NA,NA,https://api.scraperapi.com/?url=https%3A%2F%2Falcester.cylex-uk.co.uk%2Fcompany%2Fprimelife---meadow-view-cottages-24882828.html&api_key=adc3d866682a18dad67c04d3bcbc7f1c&scraper_sdk=python
Staffmasters Ltd,Birnam Station Road,RG7 8NN,Aldermaston ,Berkshire England,01205 821535,01205 821533,NA,,NA,NA,"Recruitment Agencies, IT Services, Computer Services",NA,NA,NA,NA,NA,NA,NA,NA,NA,https://api.scraperapi.com/?url=https%3A%2F%2Faldermaston.cylex-uk.co.uk%2Fcompany%2Fstaffmasters-ltd-13485382.html&api_key=adc3d866682a18dad67c04d3bcbc7f1c&scraper_sdk=python
The Fixtures Pool,2 Wain Close ,B49 6LA,Alcester ,Warwickshire England,01789 400082,NA,NA,www.fixturespool.com,NA,NA,Rugby Pool Suppliers,NA,NA,09:00 - 24:00,09:00 - 24:00,09:00 - 24:00,Closed,09:00 - 24:00,09:00 - 24:00,09:00 - 24:00,https://api.scraperapi.com/?url=https%3A%2F%2Falcester.cylex-uk.co.uk%2Fcompany%2Fthe-fixtures-pool-20053791.html&api_key=adc3d866682a18dad67c04d3bcbc7f1c&scraper_sdk=python
The Butt Inn,STATION ROAD ,RG7 4LA,Aldermaston ,Berkshire England,0118 971 3309,07903 006790,NA,https://www.thebuttinn.biz/,Beverages,NA,"Pubs, Public Houses, Bars, Bars and Inns, Drinking Establishments, Inn, Going out, Having Fun, Drinking, Night Clubs",NA,NA,11:30 - 23:00,11:30 - 23:30,11:30 - 23:30,12:00 - 21:00,11:30 - 22:00,11:30 - 23:00,11:30 - 23:00,https://api.scraperapi.com/?url=https%3A%2F%2Faldermaston.cylex-uk.co.uk%2Fcompany%2Fthe-butt-inn-13103357.html&api_key=adc3d866682a18dad67c04d3bcbc7f1c&scraper_sdk=python
RD BUILDING SERVICES LTD,9 Wain Close ,B49 6LA,Alcester ,Warwickshire England,NA,NA,NA,,NA,NA,NA,NA,Builders,NA,NA,NA,NA,NA,NA,NA,https://api.scraperapi.com/?url=https%3A%2F%2Falcester.cylex-uk.co.uk%2Fcompany%2Frd-building-services-ltd-25661758.html&api_key=adc3d866682a18dad67c04d3bcbc7f1c&scraper_sdk=python
Victoria Rouse,2 Winchcombe Rd ,B49 6QL,Alcester ,Warwickshire England,07798 785706,NA,NA,www.one2onediet.com/consultants/results?c=gb&q=+b49+6ql,NA,NA,NA,NA,NA,Open 24 Hours,Open 24 Hours,Open 24 Hours,Open 24 Hours,Open 24 Hours,Open 24 Hours,Open 24 Hours,https://api.scraperapi.com/?url=https%3A%2F%2Falcester.cylex-uk.co.uk%2Fcompany%2Fvictoria-rouse-27004322.html&api_key=adc3d866682a18dad67c04d3bcbc7f1c&scraper_sdk=python
The Old Mill,Station Rd ,RG7 4LB,Aldermaston ,Berkshire England,0118 971 2365,0118 971 2371,NA,theoldmillaldermaston.co.uk,NA,"Venue Hire, Venues for Hire","Restaurants, Event Venues, Wedding Reception, Wedding Venues",NA,"Hall, Venue",NA,NA,NA,NA,NA,NA,NA,https://api.scraperapi.com/?url=https%3A%2F%2Faldermaston.cylex-uk.co.uk%2Fcompany%2Fthe-old-mill-13108334.html&api_key=adc3d866682a18dad67c04d3bcbc7f1c&scraper_sdk=python
A W A Business Services Ltd,20 WINCHCOMBE ROAD ,B49 6QL,Alcester ,Warwickshire England,01789 763 525,NA,NA,,NA,NA,"Accountants, Accounting, Accountancy, Financial Services, Auditing, Chartered Accountants, Tax",NA,NA,NA,NA,NA,NA,NA,NA,NA,https://api.scraperapi.com/?url=https%3A%2F%2Falcester.cylex-uk.co.uk%2Fcompany%2Fa-w-a-business-services-ltd-19911119.html&api_key=adc3d866682a18dad67c04d3bcbc7f1c&scraper_sdk=python
A.B.A. Controls Limited,20 WINCHCOMBE ROAD ,B49 6QL,Alcester ,Warwickshire England,NA,NA,NA,,NA,NA,NA,NA,Dormant Companies,NA,NA,NA,NA,NA,NA,NA,https://api.scraperapi.com/?url=https%3A%2F%2Falcester.cylex-uk.co.uk%2Fcompany%2Fa-b-a--controls-limited-22267193.html&api_key=adc3d866682a18dad67c04d3bcbc7f1c&scraper_sdk=python
Alcock Watson Associates Limited,20 WINCHCOMBE ROAD ,B49 6QL,Alcester ,Warwickshire England,01789 763525,NA,NA,,NA,NA,"Accountants, Accounting, Auditing",NA,NA,NA,NA,NA,NA,NA,NA,NA,https://api.scraperapi.com/?url=https%3A%2F%2Falcester.cylex-uk.co.uk%2Fcompany%2Falcock-watson-associates-limited-21016553.html&api_key=adc3d866682a18dad67c04d3bcbc7f1c&scraper_sdk=python
Nda Recycling Limited,16 WINCHCOMBE ROAD ,B49 6QL,Alcester ,Warwickshire England,01789 763388,NA,NA,ndarecycling.com,NA,Waste Disposal,"Waste Treatment, Non-Hazardous Waste Disposal",NA,NA,NA,NA,NA,NA,NA,NA,NA,https://api.scraperapi.com/?url=https%3A%2F%2Falcester.cylex-uk.co.uk%2Fcompany%2Fnda-recycling-limited-21823178.html&api_key=adc3d866682a18dad67c04d3bcbc7f1c&scraper_sdk=python
St Faith's Road Management Company Limited,20 WINCHCOMBE ROAD ,B49 6QL,Alcester ,Warwickshire England,NA,NA,NA,,NA,NA,"Property Management, Residents Property Management",NA,NA,NA,NA,NA,NA,NA,NA,NA,https://api.scraperapi.com/?url=https%3A%2F%2Falcester.cylex-uk.co.uk%2Fcompany%2Fst-faith%2527s-road-management-company-limited-22057246.html&api_key=adc3d866682a18dad67c04d3bcbc7f1c&scraper_sdk=python
Wasing Estate,"Wasing Estate Farm Office, Wasing Park",RG7 4NB,Aldermaston ,Berkshire England,0118 971 4140,0118 971 3251,NA,www.wasing.co.uk,NA,NA,"Local Business, Farming, Mixed Farming, Mixed, Harvest, Country Cottages",NA,NA,NA,NA,NA,NA,NA,NA,NA,https://api.scraperapi.com/?url=https%3A%2F%2Faldermaston.cylex-uk.co.uk%2Fcompany%2Fwasing-estate-19699076.html&api_key=adc3d866682a18dad67c04d3bcbc7f1c&scraper_sdk=python
Jsk Blue Limited,"LOWER FARM BARNS, WASING ",RG7 4NG,Aldermaston ,Berkshire England,NA,NA,NA,,NA,NA,"Leisure, Recreational Service",NA,NA,NA,NA,NA,NA,NA,NA,NA,https://api.scraperapi.com/?url=https%3A%2F%2Faldermaston.cylex-uk.co.uk%2Fcompany%2Fjsk-blue-limited-21510775.html&api_key=adc3d866682a18dad67c04d3bcbc7f1c&scraper_sdk=python
Cape Plumbing Contractors Ltd,34 WINCHCOMBE ROAD ,B49 6QL,Alcester ,Warwickshire England,01789 766085,NA,NA,,NA,"Plumbing, Plumbing Repairs, Plumbing Problems, Plumbing Services, Plumbing and Heating Installations",NA,NA,"Plumber, Heating Contractors, Air Conditioning Contractors, Pipe Fitters",NA,NA,NA,NA,NA,NA,NA,https://api.scraperapi.com/?url=https%3A%2F%2Falcester.cylex-uk.co.uk%2Fcompany%2Fcape-plumbing-contractors-ltd-14264058.html&api_key=adc3d866682a18dad67c04d3bcbc7f1c&scraper_sdk=python
The Family Business,3 SWAN DRIVE ,RG7 4UZ,Aldermaston ,Berkshire England,NA,NA,NA,,NA,NA,"Business Organisations, Membership Organisations",NA,NA,NA,NA,NA,NA,NA,NA,NA,https://api.scraperapi.com/?url=https%3A%2F%2Faldermaston.cylex-uk.co.uk%2Fcompany%2Fthe-family-business-22114402.html&api_key=adc3d866682a18dad67c04d3bcbc7f1c&scraper_sdk=python
OJH Plumbing,3 Willow Close ,B49 5AZ,Alcester ,Warwickshire England,07568 074309,NA,NA,http://WWW.FACEBOOK.COM/OJHPLUMBING/,NA,NA,Bathroom Remodellers,NA,"Bathroom Remodeller, Plumber",NA,NA,NA,NA,NA,NA,NA,https://api.scraperapi.com/?url=https%3A%2F%2Falcester.cylex-uk.co.uk%2Fcompany%2Fojh-plumbing-27187116.html&api_key=adc3d866682a18dad67c04d3bcbc7f1c&scraper_sdk=python
Patrick Todd,"WASING PLACE, WASING PARK ",RG7 4NG,Aldermaston ,Berkshire England,0118 971 3756,01491 614564,01491 579833,www.simmonsandsons.com,Fine Art,NA,"Surveyors, Land Valuation, Surveyors & Valuers, Valuers, Property Valuation, Investment Values, Property Valuers, Estate Agents, Property, Letting Agents, Agents, Real Property, Lettings, Agricultural Agents, Estate Valuers, Agent Antiques, Agricultural Estate Agent, Art Surveyors, Antique Fine Art",NA,NA,NA,NA,NA,NA,NA,NA,NA,https://api.scraperapi.com/?url=https%3A%2F%2Faldermaston.cylex-uk.co.uk%2Fcompany%2Fpatrick-todd-13086066.html&api_key=adc3d866682a18dad67c04d3bcbc7f1c&scraper_sdk=python
The Cube Farm Limited,24 SWAN DRIVE ,RG7 4UZ,Aldermaston ,Berkshire England,NA,NA,NA,,NA,NA,"IT Services, IT Consultants",NA,NA,NA,NA,NA,NA,NA,NA,NA,https://api.scraperapi.com/?url=https%3A%2F%2Faldermaston.cylex-uk.co.uk%2Fcompany%2Fthe-cube-farm-limited-20865520.html&api_key=adc3d866682a18dad67c04d3bcbc7f1c&scraper_sdk=python
Artillery Mews Management Company Limited,28 SWAN DRIVE ,RG7 4UZ,Aldermaston ,Berkshire England,NA,NA,NA,,NA,NA,"Property Management, Residents Property Management",NA,NA,NA,NA,NA,NA,NA,NA,NA,https://api.scraperapi.com/?url=https%3A%2F%2Faldermaston.cylex-uk.co.uk%2Fcompany%2Fartillery-mews-management-company-limited-20155892.html&api_key=adc3d866682a18dad67c04d3bcbc7f1c&scraper_sdk=python
Green Turtle Limited,12 SWAN DRIVE ,RG7 4UZ,Aldermaston ,Berkshire England,NA,NA,NA,,NA,NA,"Research Organisations, Scientific and Technical Services",NA,NA,NA,NA,NA,NA,NA,NA,NA,https://api.scraperapi.com/?url=https%3A%2F%2Faldermaston.cylex-uk.co.uk%2Fcompany%2Fgreen-turtle-limited-21398196.html&api_key=adc3d866682a18dad67c04d3bcbc7f1c&scraper_sdk=python
Aldermaston Parish Hall,"45 The St, South Halls Cottage ",RG7 4LW,Aldermaston ,Berkshire England,0118 971 4057,07748 791544,NA,aldermastonparishhall.co.uk,Brownies,"Venue Hire, Hall Hire, Halls for Hire, Entertainment","Party Venues, Village Hall, Wedding Reception, Wedding Venues, Meeting Halls, Community, Kitchens, Dance, Bowls, Birthday Parties, Parish, Village, Toddler, Recreation/Sports Website, Aldermaston, Parish Hall, Ladies Group, Mains Hall, Meeting Places","staging, main hall, small hall, committee room, kitchen, accessible toilets, baby changing facilities, wheelchair access, parking",NA,08:00 - 23:45,08:00 - 23:45,08:00 - 23:45,08:00 - 23:45,08:00 - 23:45,08:00 - 23:45,08:00 - 23:45,https://api.scraperapi.com/?url=https%3A%2F%2Faldermaston.cylex-uk.co.uk%2Fcompany%2Faldermaston-parish-hall-18819563.html&api_key=adc3d866682a18dad67c04d3bcbc7f1c&scraper_sdk=python
The Bryett School Of Dance Aldermaston,ALDERMASTON PARISH HALL. THE STREET ,RG7 4LW,Aldermaston ,Berkshire England,01962 863061,NA,NA,,NA,NA,"Tap Dancing, Adult Ballet Classes",NA,NA,NA,NA,NA,NA,NA,NA,NA,https://api.scraperapi.com/?url=https%3A%2F%2Faldermaston.cylex-uk.co.uk%2Fcompany%2Fthe-bryett-school-of-dance-aldermaston-23007679.html&api_key=adc3d866682a18dad67c04d3bcbc7f1c&scraper_sdk=python
Aldermaston Antiques,"THE OLD DISPENSARY, THE STREET ",RG7 4LW,Aldermaston ,Berkshire England,0118 971 2370,01752 201200,NA,,NA,NA,"Antiques, Antique Dealers, Antique Shops, Antique Stores",NA,NA,NA,NA,NA,NA,NA,NA,NA,https://api.scraperapi.com/?url=https%3A%2F%2Faldermaston.cylex-uk.co.uk%2Fcompany%2Faldermaston-antiques-13768966.html&api_key=adc3d866682a18dad67c04d3bcbc7f1c&scraper_sdk=python
DM Bookkeeping & Accountancy Services,Wycliffe Ave ,KT15 1FG,Addlestone ,Surrey England,07549 948826,NA,NA,www.dmbookkeeping.org.uk,NA,NA,NA,NA,NA,07:00 - 20:00,07:00 - 20:00,07:00 - 20:00,07:00 - 20:00,07:00 - 20:00,07:00 - 20:00,07:00 - 20:00,https://api.scraperapi.com/?url=https%3A%2F%2Faddlestone.cylex-uk.co.uk%2Fcompany%2Fdm-bookkeeping---accountancy-services-26921430.html&api_key=adc3d866682a18dad67c04d3bcbc7f1c&scraper_sdk=python
Reconnect,"BROOK HOUSE, THE STREET ",RG7 4LN,Aldermaston ,Berkshire England,NA,NA,NA,reconnect.me.uk,NA,Psychotherapy Treatments,"Psychotherapy Therapists, Registered Psychotherapists, Integrative Psychotherapist, Body Psychotherapist, Psychotherapy Organisations, Psychotherapy Charity, Counselling",NA,NA,NA,NA,NA,NA,NA,NA,NA,https://api.scraperapi.com/?url=https%3A%2F%2Faldermaston.cylex-uk.co.uk%2Fcompany%2Freconnect-19117171.html&api_key=adc3d866682a18dad67c04d3bcbc7f1c&scraper_sdk=python
Mornington Software Consultants Ltd,35B The Street ,RG7 4LW,Aldermaston ,Berkshire England,0118 971 4258,070 9200 0323,NA,www.ms-consultants.co.uk,NA,NA,"IT Services, IT Consultants, Software Development",NA,NA,09:00 - 17:00,09:00 - 16:30,Closed,Closed,09:00 - 10:00,09:00 - 17:00,09:00 - 17:00,https://api.scraperapi.com/?url=https%3A%2F%2Faldermaston.cylex-uk.co.uk%2Fcompany%2Fmornington-software-consultants-ltd-14503452.html&api_key=adc3d866682a18dad67c04d3bcbc7f1c&scraper_sdk=python
All Square Angling Centre,Oak House Victory Park Rd ,KT15 2FG,Addlestone ,Surrey England,01932 858555,NA,NA,,NA,NA,NA,NA,Fishing Shop,09:00 - 17:30,09:00 - 17:30,09:00 - 17:30,Closed,09:00 - 17:30,09:00 - 17:30,09:00 - 17:30,https://api.scraperapi.com/?url=https%3A%2F%2Faddlestone.cylex-uk.co.uk%2Fcompany%2Fall-square-angling-centre-26324794.html&api_key=adc3d866682a18dad67c04d3bcbc7f1c&scraper_sdk=python
Image Cars Ltd,"1-2 Manton Terrace, Victory Park Rd ",KT15 2BP,Addlestone ,Surrey England,01932 827000,0870 197 5600,NA,imagecars.co.uk,NA,"coach services, executive cars, hotel transport, special events, Taxis, Private Hire, Taxis and Private Hire, Taxi Service, Minicabs, Airport Taxi, Driver, Taxi Hire, Airport Transfers, Private Hire Chauffeur, Minibus Hire, Chauffeur, Chauffeur Driven Cars, Coach Service","Hire, Private, Image Taxis, Image Cars","book online, online booking",Taxi Company,NA,NA,NA,NA,NA,NA,NA,https://api.scraperapi.com/?url=https%3A%2F%2Faddlestone.cylex-uk.co.uk%2Fcompany%2Fimage-cars-ltd-13263153.html&api_key=adc3d866682a18dad67c04d3bcbc7f1c&scraper_sdk=python
Wineberry Events Limited,14 Victoria Rd ,KT15 2PL,Addlestone ,Surrey England,07812 182604,NA,NA,,NA,NA,"Personal Services, Business Support Services",NA,NA,NA,NA,NA,NA,NA,NA,NA,https://api.scraperapi.com/?url=https%3A%2F%2Faddlestone.cylex-uk.co.uk%2Fcompany%2Fwineberry-events-limited-22218299.html&api_key=adc3d866682a18dad67c04d3bcbc7f1c&scraper_sdk=python
Elite Digital Resourcing Limited,"4 VICTORY PARK MEWS, VICTORY PARK ROAD",KT15 2AT,Addlestone ,Surrey England,NA,NA,NA,,NA,NA,"Business Support, Business Advice",NA,NA,NA,NA,NA,NA,NA,NA,NA,https://api.scraperapi.com/?url=https%3A%2F%2Faddlestone.cylex-uk.co.uk%2Fcompany%2Felite-digital-resourcing-limited-21298693.html&api_key=adc3d866682a18dad67c04d3bcbc7f1c&scraper_sdk=python
Grassmore Residents Company Limited,"26 JACARANDA HOUSE, WOBURN HILL PARK ",KT15 2NZ,Addlestone ,Surrey England,NA,NA,NA,,NA,NA,"Property Management, Residents Property Management",NA,NA,NA,NA,NA,NA,NA,NA,NA,https://api.scraperapi.com/?url=https%3A%2F%2Faddlestone.cylex-uk.co.uk%2Fcompany%2Fgrassmore-residents-company-limited-21395248.html&api_key=adc3d866682a18dad67c04d3bcbc7f1c&scraper_sdk=python
Bofia Revivals,"3 Manton Terrace, Victory Park Road ",KT15 2BP,Addlestone ,Surrey England,07949 429990,NA,NA,,NA,NA,NA,NA,NA,NA,NA,NA,NA,NA,NA,NA,https://api.scraperapi.com/?url=https%3A%2F%2Faddlestone.cylex-uk.co.uk%2Fcompany%2Fbofia-revivals-26421780.html&api_key=adc3d866682a18dad67c04d3bcbc7f1c&scraper_sdk=python
Shoot You Video Production,"1 Victory Park Rd, Victory House ",KT15 2FH,Addlestone ,Surrey England,01932 853696,NA,NA,www.shootyou.co.uk,NA,NA,"Video Production, Marketing Consultants, Public Relations Agency, Broadcasting & Media Production Company, Video Editing, Motion Graphics, Animation Production, Sound Recordings",NA,NA,09:00 - 17:30,09:00 - 17:30,Closed,Closed,09:00 - 17:30,09:00 - 17:30,09:00 - 17:30,https://api.scraperapi.com/?url=https%3A%2F%2Faddlestone.cylex-uk.co.uk%2Fcompany%2Fshoot-you-video-production-23789279.html&api_key=adc3d866682a18dad67c04d3bcbc7f1c&scraper_sdk=python
Kincraig Capital Limited,"FLAT 1 ST GEORGES GATE, WOBURN HILL ",KT15 2RJ,Addlestone ,Surrey England,NA,NA,NA,,NA,NA,"Holding Company, Distribution Companies",NA,NA,NA,NA,NA,NA,NA,NA,NA,https://api.scraperapi.com/?url=https%3A%2F%2Faddlestone.cylex-uk.co.uk%2Fcompany%2Fkincraig-capital-limited-21706570.html&api_key=adc3d866682a18dad67c04d3bcbc7f1c&scraper_sdk=python
Woburn Hill Park Limited,"15 JAPONICA HOUSE, WOBURN HILL, PARK ",KT15 2NZ,Addlestone ,Surrey England,NA,NA,NA,,NA,NA,"Property Management, Residents Property Management",NA,NA,NA,NA,NA,NA,NA,NA,NA,https://api.scraperapi.com/?url=https%3A%2F%2Faddlestone.cylex-uk.co.uk%2Fcompany%2Fwoburn-hill-park-limited-22221115.html&api_key=adc3d866682a18dad67c04d3bcbc7f1c&scraper_sdk=python
Brambledean Limited,"4 ST GEORGES GATE, WOBURN HILL ",KT15 2RJ,Addlestone ,Surrey England,NA,NA,NA,,NA,NA,"Management Consultants, Financial Management, Business Consultants",NA,NA,NA,NA,NA,NA,NA,NA,NA,https://api.scraperapi.com/?url=https%3A%2F%2Faddlestone.cylex-uk.co.uk%2Fcompany%2Fbrambledean-limited-21115047.html&api_key=adc3d866682a18dad67c04d3bcbc7f1c&scraper_sdk=python
Antix Management Limited,St. Georges Gate Woburn Hill ,KT15 2RJ,Addlestone ,Surrey England,07799 420754,0330 113 6811,NA,www.antixmanagement.co.uk,NA,Vehicle Leasing,"Digital Marketing, Business Insurance",NA,NA,09:00 - 17:00,09:00 - 17:00,09:00 - 17:00,09:00 - 14:00,09:00 - 17:00,09:00 - 17:00,09:00 - 17:00,https://api.scraperapi.com/?url=https%3A%2F%2Faddlestone.cylex-uk.co.uk%2Fcompany%2Fantix-management-limited-26325541.html&api_key=adc3d866682a18dad67c04d3bcbc7f1c&scraper_sdk=python
Reprographics,"1 Woburn Place, Woburn Hill ",KT15 2QE,Addlestone ,Surrey England,01932 850770,01932 843798,NA,,NA,"Equipment Hire, Copying, Photocopy","Copying and Duplicating, Duplicating Service, Machinery Hire, Photocopiers, Photocopier Products",NA,NA,NA,NA,NA,NA,NA,NA,NA,https://api.scraperapi.com/?url=https%3A%2F%2Faddlestone.cylex-uk.co.uk%2Fcompany%2Freprographics-16393608.html&api_key=adc3d866682a18dad67c04d3bcbc7f1c&scraper_sdk=python
Tellsons,16 Woodlands Park ,KT15 1AG,Addlestone ,Surrey England,01932 379542,056 0157 8197,NA,www.tellsons.com,NA,NA,NA,NA,NA,09:00 - 17:30,09:00 - 17:30,Closed,Closed,09:00 - 17:30,09:00 - 17:30,09:00 - 17:30,https://api.scraperapi.com/?url=https%3A%2F%2Faddlestone.cylex-uk.co.uk%2Fcompany%2Ftellsons-26577486.html&api_key=adc3d866682a18dad67c04d3bcbc7f1c&scraper_sdk=python
U.k Production Service Ltd,"The Coach House, Woburn Hill ",KT15 2QG,Addlestone ,Surrey England,01932 821800,01932 820812,NA,www.ukproduction.co.uk,NA,NA,supplies and services,NA,NA,NA,NA,NA,NA,NA,NA,NA,https://api.scraperapi.com/?url=https%3A%2F%2Faddlestone.cylex-uk.co.uk%2Fcompany%2Fu-k-production-service-ltd-14691165.html&api_key=adc3d866682a18dad67c04d3bcbc7f1c&scraper_sdk=python
Kk Balers Ltd,"1 Victory Park Rd, Victory House ",KT15 2AX,Addlestone ,Surrey England,01932 852423,01932 847170,NA,www.kkbalers.com,"baling tape, baling twine, wires, plastic sacks, fully refurbished machines, bespoke equipment, balers, compactors, shredders, briquetting press, glass crushers, roll crush, food composting, consumables","waste services, water purification, water purifiers, effluent treatment, filtered water, filtration systems, grey water recycling, legionella prevention, limescale prevention, nitrate removal, odour removal services, reverse osmosis, swimming pool chemicals, waste water, water analysis, water disinfection, water filters, water hygiene, water recycling, water softeners, water systems, water treatment equipment, Odour Removal","Waste Merchants, Waste Management, Waste, Wire, Wastewater, Waste Processing Machinery, Compactor, Water Purifier, Water System, Glass Crusher, Industrial Installation Equipment",NA,NA,09:00 - 17:00,09:00 - 17:00,Closed,Closed,09:00 - 17:00,09:00 - 17:00,09:00 - 17:00,https://api.scraperapi.com/?url=https%3A%2F%2Faddlestone.cylex-uk.co.uk%2Fcompany%2Fkk-balers-ltd-13165762.html&api_key=adc3d866682a18dad67c04d3bcbc7f1c&scraper_sdk=python
Squires Landscape,"THE PLANTATION, WOBURN HILL ROAD ",KT15 2QG,Addlestone ,Surrey England,01932 833844,NA,NA,www.gavinjones.co.uk,NA,NA,NA,NA,Landscapers,NA,NA,NA,NA,NA,NA,NA,https://api.scraperapi.com/?url=https%3A%2F%2Faddlestone.cylex-uk.co.uk%2Fcompany%2Fsquires-landscape-16450017.html&api_key=adc3d866682a18dad67c04d3bcbc7f1c&scraper_sdk=python
The Bar Guys UK,"Trelawney, Woburn Hill ",KT15 2QQ,Addlestone ,Surrey England,07825647286,NA,NA,www.thebarguys.co.uk,Cocktails,NA,"Bartender, Drink Service, Mixology, Mixologist, Hire a Bartender, Cocktail Events",NA,NA,09:00 - 17:00,09:00 - 17:00,Closed,Closed,09:00 - 17:00,09:00 - 17:00,09:00 - 17:00,https://api.scraperapi.com/?url=https%3A%2F%2Faddlestone.cylex-uk.co.uk%2Fcompany%2Fthe-bar-guys-uk-23765132.html&api_key=adc3d866682a18dad67c04d3bcbc7f1c&scraper_sdk=python
NVS SOLUTIONS LTD,Ingoldmells Woburn Hill ,KT15 2QG,Addlestone ,Surrey England,NA,NA,NA,,NA,NA,Property Developers,NA,NA,NA,NA,NA,NA,NA,NA,NA,https://api.scraperapi.com/?url=https%3A%2F%2Faddlestone.cylex-uk.co.uk%2Fcompany%2Fnvs-solutions-ltd-24842761.html&api_key=adc3d866682a18dad67c04d3bcbc7f1c&scraper_sdk=python
Jones Rigging Equipment Ltd,"High View, Woburn Hill ",KT15 2QE,Addlestone ,Surrey England,01932 847260,07810 812433,NA,,NA,NA,"Scaffolding Sales & Hire, Scaffolding Rental",NA,NA,NA,NA,NA,NA,NA,NA,NA,https://api.scraperapi.com/?url=https%3A%2F%2Faddlestone.cylex-uk.co.uk%2Fcompany%2Fjones-rigging-equipment-ltd-14440740.html&api_key=adc3d866682a18dad67c04d3bcbc7f1c&scraper_sdk=python
Brackendene Properties Limited,"Brackendene House, Woburn Hill ",KT15 2QE,Addlestone ,Surrey England,NA,NA,NA,,NA,NA,"Estate Agents, Real Estate",NA,NA,NA,NA,NA,NA,NA,NA,NA,https://api.scraperapi.com/?url=https%3A%2F%2Faddlestone.cylex-uk.co.uk%2Fcompany%2Fbrackendene-properties-limited-21113798.html&api_key=adc3d866682a18dad67c04d3bcbc7f1c&scraper_sdk=python
CLIFTON NURSERIES (HOLDINGS) LIMITED,Woburn Hill ,KT15 2QG,Addlestone ,Surrey England,01932 833866,NA,NA,www.clifton.co.uk,NA,NA,NA,NA,Landscaping Specialists,08:00 - 17:00,08:00 - 17:00,09:00 - 17:00,10:00 - 16:00,08:00 - 17:00,08:00 - 17:00,08:00 - 17:00,https://api.scraperapi.com/?url=https%3A%2F%2Faddlestone.cylex-uk.co.uk%2Fcompany%2Fclifton-nurseries--holdings--limited-24223339.html&api_key=adc3d866682a18dad67c04d3bcbc7f1c&scraper_sdk=python
The Plant Factory,WOBURN HILL,KT15 2QF,Addlestone ,Surrey England,01932 821066,NA,NA,,NA,NA,"Flowers, Flower Delivery, Flower Bouquets, Birthday Flowers, Special Occasion Flowers, Flowers and Gifts, Mother's Day Flowers, Valentine's Day Flowers, Wedding Flowers",NA,Florists,NA,NA,NA,NA,NA,NA,NA,https://api.scraperapi.com/?url=https%3A%2F%2Faddlestone.cylex-uk.co.uk%2Fcompany%2Fthe-plant-factory-13590205.html&api_key=adc3d866682a18dad67c04d3bcbc7f1c&scraper_sdk=python
Turfsoil Ltd,Woburn Hill ,KT15 2QG,Addlestone ,Surrey England,01932 833880,NA,NA,www.bluefoxcms.co.uk,NA,"Commercial, Disabled/Historic Gardens, Grounds Maintenance, Invasive Weed Control, Pesticide/Weed Application, Roof Gardens/Green Roofs",Commercials,NA,NA,NA,NA,NA,NA,NA,NA,NA,https://api.scraperapi.com/?url=https%3A%2F%2Faddlestone.cylex-uk.co.uk%2Fcompany%2Fturfsoil-ltd-26203958.html&api_key=adc3d866682a18dad67c04d3bcbc7f1c&scraper_sdk=python
Elite Window Cleaning Services,86 Wheatash Rd ,KT15 2ET,Addlestone ,Surrey England,07763 670447,NA,NA,elite-window-cleaning-services.business.site,NA,NA,NA,NA,NA,07:00 - 20:00,07:00 - 20:00,07:00 - 20:00,Closed,07:00 - 20:00,07:00 - 20:00,07:00 - 20:00,https://api.scraperapi.com/?url=https%3A%2F%2Faddlestone.cylex-uk.co.uk%2Fcompany%2Felite-window-cleaning-services-26479324.html&api_key=adc3d866682a18dad67c04d3bcbc7f1c&scraper_sdk=python
a 1 Ropes & Rigging Ltd,"Rope House, 39A Wheatash Road ",KT15 2ES,Addlestone ,Surrey England,01932 561355,01932 561433,NA,a1ropes.co.uk,NA,NA,"Hawsers, Twine Manufacturers, Ropes & Hawsers, Rigging, Cordage Manufacturer, Netting Manufacturer, Manufacture of Cordage, Cord & Twine, Galvanised Wire Rope, Sailing Ropes, A1 Ropes and Rigging, Rope Manufacturers, Rope Suppliers, Ungalvanised Wire Rope",NA,NA,09:00 - 17:00,09:00 - 17:00,Closed,Closed,09:00 - 17:00,09:00 - 17:00,09:00 - 17:00,https://api.scraperapi.com/?url=https%3A%2F%2Faddlestone.cylex-uk.co.uk%2Fcompany%2Fa-1-ropes---rigging-ltd-14002482.html&api_key=adc3d866682a18dad67c04d3bcbc7f1c&scraper_sdk=python
Tensid Uk Ltd,AQUILA HOUSE 70A WHEATASH ROAD ,KT15 2ES,Addlestone ,Surrey England,01932 564133,NA,NA,tensiduk.com,NA,"Cleaning Services, Building Cleaning, Industrial Cleaning","Industrial Machinery, Chemical Wholesalers, Chemical Products Wholesale, Wholesale Equipment",NA,NA,Open 24 Hours,Open 24 Hours,Closed,Closed,Open 24 Hours,Open 24 Hours,Open 24 Hours,https://api.scraperapi.com/?url=https%3A%2F%2Faddlestone.cylex-uk.co.uk%2Fcompany%2Ftensid-uk-ltd-22102614.html&api_key=adc3d866682a18dad67c04d3bcbc7f1c&scraper_sdk=python
Angela Briggs,28 Wheatash Rd ,KT15 2ER,Addlestone ,Surrey England,01932 563125,07976 415190,NA,,NA,NA,"Tax Consultants, Accountants",NA,NA,NA,NA,NA,NA,NA,NA,NA,https://api.scraperapi.com/?url=https%3A%2F%2Faddlestone.cylex-uk.co.uk%2Fcompany%2Fangela-briggs-19915634.html&api_key=adc3d866682a18dad67c04d3bcbc7f1c&scraper_sdk=python
CONCEPT BUILDERS SURREY LTD,14 Wheatash Road ,KT15 2ER,Addlestone ,Surrey England,01932 560925,07949 733177,NA,www.conceptbuilderssurrey.co.uk,NA,Building Maintenance,NA,NA,Builders,09:00 - 20:00,09:00 - 20:00,09:00 - 20:00,Closed,09:00 - 20:00,09:00 - 20:00,09:00 - 20:00,https://api.scraperapi.com/?url=https%3A%2F%2Faddlestone.cylex-uk.co.uk%2Fcompany%2Fconcept-builders-surrey-ltd-24237791.html&api_key=adc3d866682a18dad67c04d3bcbc7f1c&scraper_sdk=python
Capitol Air Conditioning Services Ltd,47 Wheatash Road ,KT15 2ES,Addlestone ,Surrey England,01932 561261,07956 118262,01932 566173,www.capitolairconditioning.co.uk,NA,"Air Conditioning Service, Plumbing and Heating Installations","Refrigeration Equipment, Air Conditioning Units, Contractors, Refrigeration, Air Conditioning Systems, Air Condition, Air Conditioning & Refrigeration Contractors, Plumbing Heating and Air Conditioning",NA,"Builders, Construction Companies, Air Conditioning Contractors, Plumber, Architects, Heating Contractors",Open 24 Hours,Open 24 Hours,Open 24 Hours,Open 24 Hours,Open 24 Hours,Open 24 Hours,Open 24 Hours,https://api.scraperapi.com/?url=https%3A%2F%2Faddlestone.cylex-uk.co.uk%2Fcompany%2Fcapitol-air-conditioning-services-ltd-16843626.html&api_key=adc3d866682a18dad67c04d3bcbc7f1c&scraper_sdk=python
M B Fencing,37 WHEATASH ROAD ,KT15 2ER,Addlestone ,Surrey England,01932 561032,NA,NA,,"Fence Panels, Fencing Panels, Fencing Equipment, Fences","Fence Installation, Fencing, Fencing Specialists, Fencing Services",NA,NA,Fencing Contractors,NA,NA,NA,NA,NA,NA,NA,https://api.scraperapi.com/?url=https%3A%2F%2Faddlestone.cylex-uk.co.uk%2Fcompany%2Fm-b-fencing-12990334.html&api_key=adc3d866682a18dad67c04d3bcbc7f1c&scraper_sdk=python
Jib Construction,46 WHEATASH ROAD ,KT15 2ES,Addlestone ,Surrey England,01932 568876,01932 568283,NA,,NA,NA,NA,NA,"Carpenters, Joiners, Carpenters & Joiners, Carpentry Contractors",NA,NA,NA,NA,NA,NA,NA,https://api.scraperapi.com/?url=https%3A%2F%2Faddlestone.cylex-uk.co.uk%2Fcompany%2Fjib-construction-13450104.html&api_key=adc3d866682a18dad67c04d3bcbc7f1c&scraper_sdk=python
Surrey Spitroast & BBQ Catering Co,23 WHEATASH ROAD ,KT15 2ER,Addlestone ,Surrey England,01932 889029,NA,NA,www.surreyspitroast.co.uk,NA,"Catering, Event Catering, Food Catering, Foodservice, Catering Hire","Chocolate Fountain, African Cuisine, Lamb Spit Roast, Hogroast Event Caterers, Spit Roast Caterers, Spitroast Beef",NA,Caterers,NA,NA,NA,NA,NA,NA,NA,https://api.scraperapi.com/?url=https%3A%2F%2Faddlestone.cylex-uk.co.uk%2Fcompany%2Fsurrey-spitroast---bbq-catering-co-16612083.html&api_key=adc3d866682a18dad67c04d3bcbc7f1c&scraper_sdk=python
Michael Lynch Logistics Limited,36 Wordsworth Rd ,KT15 2SW,Addlestone ,Surrey England,07590 552572,NA,NA,michaellynchlogistics.com,NA,NA,"Road Haulage, Road Freight",NA,NA,Closed,Closed,Closed,09:00 - 18:00,09:00 - 18:00,Closed,Closed,https://api.scraperapi.com/?url=https%3A%2F%2Faddlestone.cylex-uk.co.uk%2Fcompany%2Fmichael-lynch-logistics-limited-21789403.html&api_key=adc3d866682a18dad67c04d3bcbc7f1c&scraper_sdk=python
Mf Data Comms. Ltd,90 Wheatash Road ,KT15 2ET,Addlestone ,Surrey England,01932 561 103,07957 325 953,NA,www.mfdatacomms.co.uk,NA,NA,Telecommunications Service Provider,NA,NA,NA,NA,NA,NA,NA,NA,NA,https://api.scraperapi.com/?url=https%3A%2F%2Faddlestone.cylex-uk.co.uk%2Fcompany%2Fmf-data-comms--ltd-20045823.html&api_key=adc3d866682a18dad67c04d3bcbc7f1c&scraper_sdk=python
Fuben Enterprises Ltd,76 Wheatash Road ,KT15 2ET,Addlestone ,Surrey England,NA,NA,NA,,NA,Architectural Services,NA,NA,Architects,NA,NA,NA,NA,NA,NA,NA,https://api.scraperapi.com/?url=https%3A%2F%2Faddlestone.cylex-uk.co.uk%2Fcompany%2Ffuben-enterprises-ltd-21359257.html&api_key=adc3d866682a18dad67c04d3bcbc7f1c&scraper_sdk=python
Sports Of Addlestone,"Victory Park Road, Unit 4, Oak House ",KT15 2FG,Addlestone ,Surrey England,01932 849333,020 7684 0044,NA,www.sportsofaddlestone.co.uk,NA,Engraving,"Engravers, Trophies, Medals and Rosettes, Engraving Machine",NA,NA,09:00 - 17:00,09:00 - 17:00,09:00 - 14:00,Closed,09:00 - 17:00,09:00 - 17:00,09:00 - 17:00,https://api.scraperapi.com/?url=https%3A%2F%2Faddlestone.cylex-uk.co.uk%2Fcompany%2Fsports-of-addlestone-13828704.html&api_key=adc3d866682a18dad67c04d3bcbc7f1c&scraper_sdk=python
T H S Plumbing & Heating Ltd,19 Wordsworth Road ,KT15 2SW,Addlestone ,Surrey England,01932 888339,NA,NA,,NA,Plumbing and Heating Installations,NA,NA,"Plumber, Heating Contractors, Air Conditioning Contractors",NA,NA,NA,NA,NA,NA,NA,https://api.scraperapi.com/?url=https%3A%2F%2Faddlestone.cylex-uk.co.uk%2Fcompany%2Ft-h-s-plumbing---heating-ltd-19908070.html&api_key=adc3d866682a18dad67c04d3bcbc7f1c&scraper_sdk=python
K K Machine Hire Limited,"VICTORY HOUSE, VICTORY PARK ROAD ",KT15 2AX,Addlestone ,Surrey England,NA,NA,NA,,NA,Equipment Hire,Machinery Hire,NA,NA,NA,NA,NA,NA,NA,NA,NA,https://api.scraperapi.com/?url=https%3A%2F%2Faddlestone.cylex-uk.co.uk%2Fcompany%2Fk-k-machine-hire-limited-21515678.html&api_key=adc3d866682a18dad67c04d3bcbc7f1c&scraper_sdk=python
Paul Sherwood,29 Wordsworth Road ,KT15 2SW,Addlestone ,Surrey England,01932 828338,07875 200661,NA,,NA,Property Maintenance,NA,NA,NA,08:00 - 17:00,08:00 - 17:00,Closed,Closed,08:00 - 17:00,08:00 - 17:00,08:00 - 17:00,https://api.scraperapi.com/?url=https%3A%2F%2Faddlestone.cylex-uk.co.uk%2Fcompany%2Fpaul-sherwood-19910278.html&api_key=adc3d866682a18dad67c04d3bcbc7f1c&scraper_sdk=python
G.m.v Investments Ltd,"VICTORY COURT, 1 VICTORIA ROAD ",KT15 2PL,Addlestone ,Surrey England,01932 842987,01932 859742,NA,,NA,NA,"Investment Companies, Investment Strategies, Investment Professionals, Trust Companies, Finance Industry",NA,NA,NA,NA,NA,NA,NA,NA,NA,https://api.scraperapi.com/?url=https%3A%2F%2Faddlestone.cylex-uk.co.uk%2Fcompany%2Fg-m-v-investments-ltd-13873554.html&api_key=adc3d866682a18dad67c04d3bcbc7f1c&scraper_sdk=python
Costcutter,Victory Park Road ,KT15 2FG,Addlestone ,Surrey England,01932 988383,NA,NA,www.costcutter.co.uk,"drinks, groceries, meat, pastries, breads, Bread, Meats, Pastry",NA,"Convenience Store, Grocery, Haagen Daz",NA,NA,07:00 - 23:00,07:00 - 23:00,07:00 - 23:00,07:00 - 23:00,07:00 - 23:00,07:00 - 23:00,07:00 - 23:00,https://api.scraperapi.com/?url=https%3A%2F%2Faddlestone.cylex-uk.co.uk%2Fcompany%2Fcostcutter-23848015.html&api_key=adc3d866682a18dad67c04d3bcbc7f1c&scraper_sdk=python
Excessdrive Limited,49 VICTORIA ROAD ,KT15 2PL,Addlestone ,Surrey England,NA,NA,NA,,NA,Architectural Consultancy,"Secretarial Services, Technical Consultants",NA,Architects,NA,NA,NA,NA,NA,NA,NA,https://api.scraperapi.com/?url=https%3A%2F%2Faddlestone.cylex-uk.co.uk%2Fcompany%2Fexcessdrive-limited-21321381.html&api_key=adc3d866682a18dad67c04d3bcbc7f1c&scraper_sdk=python
Byne Upholstery (Weybridge),"4 Manton Terrace, Victory Park Rd ",KT15 2BP,Addlestone ,Surrey England,01932 821861,NA,NA,,Furniture,"Reupholstery of antique & modern furniture, Antique repair & restoration, Furniture repairs & restoration, New cushion Interiors, 3 Piece Suite Re-Upholstery, Wide Selection of Quality Fabrics Available, Home Visits Available, Upholstery, Furniture Upholstery, Reupholster, Home Visit",Furniture Sales,NA,Upholsterers,NA,NA,NA,NA,NA,NA,NA,https://api.scraperapi.com/?url=https%3A%2F%2Faddlestone.cylex-uk.co.uk%2Fcompany%2Fbyne-upholstery--weybridge--15859268.html&api_key=adc3d866682a18dad67c04d3bcbc7f1c&scraper_sdk=python
Phillips Coulon Associates Ltd,10 Victoria Road ,KT15 2PL,Addlestone ,Surrey England,07747 848897,NA,NA,phillipscoulon.wordpress.com,NA,NA,"Management Consultants, Financial Management, Business Consultants",NA,NA,NA,NA,NA,NA,NA,NA,NA,https://api.scraperapi.com/?url=https%3A%2F%2Faddlestone.cylex-uk.co.uk%2Fcompany%2Fphillips-coulon-associates-ltd-21893615.html&api_key=adc3d866682a18dad67c04d3bcbc7f1c&scraper_sdk=python
Flower Room The,"5 Manton Terrace, Victory Park Road ",KT15 2AX,Addlestone ,Surrey England,01932 846111,01243 554995,01932 846111,,NA,NA,"Flowers, Bouquets",NA,NA,NA,NA,NA,NA,NA,NA,NA,https://api.scraperapi.com/?url=https%3A%2F%2Faddlestone.cylex-uk.co.uk%2Fcompany%2Fflower-room-the-16750029.html&api_key=adc3d866682a18dad67c04d3bcbc7f1c&scraper_sdk=python
Hydr8 Limited,29 THE STREET ,RG7 4LW,Aldermaston ,Berkshire England,0118 971 4630,0118 971 4630,NA,,NA,NA,"Research Organisations, Scientific and Technical Services",NA,NA,NA,NA,NA,NA,NA,NA,NA,https://api.scraperapi.com/?url=https%3A%2F%2Faldermaston.cylex-uk.co.uk%2Fcompany%2Fhydr8-limited-21450776.html&api_key=adc3d866682a18dad67c04d3bcbc7f1c&scraper_sdk=python
Board To Tiers,"3 MANTON TER,VICTORY PK RD ",KT15 2BP,Addlestone ,Surrey England,07956 570089,01926 831331,NA,,"Birthday Cakes, Cakes, Cakes and Confectionery",NA,"Decorators, Maker",NA,"Cake Makers, Cake Makers and Decorators",NA,NA,NA,NA,NA,NA,NA,https://api.scraperapi.com/?url=https%3A%2F%2Faddlestone.cylex-uk.co.uk%2Fcompany%2Fboard-to-tiers-16735770.html&api_key=adc3d866682a18dad67c04d3bcbc7f1c&scraper_sdk=python
Leone Hair & Beauty,1-2 Manton Terrace Victory Park Road ,KT15 2BP,Addlestone ,Surrey England,01932 845987,NA,NA,www.leoni.com/en,NA,NA,NA,NA,NA,NA,NA,NA,NA,NA,NA,NA,https://api.scraperapi.com/?url=https%3A%2F%2Faddlestone.cylex-uk.co.uk%2Fcompany%2Fleone-hair---beauty-18698648.html&api_key=adc3d866682a18dad67c04d3bcbc7f1c&scraper_sdk=python
The Pottery Aldermaston,THE STREET ,RG7 4LW,Aldermaston ,Berkshire England,0118 971 3359,NA,NA,,NA,NA,"Pottery Tools, Pottery Products, Pottery Supplies, Pottery",NA,NA,NA,NA,NA,NA,NA,NA,NA,https://api.scraperapi.com/?url=https%3A%2F%2Faldermaston.cylex-uk.co.uk%2Fcompany%2Fthe-pottery-aldermaston-14068615.html&api_key=adc3d866682a18dad67c04d3bcbc7f1c&scraper_sdk=python
LIGNIA WOOD COMPANY LIMITED,"SHALFORD DAIRY, WASING ESTATE ",RG7 4NB,Aldermaston ,Berkshire England,NA,NA,NA,,Timber,NA,"Building Materials, Building Materials Agents",NA,NA,NA,NA,NA,NA,NA,NA,NA,https://api.scraperapi.com/?url=https%3A%2F%2Faldermaston.cylex-uk.co.uk%2Fcompany%2Flignia-wood-company-limited-21335307.html&api_key=adc3d866682a18dad67c04d3bcbc7f1c&scraper_sdk=python
European Factors Limited,"SHALFORD DAIRY, WASING ESTATE ",RG7 4NB,Aldermaston ,Berkshire England,NA,NA,NA,,NA,NA,"Mail-Order House, Internet Retail Sales, Management Consultants, Financial Management, Business Consultants",NA,NA,NA,NA,NA,NA,NA,NA,NA,https://api.scraperapi.com/?url=https%3A%2F%2Faldermaston.cylex-uk.co.uk%2Fcompany%2Feuropean-factors-limited-21316985.html&api_key=adc3d866682a18dad67c04d3bcbc7f1c&scraper_sdk=python
Acorn Caravan and Trailer Hire READING,SHALFORD FARM BUILDINGS ,RG7 4NB,Aldermaston ,Berkshire England,(0118) 9712918,(0118) 9714918,NA,,"Car Accessories, Auto Accessories, Automotive Accessories, Vehicle Accessories, Car Products, Towbars","House Refurbishment, Towbar Fitting","Trailers, Caravans, Motorhomes, Campervans, Caravan Sales, Caravan Dealers, Campers, Caravans to Buy, Touring Caravan Hire, Trailer Hire, Trailer Rental, Trailer Leasing, Sales, Hire, Events, Construction Industry, Shows, Buying, Festivals, Touring, Fitted, Tow Bars Trailers, Acorn, Site Security, Supplied, Long and Short Term Hire",NA,NA,NA,NA,NA,NA,NA,NA,NA,https://api.scraperapi.com/?url=https%3A%2F%2Faldermaston.cylex-uk.co.uk%2Fcompany%2Facorn-caravan-and-trailer-hire-reading-16807646.html&api_key=adc3d866682a18dad67c04d3bcbc7f1c&scraper_sdk=python
Imc.com Limited,"SHALFORD BARN, WASING HILL ",RG7 4NB,Aldermaston ,Berkshire England,NA,NA,NA,,NA,NA,"Car Dealers, Sale of Motor Vehicles",NA,NA,NA,NA,NA,NA,NA,NA,NA,https://api.scraperapi.com/?url=https%3A%2F%2Faldermaston.cylex-uk.co.uk%2Fcompany%2Fimc-com-limited-21460290.html&api_key=adc3d866682a18dad67c04d3bcbc7f1c&scraper_sdk=python
KANGHUA EUROPE LIMITED,Shalford Dairy Shalford Hill ,RG7 4NB,Aldermaston ,Berkshire England,NA,NA,NA,,NA,NA,Sports and Recreation Services,NA,NA,NA,NA,NA,NA,NA,NA,NA,https://api.scraperapi.com/?url=https%3A%2F%2Faldermaston.cylex-uk.co.uk%2Fcompany%2Fkanghua-europe-limited-24618288.html&api_key=adc3d866682a18dad67c04d3bcbc7f1c&scraper_sdk=python
Independent Motor Cars Ltd,SHALFORD BARN BACK LANE ,RG7 4NB,Aldermaston ,Berkshire England,0118 971 3939,01606 866990,NA,,"Cars, Vehicles, Cars for Sale",NA,"Car Dealers, Vehicle Dealer, Auto Sales, BMW, Automobile Dealer, Auto Dealers, New and Used Motor Vehicle Dealers, Car Dealerships, Buy Car, Performance Cars, New and Used Car Retailers, Motorcar, Automotive, Buy, Commercial Vehicles, Reading, Performance, Commercial Vehicle Dealers, Motors, Sell, Autos, Barns, Imc, Moto, Aldermaston, Beamer, Fast Car, M Power, Mtype",NA,"Vehicle Sales, Used Car Dealers",NA,NA,NA,NA,NA,NA,NA,https://api.scraperapi.com/?url=https%3A%2F%2Faldermaston.cylex-uk.co.uk%2Fcompany%2Findependent-motor-cars-ltd-13810843.html&api_key=adc3d866682a18dad67c04d3bcbc7f1c&scraper_sdk=python
Deeply Creative,THE STREET ,RG7 4LW,Aldermaston ,Berkshire England,01189713370,NA,NA,,NA,"CAD Design, Design",Computers,NA,NA,NA,NA,NA,NA,NA,NA,NA,https://api.scraperapi.com/?url=https%3A%2F%2Faldermaston.cylex-uk.co.uk%2Fcompany%2Fdeeply-creative-16060800.html&api_key=adc3d866682a18dad67c04d3bcbc7f1c&scraper_sdk=python
Francesca Wales,11 Weston Ave ,KT15 1UW,Addlestone ,Surrey England,01932 881997,07979 513972,NA,,NA,NA,NA,NA,NA,09:00 - 20:30,09:00 - 20:30,Closed,Closed,09:00 - 20:30,09:00 - 20:30,09:00 - 20:30,https://api.scraperapi.com/?url=https%3A%2F%2Faddlestone.cylex-uk.co.uk%2Fcompany%2Ffrancesca-wales-26903864.html&api_key=adc3d866682a18dad67c04d3bcbc7f1c&scraper_sdk=python
Byfleet Ramblers,WEYBRIDGE ROAD,KT15 2QS,Addlestone ,Surrey England,NA,NA,NA,,NA,NA,"Hockey Club, Sports, Field Hockey, Hockey Team",NA,NA,NA,NA,NA,NA,NA,NA,NA,https://api.scraperapi.com/?url=https%3A%2F%2Faddlestone.cylex-uk.co.uk%2Fcompany%2Fbyfleet-ramblers-22995223.html&api_key=adc3d866682a18dad67c04d3bcbc7f1c&scraper_sdk=python
Vazer Ltd,8 Weatherall Cl ,KT15 1LF,Addlestone ,Surrey England,07516 718128,NA,NA,,NA,NA,NA,NA,NA,NA,NA,NA,NA,NA,NA,NA,https://api.scraperapi.com/?url=https%3A%2F%2Faddlestone.cylex-uk.co.uk%2Fcompany%2Fvazer-ltd-26863034.html&api_key=adc3d866682a18dad67c04d3bcbc7f1c&scraper_sdk=python
RESI INVENTORIES LIMITED,2 Church Cottages Weybridge Road,KT15 2QX,Addlestone ,Surrey England,NA,NA,NA,,NA,NA,Business Support,NA,NA,NA,NA,NA,NA,NA,NA,NA,https://api.scraperapi.com/?url=https%3A%2F%2Faddlestone.cylex-uk.co.uk%2Fcompany%2Fresi-inventories-limited-24981907.html&api_key=adc3d866682a18dad67c04d3bcbc7f1c&scraper_sdk=python
Cobyco Limited,55 WESTON AVENUE ,KT15 1UW,Addlestone ,Surrey England,NA,NA,NA,,NA,NA,"IT Services, Computer Services",NA,NA,NA,NA,NA,NA,NA,NA,NA,https://api.scraperapi.com/?url=https%3A%2F%2Faddlestone.cylex-uk.co.uk%2Fcompany%2Fcobyco-limited-21195375.html&api_key=adc3d866682a18dad67c04d3bcbc7f1c&scraper_sdk=python
JARNER SOFTWARE ENGINEERING LTD,16 Wheatland Grove ,WS9 0SR,Aldridge ,West Midlands England,NA,NA,NA,,NA,NA,"IT Services, Computer Services",NA,NA,NA,NA,NA,NA,NA,NA,NA,https://api.scraperapi.com/?url=https%3A%2F%2Faldridge.cylex-uk.co.uk%2Fcompany%2Fjarner-software-engineering-ltd-25360536.html&api_key=adc3d866682a18dad67c04d3bcbc7f1c&scraper_sdk=python
Dessinat Ltd,12 WESTERHAM CLOSE ,KT15 2DB,Addlestone ,Surrey England,NA,NA,NA,,NA,NA,NA,NA,Architects,NA,NA,NA,NA,NA,NA,NA,https://api.scraperapi.com/?url=https%3A%2F%2Faddlestone.cylex-uk.co.uk%2Fcompany%2Fdessinat-ltd-20312554.html&api_key=adc3d866682a18dad67c04d3bcbc7f1c&scraper_sdk=python
Westgate Classics Ltd,Kingsway North Westgate Unit 4 ,WS9 8FN,Aldridge ,West Midlands England,01922 458526,0161 763 6322,NA,www.westgateclassicsltd.com,NA,"full restoration, Car Repair, Car Maintenance, Panel Beaters","Automotive Restoration Service, Automotive",NA,NA,08:00 - 17:00,08:00 - 17:00,Closed,Closed,08:00 - 17:00,08:00 - 17:00,08:00 - 17:00,https://api.scraperapi.com/?url=https%3A%2F%2Faldridge.cylex-uk.co.uk%2Fcompany%2Fwestgate-classics-ltd-19753867.html&api_key=adc3d866682a18dad67c04d3bcbc7f1c&scraper_sdk=python
SOLMARE INVESTMENTS LIMITED,25 Weston Avenue ,KT15 1UW,Addlestone ,Surrey England,NA,NA,NA,,NA,NA,"Estate Agents, Real Estate",NA,NA,NA,NA,NA,NA,NA,NA,NA,https://api.scraperapi.com/?url=https%3A%2F%2Faddlestone.cylex-uk.co.uk%2Fcompany%2Fsolmare-investments-limited-25089668.html&api_key=adc3d866682a18dad67c04d3bcbc7f1c&scraper_sdk=python
P J Management Consulting Limited,62 WESTON AVENUE ,KT15 1UW,Addlestone ,Surrey England,NA,NA,NA,,NA,NA,"Management Consultants, Business Consultancy, Business Consultants",NA,NA,NA,NA,NA,NA,NA,NA,NA,https://api.scraperapi.com/?url=https%3A%2F%2Faddlestone.cylex-uk.co.uk%2Fcompany%2Fp-j-management-consulting-limited-22736972.html&api_key=adc3d866682a18dad67c04d3bcbc7f1c&scraper_sdk=python
Slipform International Ltd,Westgate ,WS9 8BS,Aldridge ,West Midlands England,01922 458100,01922 458600,NA,,Shutters,"Civil Engineering, Construction Management","Civil Engineers, Civil Engineering Companies, Builders' Merchants, Scaffolding, Scaffold, Concrete, Bridge, Hydraulics, Tower, Core, Grain, Rigs, Silos, Pier, Shuttering, Slipform, Caisson, Slipforming, Shaft Linings",NA,NA,08:00 - 17:00,08:00 - 17:00,Closed,Closed,08:00 - 17:00,08:00 - 17:00,08:00 - 17:00,https://api.scraperapi.com/?url=https%3A%2F%2Faldridge.cylex-uk.co.uk%2Fcompany%2Fslipform-international-ltd-14608591.html&api_key=adc3d866682a18dad67c04d3bcbc7f1c&scraper_sdk=python
Lasting Touch Ltd,3 Wheatland Grove ,WS9 0SR,Aldridge ,West Midlands England,01922 453677,07785 900400,0800 107 4543,www.lasting-touch.co.uk,NA,Semi-Permanent Makeup,Make-up Artists,NA,NA,10:00 - 17:00,11:00 - 17:00,Closed,Closed,10:00 - 17:00,10:00 - 17:00,10:00 - 17:00,https://api.scraperapi.com/?url=https%3A%2F%2Faldridge.cylex-uk.co.uk%2Fcompany%2Flasting-touch-ltd-19962146.html&api_key=adc3d866682a18dad67c04d3bcbc7f1c&scraper_sdk=python
Azzurri Holdings Limited,"AZZURI HOUSE WALSALL BUSINESS PARK, WALSALL ROAD ",WS9 0RB,Aldridge ,West Midlands England,NA,NA,NA,,NA,NA,"Consultancy, Head Office, Corporate Head Office Management",NA,NA,NA,NA,NA,NA,NA,NA,NA,https://api.scraperapi.com/?url=https%3A%2F%2Faldridge.cylex-uk.co.uk%2Fcompany%2Fazzurri-holdings-limited-22319097.html&api_key=adc3d866682a18dad67c04d3bcbc7f1c&scraper_sdk=python
Technology Finance Ltd.,"ASHLAR HOUSE, 115 WALSALL ROAD ",WS9 0AX,Aldridge ,West Midlands England,01922-743560,NA,NA,,NA,NA,"Financial Planning, Financial Advisors, Financial Consultants, Financial Planners, Investment Advice, Financial Services, Telecommunication Services, Business Consultants, Telecommunications",NA,NA,NA,NA,NA,NA,NA,NA,NA,https://api.scraperapi.com/?url=https%3A%2F%2Faldridge.cylex-uk.co.uk%2Fcompany%2Ftechnology-finance-ltd--16822210.html&api_key=adc3d866682a18dad67c04d3bcbc7f1c&scraper_sdk=python
Warden Holdco Limited,"AZURRI HOUSE WALSALL BUSINESS PARK, WALSALL ROAD ",WS9 0RB,Aldridge ,West Midlands England,NA,NA,NA,,NA,NA,"Head Office, Corporate Head Office Management",NA,NA,NA,NA,NA,NA,NA,NA,NA,https://api.scraperapi.com/?url=https%3A%2F%2Faldridge.cylex-uk.co.uk%2Fcompany%2Fwarden-holdco-limited-22946408.html&api_key=adc3d866682a18dad67c04d3bcbc7f1c&scraper_sdk=python
Mr Paul Glover,"Anchor Meadow Health Centre, Westfield Drive",WS9 8AJ,Aldridge ,West Midlands England,01922 450900,NA,NA,,NA,NA,NA,NA,Doctors,NA,NA,NA,NA,NA,NA,NA,https://api.scraperapi.com/?url=https%3A%2F%2Faldridge.cylex-uk.co.uk%2Fcompany%2Fmr-paul-glover-23539226.html&api_key=adc3d866682a18dad67c04d3bcbc7f1c&scraper_sdk=python
Arbury,Walsall Road,WS9 0GG,Aldridge ,West Midlands England,01922 721188,01922 620216,NA,www.peugeot.co.uk,"New Vehicle, Used Cars, Used Vehicles, Parts","servicing, parts, used vehicles, new vehicles, nim ext√©rieure enseigne",Car Dealers,NA,NA,08:30 - 18:30,08:30 - 18:30,09:00 - 17:00,10:00 - 16:00,08:30 - 18:30,08:30 - 18:30,08:30 - 18:30,https://api.scraperapi.com/?url=https%3A%2F%2Faldridge.cylex-uk.co.uk%2Fcompany%2Farbury-19961627.html&api_key=adc3d866682a18dad67c04d3bcbc7f1c&scraper_sdk=python
Dr Bhupinder Sarai,"Anchor Meadow Health Centre, Westfield Drive",WS9 8AJ,Aldridge ,West Midlands England,01922 450900,NA,NA,,NA,NA,NA,NA,Doctors,NA,NA,NA,NA,NA,NA,NA,https://api.scraperapi.com/?url=https%3A%2F%2Faldridge.cylex-uk.co.uk%2Fcompany%2Fdr-bhupinder-sarai-23539222.html&api_key=adc3d866682a18dad67c04d3bcbc7f1c&scraper_sdk=python
LS RECRUITMENT LIMITED,184 Walsall Road ,WS9 0JT,Aldridge ,West Midlands England,NA,NA,NA,,NA,NA,Employment Agencies,NA,NA,NA,NA,NA,NA,NA,NA,NA,https://api.scraperapi.com/?url=https%3A%2F%2Faldridge.cylex-uk.co.uk%2Fcompany%2Fls-recruitment-limited-25595992.html&api_key=adc3d866682a18dad67c04d3bcbc7f1c&scraper_sdk=python
Dr Arun Singal,"Anchor Meadow Health Centre, Westfield Drive",WS9 8AJ,Aldridge ,West Midlands England,01922 450900,NA,NA,,NA,NA,NA,NA,Doctors,NA,NA,NA,NA,NA,NA,NA,https://api.scraperapi.com/?url=https%3A%2F%2Faldridge.cylex-uk.co.uk%2Fcompany%2Fdr-arun-singal-23539221.html&api_key=adc3d866682a18dad67c04d3bcbc7f1c&scraper_sdk=python
Maintel Communications,Walsall Business Park Walsall Rd ,WS9 0RB,Aldridge ,West Midlands England,01922 658600,0344 871 1122,NA,www.maintel.co.uk,NA,NA,NA,NA,NA,NA,NA,NA,NA,NA,NA,NA,https://api.scraperapi.com/?url=https%3A%2F%2Faldridge.cylex-uk.co.uk%2Fcompany%2Fmaintel-communications-26879943.html&api_key=adc3d866682a18dad67c04d3bcbc7f1c&scraper_sdk=python
Stainless Handrail Systems,Unit E6/E7 West Point ,WS9 0NF,Aldridge ,West Midlands England,01922 743842,01922 744050,NA,www.stainlesshandrailsystems.co.uk,NA,"Uk,  Ireland,  channel Islands","Manufacture of Steel Tubes, Stainless Steel Handrails, Stainless Steel Balustrades, Steel Handrails, Steel Balustrade, Glass Handrail, Steel Product Manufacturers, Rameless Glass Balustrade",NA,NA,08:30 - 17:00,08:30 - 17:00,Closed,Closed,08:30 - 17:00,08:30 - 17:00,08:30 - 17:00,https://api.scraperapi.com/?url=https%3A%2F%2Faldridge.cylex-uk.co.uk%2Fcompany%2Fstainless-handrail-systems-19171259.html&api_key=adc3d866682a18dad67c04d3bcbc7f1c&scraper_sdk=python
Anchor Meadow Management Limited,Anchor Meadow Health Centre Westfield Drive,WS9 8AJ,Aldridge ,West Midlands England,NA,NA,NA,,NA,NA,"Business Support, Business Advice",NA,NA,NA,NA,NA,NA,NA,NA,NA,https://api.scraperapi.com/?url=https%3A%2F%2Faldridge.cylex-uk.co.uk%2Fcompany%2Fanchor-meadow-management-limited-21030741.html&api_key=adc3d866682a18dad67c04d3bcbc7f1c&scraper_sdk=python
Mrs Natalie Andrews Walsall Aldridge,Health Centre;Westfield Drive,WS9 8AJ,Aldridge ,West Midlands England,07766 553196,NA,NA,www.natalieandrewsphysiotherapy.co.uk,NA,"Physiotherapy, Physiotherapy Treatment, Sports Therapy","Physio First Physiotherapists, Physiotherapists Support Services",NA,"Physiotherapists, Private Practitioners, Physiotherapy Clinic",NA,NA,NA,NA,NA,NA,NA,https://api.scraperapi.com/?url=https%3A%2F%2Faldridge.cylex-uk.co.uk%2Fcompany%2Fmrs-natalie-andrews-walsall-aldridge-19285771.html&api_key=adc3d866682a18dad67c04d3bcbc7f1c&scraper_sdk=python
Dr Dorothy Onunwakolam,"Westfield Drive, Anchor Meadow",WS9 8AJ,Aldridge ,West Midlands England,01922 450950,NA,NA,,NA,NA,NA,NA,Doctors,NA,NA,NA,NA,NA,NA,NA,https://api.scraperapi.com/?url=https%3A%2F%2Faldridge.cylex-uk.co.uk%2Fcompany%2Fdr-dorothy-onunwakolam-23539215.html&api_key=adc3d866682a18dad67c04d3bcbc7f1c&scraper_sdk=python
Dr Julie m Harrison,"Westfield Drive, Anchor Meadow",WS9 8AJ,Aldridge ,West Midlands England,01922 450950,NA,NA,,NA,NA,NA,NA,Doctors,NA,NA,NA,NA,NA,NA,NA,https://api.scraperapi.com/?url=https%3A%2F%2Faldridge.cylex-uk.co.uk%2Fcompany%2Fdr-julie-m-harrison-23539218.html&api_key=adc3d866682a18dad67c04d3bcbc7f1c&scraper_sdk=python
Aldridge Locksmiths,4 Westfield Dr ,WS9 8ZA,Aldridge ,West Midlands England,01922 821407,NA,NA,www.aldridgesecurity.co.uk,NA,NA,NA,NA,NA,Open 24 Hours,Open 24 Hours,Open 24 Hours,Open 24 Hours,Open 24 Hours,Open 24 Hours,Open 24 Hours,https://api.scraperapi.com/?url=https%3A%2F%2Faldridge.cylex-uk.co.uk%2Fcompany%2Faldridge-locksmiths-26646969.html&api_key=adc3d866682a18dad67c04d3bcbc7f1c&scraper_sdk=python
Dr Stephen Ruffles,"Westfield Drive, Anchor Meadow",WS9 8AJ,Aldridge ,West Midlands England,01922 450950,NA,NA,www.portlandmedical.co.uk,NA,NA,NA,NA,Doctors,08:00 - 21:00,08:00 - 21:00,10:00 - 15:00,10:00 - 15:00,08:00 - 21:00,08:00 - 21:00,08:00 - 21:00,https://api.scraperapi.com/?url=https%3A%2F%2Faldridge.cylex-uk.co.uk%2Fcompany%2Fdr-stephen-ruffles-23539217.html&api_key=adc3d866682a18dad67c04d3bcbc7f1c&scraper_sdk=python
Robert Grinsell Travel,115 Walsall Road ,WS9 0AX,Aldridge ,West Midlands England,0121 323 4455,0121 454 7500,028 3839 2170,,NA,Leisure Travel,"Travel Agents, Travel Agency, Holidays, Tourism, Vacation, Traveling, Holiday Companies, Holiday Agents, Travel Companies, Tour Operator, Travel, Agents, Companies, Travel Agents and Holiday Companies",NA,NA,08:30 - 18:00,08:30 - 18:00,Closed,Closed,08:30 - 18:00,08:30 - 18:00,08:30 - 18:00,https://api.scraperapi.com/?url=https%3A%2F%2Faldridge.cylex-uk.co.uk%2Fcompany%2Frobert-grinsell-travel-13986991.html&api_key=adc3d866682a18dad67c04d3bcbc7f1c&scraper_sdk=python
The Whitehouse Fish Bar,"200, WALSALL ROAD ",WS9 0JT,Aldridge ,West Midlands England,01922 458793,020 7392 2726,NA,,Chips,NA,"Fish and Chips, Fish and Chip Shops, Fish Shop, Takeaway, Sandwich Shop, Fast Food, Shops, Eating Out, Fast Food Place",NA,NA,17:00 - 22:00,17:00 - 22:00,17:00 - 22:00,Closed,17:00 - 22:00,17:00 - 22:00,17:00 - 22:00,https://api.scraperapi.com/?url=https%3A%2F%2Faldridge.cylex-uk.co.uk%2Fcompany%2Fthe-whitehouse-fish-bar-16515855.html&api_key=adc3d866682a18dad67c04d3bcbc7f1c&scraper_sdk=python
Mr Christopher Blunt,"Westfield Drive, Anchor Meadow",WS9 8AJ,Aldridge ,West Midlands England,01922 450950,NA,NA,,NA,NA,NA,NA,Doctors,NA,NA,NA,NA,NA,NA,NA,https://api.scraperapi.com/?url=https%3A%2F%2Faldridge.cylex-uk.co.uk%2Fcompany%2Fmr-christopher-blunt-23539220.html&api_key=adc3d866682a18dad67c04d3bcbc7f1c&scraper_sdk=python
UPS Solutions Logistics,62 Walsall Road ,WS9 0JW,Aldridge ,West Midlands England,0345 787 7877,NA,NA,www.ups.com,NA,"Express, Standard, International, UPS Access Point Program, UPS Returns¬Æ, Accepts Shipping Tickets, Courier, Delivery",UPS Returns,NA,NA,06:00 - 23:00,06:00 - 23:55,06:00 - 23:55,06:00 - 23:00,06:00 - 23:00,06:00 - 23:00,06:00 - 23:00,https://api.scraperapi.com/?url=https%3A%2F%2Faldridge.cylex-uk.co.uk%2Fcompany%2Fups-solutions-logistics-23761563.html&api_key=adc3d866682a18dad67c04d3bcbc7f1c&scraper_sdk=python
Aldridge Food & Wines,62 Walsall Road ,WS9 0JW,Aldridge ,West Midlands England,NA,NA,NA,,NA,NA,"Convenience Store, Newsagents",NA,NA,NA,NA,NA,NA,NA,NA,NA,https://api.scraperapi.com/?url=https%3A%2F%2Faldridge.cylex-uk.co.uk%2Fcompany%2Faldridge-food---wines-19751568.html&api_key=adc3d866682a18dad67c04d3bcbc7f1c&scraper_sdk=python
Versatile me,"198a, Walsall Road ",WS9 0JT,Aldridge ,West Midlands England,NA,NA,NA,,Men's Suits,NA,Streetwear,NA,NA,NA,NA,NA,NA,NA,NA,NA,https://api.scraperapi.com/?url=https%3A%2F%2Faldridge.cylex-uk.co.uk%2Fcompany%2Fversatile-me-23823234.html&api_key=adc3d866682a18dad67c04d3bcbc7f1c&scraper_sdk=python
Crimson Cloud Consulting Limited,183 WALSALL ROAD ,WS9 0BE,Aldridge ,West Midlands England,NA,NA,NA,,NA,NA,"IT Services, Computer Services",NA,NA,NA,NA,NA,NA,NA,NA,NA,https://api.scraperapi.com/?url=https%3A%2F%2Faldridge.cylex-uk.co.uk%2Fcompany%2Fcrimson-cloud-consulting-limited-22416207.html&api_key=adc3d866682a18dad67c04d3bcbc7f1c&scraper_sdk=python
Greenstar Environmental,WESTGATE ALDRIDGE ,WS9 8EX,Aldridge ,West Midlands England,01922 745 050,NA,NA,,NA,"Waste Disposal, Recycling","Holding Company, Pest Control",NA,NA,NA,NA,NA,NA,NA,NA,NA,https://api.scraperapi.com/?url=https%3A%2F%2Faldridge.cylex-uk.co.uk%2Fcompany%2Fgreenstar-environmental-20062747.html&api_key=adc3d866682a18dad67c04d3bcbc7f1c&scraper_sdk=python
Rotometrics International Ltd,Walsall Road ,WS9 0SW,Aldridge ,West Midlands England,01922 610000,0800 526793,01922 610100,www.rotometrics.com,"Order Forms, Presentation folders, Pressure Sensitive Labels, Promotional Labels, Thermal Transfer Labels, Accessories","Printing, Flexographic Printing, Hot Stamping, Embossing, Flexography","Tool Design, Tool Manufacturers, Miscellaneous Manufacturing, Manufacturing, Products, Reliable, Facilities, Sheet, CNC, Printing Technology, Tooling, Cylinders, Tinting, Cutters, Gears, Operation, Reputation, Leader, Edm, Accurate, Nonwovens, Additions, Cutting Dies, Sheeters, Mandrels, Die Makers, Printing Cylinders, Uniflex, Labelexpo, Anvil Rolls, Anvils, Converting Industry, Micrometrics, Perforator, Print Cylinders, Rotary Cutting Dies, Rotometrics, Uei",NA,NA,09:00 - 17:00,09:00 - 17:00,Closed,Closed,09:00 - 17:00,09:00 - 17:00,09:00 - 17:00,https://api.scraperapi.com/?url=https%3A%2F%2Faldridge.cylex-uk.co.uk%2Fcompany%2Frotometrics-international-ltd-14583973.html&api_key=adc3d866682a18dad67c04d3bcbc7f1c&scraper_sdk=python
International Bio Remediation Services Ltd,"WESTGATE TRADING EST, WESTGATE ",WS9 8EX,Aldridge ,West Midlands England,01922 743585,NA,NA,,NA,NA,"Water Treatment, Wastewater Treatment, Water Treatment Equipment, Water Purification, Water Filtration",NA,NA,NA,NA,NA,NA,NA,NA,NA,https://api.scraperapi.com/?url=https%3A%2F%2Faldridge.cylex-uk.co.uk%2Fcompany%2Finternational-bio-remediation-services-ltd-18693513.html&api_key=adc3d866682a18dad67c04d3bcbc7f1c&scraper_sdk=python
Ocon Conveyors,"Westgate, Westgate House ",WS9 8EX,Aldridge ,West Midlands England,01922 452333,01922 458777,NA,www.ocon.co.uk,NA,NA,NA,NA,NA,09:00 - 17:00,09:00 - 17:00,Closed,Closed,09:00 - 17:00,09:00 - 17:00,09:00 - 17:00,https://api.scraperapi.com/?url=https%3A%2F%2Faldridge.cylex-uk.co.uk%2Fcompany%2Focon-conveyors-27158763.html&api_key=adc3d866682a18dad67c04d3bcbc7f1c&scraper_sdk=python
Hills Plant Hire Limited,Westgate One ,WS9 8EX,Aldridge ,West Midlands England,NA,NA,NA,,NA,NA,"Construction Equipment Hire, Construction Machinery Rental, Plant Hire",NA,NA,NA,NA,NA,NA,NA,NA,NA,https://api.scraperapi.com/?url=https%3A%2F%2Faldridge.cylex-uk.co.uk%2Fcompany%2Fhills-plant-hire-limited-21435059.html&api_key=adc3d866682a18dad67c04d3bcbc7f1c&scraper_sdk=python
H & d Developments,"WESTGATE HOUSE, WESTGATE ",WS9 8EX,Aldridge ,West Midlands England,01922 457310,01922 745692,NA,,"Resin, Gum",NA,"Adhesive Tape, Resin Manufacturers, Gum & Resin Manufacturers & Distributors, Distributors",NA,NA,NA,NA,NA,NA,NA,NA,NA,https://api.scraperapi.com/?url=https%3A%2F%2Faldridge.cylex-uk.co.uk%2Fcompany%2Fh---d-developments-13624273.html&api_key=adc3d866682a18dad67c04d3bcbc7f1c&scraper_sdk=python
GreenThumb Birmingham North,Westgate ,WS9 8EX,Aldridge ,West Midlands England,01922 458183,0800 011 1222,NA,www.greenthumb.co.uk/branch/birmingham-north,NA,"Weed control, Lawn treatment, Scarification, Aeration, Lawn renovation, Lawn pest control",NA,NA,NA,09:00 - 17:00,09:00 - 17:00,Closed,Closed,09:00 - 17:00,09:00 - 17:00,09:00 - 17:00,https://api.scraperapi.com/?url=https%3A%2F%2Faldridge.cylex-uk.co.uk%2Fcompany%2Fgreenthumb-birmingham-north-24881963.html&api_key=adc3d866682a18dad67c04d3bcbc7f1c&scraper_sdk=python
Charter Hardware & Security Ltd,"WESTGATE HOUSE, WESTGATE ",WS9 8EX,Aldridge ,West Midlands England,01922-55111,NA,NA,,NA,NA,"Hardware Store, Hardware Products",NA,NA,NA,NA,NA,NA,NA,NA,NA,https://api.scraperapi.com/?url=https%3A%2F%2Faldridge.cylex-uk.co.uk%2Fcompany%2Fcharter-hardware---security-ltd-18733481.html&api_key=adc3d866682a18dad67c04d3bcbc7f1c&scraper_sdk=python
Owens Conveyor Company,"Westgate, Westgate House ",WS9 8EX,Aldridge ,West Midlands England,01922 452333,01922 458777,NA,www.ocon.co.uk,"Bearings, Belts",NA,"Conveyors, Conveyor Belts, Conveyor Systems, Conveyors and Conveyor Belts, Belt Conveyor, Conveyor Manufacturers, Conveyor Rollers, Slats, Gravity Rollers, Conveyor Belt Systems, Flexible Conveyors, Packaging Conveyor, Modular Belt Conveyors, Stainless Steel Rollers, Plastic Slat Conveyor, Gravity Conveyor Rollers, Materials Handling, Equipment, Handling, Roller, Steel Rollers, Skate Wheels, Plastic Rollers, Roller Manufacturers, Vehicle Loader, Ball Tables, Grooved Rollers, Accumulation Conveyor, Owens Conveyors, Interfloor, Owens Conveyor Company, Stainless Steel Belt Conveyors, Conveyor Track",NA,NA,09:00 - 16:30,09:00 - 16:30,Closed,Closed,09:00 - 16:30,09:00 - 16:30,09:00 - 16:30,https://api.scraperapi.com/?url=https%3A%2F%2Faldridge.cylex-uk.co.uk%2Fcompany%2Fowens-conveyor-company-16577887.html&api_key=adc3d866682a18dad67c04d3bcbc7f1c&scraper_sdk=python
Fleetaid Ltd,WESTGATE ,WS9 8DA,Aldridge ,West Midlands England,01922 741792,01903 233787,NA,,NA,"Car Body Repairs, Auto Body Repair, Vehicle Body Repair, Car Body Shop Repairs, Car Repair, MOT, Car Garage",Vehicle Damage,NA,"Body Shop, Auto Mechanic",NA,NA,NA,NA,NA,NA,NA,https://api.scraperapi.com/?url=https%3A%2F%2Faldridge.cylex-uk.co.uk%2Fcompany%2Ffleetaid-ltd-13054959.html&api_key=adc3d866682a18dad67c04d3bcbc7f1c&scraper_sdk=python
GreenThumb Birmingham South,Westgate ,WS9 8EX,Aldridge ,West Midlands England,01922 723457,0800 011 1222,NA,www.greenthumb.co.uk/branch/birmingham-south,NA,"Scarification, Aeration, Lawn renovation, Lawn pest control, Lawn Treatment",NA,NA,NA,09:00 - 17:00,09:00 - 17:00,Closed,Closed,09:00 - 17:00,09:00 - 17:00,09:00 - 17:00,https://api.scraperapi.com/?url=https%3A%2F%2Faldridge.cylex-uk.co.uk%2Fcompany%2Fgreenthumb-birmingham-south-24882068.html&api_key=adc3d866682a18dad67c04d3bcbc7f1c&scraper_sdk=python
Hotpoint Creda Cannon,Westgate ,WS9 8EX,Aldridge ,West Midlands England,0870 906 6066,NA,NA,,NA,Appliance Repairs,Electrical Appliances,NA,NA,NA,NA,NA,NA,NA,NA,NA,https://api.scraperapi.com/?url=https%3A%2F%2Faldridge.cylex-uk.co.uk%2Fcompany%2Fhotpoint-creda-cannon-13886730.html&api_key=adc3d866682a18dad67c04d3bcbc7f1c&scraper_sdk=python
Just Rental,WESTGATE ,WS9 8BS,Aldridge ,West Midlands England,01922 454506,NA,NA,,NA,Copying,"Duplicating Service, Duplicating",NA,NA,NA,NA,NA,NA,NA,NA,NA,https://api.scraperapi.com/?url=https%3A%2F%2Faldridge.cylex-uk.co.uk%2Fcompany%2Fjust-rental-18775901.html&api_key=adc3d866682a18dad67c04d3bcbc7f1c&scraper_sdk=python
Nfrc Spv Group Walsall Aldridge,Westgate ,WS9 8EX,Aldridge ,West Midlands England,01656 667100,01922 749511,01922 749515,www.spv-uk.co.uk,NA,"leadwork, concrete repairs, roofing, slating and tiling, Roofing Services, Concrete Repair, Slating & Tiling","Roofing Contractors, Roofing Companies, Roofing Materials, Companies",NA,NA,09:00 - 17:00,09:00 - 17:00,Closed,Closed,09:00 - 17:00,09:00 - 17:00,09:00 - 17:00,https://api.scraperapi.com/?url=https%3A%2F%2Faldridge.cylex-uk.co.uk%2Fcompany%2Fnfrc-spv-group-walsall-aldridge-19252741.html&api_key=adc3d866682a18dad67c04d3bcbc7f1c&scraper_sdk=python
Structural Systems,Westgate ,WS9 8BS,Aldridge ,West Midlands England,020 8843 6509,020 8843 6500,NA,www.structuralsystemsuk.com,NA,"overview, post-tensioning, bar stressing, cable stays, strand jacking, flat jacks, cylinder jacking, synchronized lifting, bearing inspection, bearing replacement, joint replacement, launching operations, load handling systems, frp strengthening, design","Engineering, Contracting Services, Post Tensioning, Infrastructure Industries",NA,NA,NA,NA,NA,NA,NA,NA,NA,https://api.scraperapi.com/?url=https%3A%2F%2Faldridge.cylex-uk.co.uk%2Fcompany%2Fstructural-systems-18885942.html&api_key=adc3d866682a18dad67c04d3bcbc7f1c&scraper_sdk=python
Maloney Industries Tubefabs Division,WESTGATE ,WS9 8EX,Aldridge ,West Midlands England,01922 450200,NA,NA,,NA,"Oil Services, Gas Services",Oil and Gas Services,NA,NA,NA,NA,NA,NA,NA,NA,NA,https://api.scraperapi.com/?url=https%3A%2F%2Faldridge.cylex-uk.co.uk%2Fcompany%2Fmaloney-industries-tubefabs-division-14479635.html&api_key=adc3d866682a18dad67c04d3bcbc7f1c&scraper_sdk=python
Recoup Metals Ltd,WESTGATE ,WS9 8EX,Aldridge ,West Midlands England,01922-458277,NA,NA,,NA,NA,"Scrap Merchants, Scrap Dealers",NA,Scrap Metal Dealers,NA,NA,NA,NA,NA,NA,NA,https://api.scraperapi.com/?url=https%3A%2F%2Faldridge.cylex-uk.co.uk%2Fcompany%2Frecoup-metals-ltd-18646316.html&api_key=adc3d866682a18dad67c04d3bcbc7f1c&scraper_sdk=python
Howard Evans Roofing and Cladding Ltd,Westgate ,WS9 8EX,Aldridge ,West Midlands England,0121 327 1336,01922 749511,07967 670833,howardevansroofing.co.uk,NA,"roofing services, cladding services, building works, felt roofing, single ply roofing, slating, tiling, asphalt works, sheeting, window installation, roof light installation, Building Work","Roofing Contractors, Roof Lights Installation, Asphalt Work",NA,NA,NA,NA,NA,NA,NA,NA,NA,https://api.scraperapi.com/?url=https%3A%2F%2Faldridge.cylex-uk.co.uk%2Fcompany%2Fhoward-evans-roofing-and-cladding-ltd-14112285.html&api_key=adc3d866682a18dad67c04d3bcbc7f1c&scraper_sdk=python
T.J. Moran & Sons (Plant Hire) Limited,Westgate ,WS9 8BS,Aldridge ,West Midlands England,NA,NA,NA,,NA,NA,"Construction Equipment Hire, Construction Machinery Rental, Plant Hire",NA,NA,NA,NA,NA,NA,NA,NA,NA,https://api.scraperapi.com/?url=https%3A%2F%2Faldridge.cylex-uk.co.uk%2Fcompany%2Ft-j--moran---sons--plant-hire--limited-22089518.html&api_key=adc3d866682a18dad67c04d3bcbc7f1c&scraper_sdk=python
I M O Graphics Ltd,12 Wheatland Grove ,WS9 0SR,Aldridge ,West Midlands England,01922 745761,07958 450121,01922 745769,www.imographics.co.uk.php5-12.dfw1-2.websitetestlink.com,"Banners, Signs, Nameplates, Shop Signs, Magnetic Signs, A Boards, Light Boxes, School Signs, Health & Safety Signs, Vehicle Graphics, Window Graphics","FREE No Obligation On Site Visits, Vinyl Graphics & Full Colour Digital Printing, School Signs, Vehicle Graphics, Banners, A Boards, Window Graphics, Light Boxes, Magnetic Signs, Health & Safety Signs, Shop & Industrial Signs, Moulded & Flat Cut Letters, Crests & Motifs, Competitive & Excellent Direct Sales Rates, Inspirational Ideas & Different Techniques, Working with Local Councils & Blue Chip Companies, Covering - Walsall, West Brom, Cannock, Lichfield, Tamworth, Sutton Coldfield, Wolverhampton, Birmingham, The West Midlands, Willing To Travel","Sign Makers, Miscellaneous Manufacturing, Birmingham, Wolverhampton, Cannock, Lichfield, Tamworth, Sutton Coldfield, Covering Walsall, Crests & Motifs, Moulded & Flat Cut Letters, Shop & Industrial Signs, The West Midlands, Willing to Travel, Brom",NA,NA,08:00 - 18:00,08:00 - 18:00,09:00 - 12:00,Closed,08:00 - 18:00,08:00 - 18:00,08:00 - 18:00,https://api.scraperapi.com/?url=https%3A%2F%2Faldridge.cylex-uk.co.uk%2Fcompany%2Fi-m-o-graphics-ltd-16199106.html&api_key=adc3d866682a18dad67c04d3bcbc7f1c&scraper_sdk=python
Next Fasteners Ltd,WESTGATE ,WS9 8EX,Aldridge ,West Midlands England,01922743888,1922743666,NA,,NA,NA,"Hardware, Hardware Store, Hardware Products, Household Hardware, Hardware Sales, Hardware Retailer, Hardware Retail, DIY Stores, Fastenings, Fasteners & Fixing Devices",NA,NA,NA,NA,NA,NA,NA,NA,NA,https://api.scraperapi.com/?url=https%3A%2F%2Faldridge.cylex-uk.co.uk%2Fcompany%2Fnext-fasteners-ltd-18626197.html&api_key=adc3d866682a18dad67c04d3bcbc7f1c&scraper_sdk=python
LDS UK,Weybridge Road,KT15 2RF,Addlestone ,Surrey England,01932 856160,NA,NA,www.lds.org.uk,NA,NA,Church,NA,NA,NA,NA,NA,NA,NA,NA,NA,https://api.scraperapi.com/?url=https%3A%2F%2Faddlestone.cylex-uk.co.uk%2Fcompany%2Flds-uk-23724457.html&api_key=adc3d866682a18dad67c04d3bcbc7f1c&scraper_sdk=python
Surrey Lawn Tennis Association,"STREET GEORGES COLLEGE, WEYBRIDGE ROAD ",KT15 2QS,Addlestone ,Surrey England,01932 827207,NA,NA,www.surreyhockey.com,NA,NA,"Sports Club, Sports Association, Athletics Club, Sports Clubs and Associations, Sports, Associations, Club",NA,NA,NA,NA,NA,NA,NA,NA,NA,https://api.scraperapi.com/?url=https%3A%2F%2Faddlestone.cylex-uk.co.uk%2Fcompany%2Fsurrey-lawn-tennis-association-14639484.html&api_key=adc3d866682a18dad67c04d3bcbc7f1c&scraper_sdk=python
Steve Willing,"7, Weston Avenue ",KT15 1UW,Addlestone ,Surrey England,01932 827203,NA,NA,,NA,Gardening,NA,NA,NA,NA,NA,NA,NA,NA,NA,NA,https://api.scraperapi.com/?url=https%3A%2F%2Faddlestone.cylex-uk.co.uk%2Fcompany%2Fsteve-willing-16464762.html&api_key=adc3d866682a18dad67c04d3bcbc7f1c&scraper_sdk=python
ISOC360 LIMITED,2 Church Cottages Weybridge Road,KT15 2QX,Addlestone ,Surrey England,NA,NA,NA,,NA,NA,Software Development,NA,NA,NA,NA,NA,NA,NA,NA,NA,https://api.scraperapi.com/?url=https%3A%2F%2Faddlestone.cylex-uk.co.uk%2Fcompany%2Fisoc360-limited-24564232.html&api_key=adc3d866682a18dad67c04d3bcbc7f1c&scraper_sdk=python
Addlestone Mobile Car Cleaning & Valeting,122 Weston Avenue ,KT15 1UW,Addlestone ,Surrey England,01784 250512,NA,NA,,NA,"Car Wash, Car Cleaning",NA,NA,NA,NA,NA,NA,NA,NA,NA,NA,https://api.scraperapi.com/?url=https%3A%2F%2Faddlestone.cylex-uk.co.uk%2Fcompany%2Faddlestone-mobile-car-cleaning---valeting-23808671.html&api_key=adc3d866682a18dad67c04d3bcbc7f1c&scraper_sdk=python
Jo Tapper Sports Ltd,"The Clubhouse, Addlestone Moor ",KT15 2QH,Addlestone ,Surrey England,NA,NA,NA,,NA,NA,Property Developers,NA,Building Companies,NA,NA,NA,NA,NA,NA,NA,https://api.scraperapi.com/?url=https%3A%2F%2Faddlestone.cylex-uk.co.uk%2Fcompany%2Fjo-tapper-sports-ltd-20509950.html&api_key=adc3d866682a18dad67c04d3bcbc7f1c&scraper_sdk=python
St George's College,Weybridge Rd ,KT15 2QS,Addlestone ,Surrey England,01932 839300,01932 839301,NA,georgianfamily.co.uk,NA,NA,NA,NA,NA,07:00 - 19:00,07:00 - 19:00,07:00 - 19:00,07:00 - 19:00,07:00 - 19:00,07:00 - 19:00,07:00 - 19:00,https://api.scraperapi.com/?url=https%3A%2F%2Faddlestone.cylex-uk.co.uk%2Fcompany%2Fst-george%2527s-college-26657580.html&api_key=adc3d866682a18dad67c04d3bcbc7f1c&scraper_sdk=python
Cooper safety redapt,Unit 1;1 Kingsway South ,WS9 8FS,Aldridge ,West Midlands England,0121 526 7058,0121 526 5076,NA,www.redapt.co.uk,"Cookies, Explosives",Electrical Services,"Threads, Equipment, Safety, Conversions, Approved, Head, Certified, Hazardous, Areas, Plug, Cooper, Approval, Nylons, Converting, Adaptor, Reducers, Flame Proof, Stopping, Hexagonal, The Dome, Ad-U, Redapt, Threadforms, Rdu",NA,NA,NA,NA,NA,NA,NA,NA,NA,https://api.scraperapi.com/?url=https%3A%2F%2Faldridge.cylex-uk.co.uk%2Fcompany%2Fcooper-safety-redapt-19364806.html&api_key=adc3d866682a18dad67c04d3bcbc7f1c&scraper_sdk=python
Church Of Jesus Christ Latter Day Saints,Weybridge Rd ,KT15 2QX,Addlestone ,Surrey England,01932 856160,NA,NA,www.comeuntochrist.org,NA,NA,NA,NA,NA,NA,NA,NA,NA,NA,NA,NA,https://api.scraperapi.com/?url=https%3A%2F%2Faddlestone.cylex-uk.co.uk%2Fcompany%2Fchurch-of-jesus-christ-latter-day-saints-26528479.html&api_key=adc3d866682a18dad67c04d3bcbc7f1c&scraper_sdk=python
Raxton Ltd,"UNIT 1, KINGSWAY SOUTH, WESTGATE ",WS9 8FS,Aldridge ,West Midlands England,01922 450400,01922 450401,NA,www.raxton.co.uk,NA,NA,"Engineering Service Company, Engineering, Engineers",NA,NA,08:30 - 17:00,08:30 - 17:00,Closed,Closed,08:30 - 17:00,08:30 - 17:00,08:30 - 17:00,https://api.scraperapi.com/?url=https%3A%2F%2Faldridge.cylex-uk.co.uk%2Fcompany%2Fraxton-ltd-18799288.html&api_key=adc3d866682a18dad67c04d3bcbc7f1c&scraper_sdk=python
Monarch-e L S Ltd,"2, Kingsway South, Westgate ",WS9 8FS,Aldridge ,West Midlands England,01922 745722,NA,NA,,NA,NA,NA,NA,NA,NA,NA,NA,NA,NA,NA,NA,https://api.scraperapi.com/?url=https%3A%2F%2Faldridge.cylex-uk.co.uk%2Fcompany%2Fmonarch-e-l-s-ltd-26836768.html&api_key=adc3d866682a18dad67c04d3bcbc7f1c&scraper_sdk=python
Weybridge Tennis Academy Addlestone,"ST GEORGE'S COLLEGE, WEYBRIDGE ROAD ",KT15 2QT,Addlestone ,Surrey England,07821 908389,NA,NA,weybridgetennisacademy.com,NA,NA,"Tennis Lessons, Tennis, Academy, Tennis Training",NA,NA,NA,NA,NA,NA,NA,NA,NA,https://api.scraperapi.com/?url=https%3A%2F%2Faddlestone.cylex-uk.co.uk%2Fcompany%2Fweybridge-tennis-academy-addlestone-22997608.html&api_key=adc3d866682a18dad67c04d3bcbc7f1c&scraper_sdk=python
Weybridge Tennis Academy Surrey,Weybridge Road;Surrey ,KT15 2QT,Addlestone ,Surrey England,NA,NA,NA,weybridgetennisacademy.com,NA,NA,"Tennis Equipment, Tennis, Academy, Tennis Lessons",NA,NA,NA,NA,NA,NA,NA,NA,NA,https://api.scraperapi.com/?url=https%3A%2F%2Faddlestone.cylex-uk.co.uk%2Fcompany%2Fweybridge-tennis-academy-surrey-23001341.html&api_key=adc3d866682a18dad67c04d3bcbc7f1c&scraper_sdk=python
Sun Mobile Comunications,3 WOODBURN DRIVE ,FK10 2HL,Alloa ,Clackmannanshire Scotland,01259 220 777,NA,NA,,NA,NA,Museums and Art Galleries,NA,NA,NA,NA,NA,NA,NA,NA,NA,https://api.scraperapi.com/?url=https%3A%2F%2Falloa.cylex-uk.co.uk%2Fcompany%2Fsun-mobile-comunications-19906762.html&api_key=adc3d866682a18dad67c04d3bcbc7f1c&scraper_sdk=python
Giordano Nails,39 Woodburn Dr ,FK10 2HN,Alloa ,Clackmannanshire Scotland,01259 222807,NA,NA,,NA,NA,"Beauty Salon, Mobile Beauty Therapist",NA,NA,NA,NA,NA,NA,NA,NA,NA,https://api.scraperapi.com/?url=https%3A%2F%2Falloa.cylex-uk.co.uk%2Fcompany%2Fgiordano-nails-20043738.html&api_key=adc3d866682a18dad67c04d3bcbc7f1c&scraper_sdk=python
Wedding Wonders,4 Whitley Close ,WD5 0TH,Abbots Langley ,Hertfordshire England,01923 682818,07733 076775,NA,wedding-wonders.com,"Wedding Favours, Wedding Stationery, Planners","Wedding Services, Wedding Planner, Wedding Planning, Wedding Car Hire, Weddings","Wedding Supplies, Wedding Accessories, Wedding Ideas, Wedding Supplies & Services, Wedding Suppliers, Wedding Coordinator, Wedding Car Rental, Services, Plan Wedding, My Wedding, Wedding Ordinators",NA,NA,NA,NA,NA,NA,NA,NA,NA,https://api.scraperapi.com/?url=https%3A%2F%2Fabbots-langley.cylex-uk.co.uk%2Fcompany%2Fwedding-wonders-13397857.html&api_key=adc3d866682a18dad67c04d3bcbc7f1c&scraper_sdk=python
Sexuality Support Team,"Administration Office, Woodside Rd ",WD5 0HT,Abbots Langley ,Hertfordshire England,0192 367 0796,NA,NA,,NA,NA,"Counselling, Counsellor, Training Courses, Family Services, Counseling, Rehabilitation, Mental Health, Training Consultants, Disability Special Needs, Disability Special Needs Services, Learning Disability Services, Specialist Services, Training Program, Drug and Alcohol Services, Training Consultancies, Child and Adolescent Services, Prison in Reach Services",NA,Psychotherapist,NA,NA,NA,NA,NA,NA,NA,https://api.scraperapi.com/?url=https%3A%2F%2Fabbots-langley.cylex-uk.co.uk%2Fcompany%2Fsexuality-support-team-18611260.html&api_key=adc3d866682a18dad67c04d3bcbc7f1c&scraper_sdk=python
A K Consultants,18 Wadham Road ,WD5 0NH,Abbots Langley ,Hertfordshire England,01923 681166,NA,NA,www.securityforyou.net,NA,NA,"Computer Shops, Computer Services, Computer Consultants",NA,NA,09:00 - 05:00,09:00 - 05:00,Closed,Closed,09:00 - 05:00,09:00 - 05:00,09:00 - 05:00,https://api.scraperapi.com/?url=https%3A%2F%2Fabbots-langley.cylex-uk.co.uk%2Fcompany%2Fa-k-consultants-15544766.html&api_key=adc3d866682a18dad67c04d3bcbc7f1c&scraper_sdk=python
Boom Pia Limited,6 West Vennel ,FK10 1EJ,Alloa ,Clackmannanshire Scotland,NA,NA,NA,,NA,NA,Restaurants,NA,NA,NA,NA,NA,NA,NA,NA,NA,https://api.scraperapi.com/?url=https%3A%2F%2Falloa.cylex-uk.co.uk%2Fcompany%2Fboom-pia-limited-20205925.html&api_key=adc3d866682a18dad67c04d3bcbc7f1c&scraper_sdk=python
Rws Furniture Distribution Ltd,"UNITS 1 & 2, ALLOA INDUSTRIAL ESTATE WARD STREET",FK10 1AT,Alloa ,Clackmannanshire Scotland,07453 056168,07878 839249,07836 729423,,NA,NA,"Lighting Equipment, Furniture Wholesalers, Carpet Wholesalers",NA,NA,NA,NA,NA,NA,NA,NA,NA,https://api.scraperapi.com/?url=https%3A%2F%2Falloa.cylex-uk.co.uk%2Fcompany%2Frws-furniture-distribution-ltd-22812938.html&api_key=adc3d866682a18dad67c04d3bcbc7f1c&scraper_sdk=python
S v P Communications,95 Whins Road ,FK10 3RF,Alloa ,Clackmannanshire Scotland,01803 665333,01803 665555,01803 665555,www.svp.co.uk,Computer Supplies,NA,"Computer Parts, Computer Consumables",NA,NA,10:00 - 18:00,10:00 - 18:00,10:00 - 18:00,Closed,10:00 - 18:00,10:00 - 18:00,10:00 - 18:00,https://api.scraperapi.com/?url=https%3A%2F%2Falloa.cylex-uk.co.uk%2Fcompany%2Fs-v-p-communications-17959884.html&api_key=adc3d866682a18dad67c04d3bcbc7f1c&scraper_sdk=python
Mike Dow,16 Wallace St ,FK10 3RZ,Alloa ,Clackmannanshire Scotland,07557 904990,NA,NA,www.mikedow.co.uk,NA,NA,Web Design,NA,NA,08:00 - 20:00,08:00 - 20:00,08:00 - 20:00,08:00 - 20:00,08:00 - 20:00,08:00 - 20:00,08:00 - 20:00,https://api.scraperapi.com/?url=https%3A%2F%2Falloa.cylex-uk.co.uk%2Fcompany%2Fmike-dow-23005659.html&api_key=adc3d866682a18dad67c04d3bcbc7f1c&scraper_sdk=python
KINGDOM ROOF COATINGS LTD,"Unit 1, , Block 4, Ward Street",FK10 1ET,Alloa ,Clackmannanshire Scotland,NA,NA,NA,,NA,NA,Roofing Contractors,NA,NA,NA,NA,NA,NA,NA,NA,NA,https://api.scraperapi.com/?url=https%3A%2F%2Falloa.cylex-uk.co.uk%2Fcompany%2Fkingdom-roof-coatings-ltd-24635279.html&api_key=adc3d866682a18dad67c04d3bcbc7f1c&scraper_sdk=python
IPPON SPORTS LTD,"Unit 3, Block 4, Ward Street",FK10 1ET,Alloa ,Clackmannanshire Scotland,NA,NA,NA,,NA,NA,Sports and Recreation Services,NA,NA,NA,NA,NA,NA,NA,NA,NA,https://api.scraperapi.com/?url=https%3A%2F%2Falloa.cylex-uk.co.uk%2Fcompany%2Fippon-sports-ltd-24560983.html&api_key=adc3d866682a18dad67c04d3bcbc7f1c&scraper_sdk=python
Dots School Of Motoring,2 WOODBANK GARDENS. ,G83 0SW,Alexandria ,West Dunbartonshire Scotland,01389 729620,NA,NA,,NA,NA,"Driving, Schools and Educational Services, Instructor",NA,Driving Instructors,NA,NA,NA,NA,NA,NA,NA,https://api.scraperapi.com/?url=https%3A%2F%2Falexandria.cylex-uk.co.uk%2Fcompany%2Fdots-school-of-motoring-17147492.html&api_key=adc3d866682a18dad67c04d3bcbc7f1c&scraper_sdk=python
KINGDOM WALL COATINGS LTD,"Unit 1, , Block 4, Ward Street",FK10 1ET,Alloa ,Clackmannanshire Scotland,NA,NA,NA,,NA,NA,"Wallcovering Installation, Flooring Contractors, Tiling Contractors",NA,NA,NA,NA,NA,NA,NA,NA,NA,https://api.scraperapi.com/?url=https%3A%2F%2Falloa.cylex-uk.co.uk%2Fcompany%2Fkingdom-wall-coatings-ltd-24635304.html&api_key=adc3d866682a18dad67c04d3bcbc7f1c&scraper_sdk=python
Steven Smith Automotive,1 Wadham Road ,WD5 0NH,Abbots Langley ,Hertfordshire England,07818 082947,NA,NA,,NA,"Car Repair, MOT, Car Service","Automotive, Aircraft & Boat, Mobile Motor Technician",NA,Automotive Repair Shops,09:00 - 17:00,09:00 - 17:00,Closed,Closed,09:00 - 17:00,09:00 - 17:00,09:00 - 17:00,https://api.scraperapi.com/?url=https%3A%2F%2Fabbots-langley.cylex-uk.co.uk%2Fcompany%2Fsteven-smith-automotive-19619809.html&api_key=adc3d866682a18dad67c04d3bcbc7f1c&scraper_sdk=python
Alloa Community Enterprises Ltd,"Unit 1, Block 1, Ward Street",FK10 3SA,Alloa ,Clackmannanshire Scotland,01259 215090,01259 727900,NA,,Furniture,"Recycling, Waste Collection, Waste Disposal, Environmental Services","Recycling Centre, Recycle, Recycling Companies, Waste Management, Scotland, Paper, Plastics, Cardboard, Ace, Waste Management Companies, Paper Collection, Waste Disposal & Reclamations",NA,NA,NA,NA,NA,NA,NA,NA,NA,https://api.scraperapi.com/?url=https%3A%2F%2Falloa.cylex-uk.co.uk%2Fcompany%2Falloa-community-enterprises-ltd-16801800.html&api_key=adc3d866682a18dad67c04d3bcbc7f1c&scraper_sdk=python
Forth Valley Kettlebells,"4, Ward St ",FK10 1ET,Alloa ,Clackmannanshire Scotland,NA,NA,NA,www.forthvalleykettlebells.com,NA,NA,NA,NA,NA,19:30 - 20:30,Closed,Closed,NA,Closed,19:30 - 20:30,Closed,https://api.scraperapi.com/?url=https%3A%2F%2Falloa.cylex-uk.co.uk%2Fcompany%2Fforth-valley-kettlebells-27108482.html&api_key=adc3d866682a18dad67c04d3bcbc7f1c&scraper_sdk=python
The Sign Shop,The Sign Shop Ward Street,FK10 1ET,Alloa ,Clackmannanshire Scotland,01259 210820,01259 219429,NA,www.sign-shop.co.uk,"Banners, Signs, Signage, Safety Signs, Nameplates, Display Banners, Name Tags, Neon Signs, Van Signs, Signs & Banners",NA,"Display Systems, Neon Signage, Sign Manufacturers",NA,NA,NA,NA,NA,NA,NA,NA,NA,https://api.scraperapi.com/?url=https%3A%2F%2Falloa.cylex-uk.co.uk%2Fcompany%2Fthe-sign-shop-17053554.html&api_key=adc3d866682a18dad67c04d3bcbc7f1c&scraper_sdk=python
Margaret M Robinson Podiatrist and Reflexologist,38 Wilson Street ,G83 0EF,Alexandria ,West Dunbartonshire Scotland,01389 751677,NA,NA,,NA,"Podiatric Medicine, Nail Management","Foot Problems, Ankle Problems, Leg Pain, HCPC Registered, Soft Tissue Management Foot Pain",NA,"Chiropodist, Podiatrist",10:00 - 19:00,10:00 - 19:00,10:00 - 12:00,Closed,10:00 - 19:00,10:00 - 19:00,10:00 - 19:00,https://api.scraperapi.com/?url=https%3A%2F%2Falexandria.cylex-uk.co.uk%2Fcompany%2Fmargaret-m-robinson-podiatrist-and-reflexologist-17108707.html&api_key=adc3d866682a18dad67c04d3bcbc7f1c&scraper_sdk=python
Cantley & Williamson,8 Wilson Street ,G83 0EG,Alexandria ,West Dunbartonshire Scotland,01389 757089,NA,NA,,NA,Building Services,NA,NA,NA,NA,NA,NA,NA,NA,NA,NA,https://api.scraperapi.com/?url=https%3A%2F%2Falexandria.cylex-uk.co.uk%2Fcompany%2Fcantley---williamson-17933072.html&api_key=adc3d866682a18dad67c04d3bcbc7f1c&scraper_sdk=python
Lumin Electric,1 Wilson Street ,G83 0EG,Alexandria ,West Dunbartonshire Scotland,01389 751871,NA,NA,,NA,NA,Electrical Goods Sales,NA,NA,NA,NA,NA,NA,NA,NA,NA,https://api.scraperapi.com/?url=https%3A%2F%2Falexandria.cylex-uk.co.uk%2Fcompany%2Flumin-electric-17056619.html&api_key=adc3d866682a18dad67c04d3bcbc7f1c&scraper_sdk=python
Ian McCallum Decorators,"17, WILSON STREET ",G83 0EG,Alexandria ,West Dunbartonshire Scotland,01389 750212,NA,NA,,NA,"Design Services, Design","Interior Design, Designers, Interior Designers, Interior Decoration, Interior Decorators, Decorators, House Painters, House Decorators",NA,NA,NA,NA,NA,NA,NA,NA,NA,https://api.scraperapi.com/?url=https%3A%2F%2Falexandria.cylex-uk.co.uk%2Fcompany%2Fian-mccallum-decorators-17147172.html&api_key=adc3d866682a18dad67c04d3bcbc7f1c&scraper_sdk=python
Donaldson Construction,2 Ward St ,FK10 1ET,Alloa ,Clackmannanshire Scotland,01259 219923,01259 211676,NA,www.clacks.gov.uk/business/directory/?business=60,NA,NA,Shopfitters,NA,Carpenters & Joiners,NA,NA,NA,NA,NA,NA,NA,https://api.scraperapi.com/?url=https%3A%2F%2Falloa.cylex-uk.co.uk%2Fcompany%2Fdonaldson-construction-17078575.html&api_key=adc3d866682a18dad67c04d3bcbc7f1c&scraper_sdk=python
SV24-7 Vending,"Unit 4, Alloa Industrial Estate, Ward Street ",FK10 1ET,Alloa ,Clackmannanshire Scotland,01259 215577,NA,NA,www.sv24-7.co.uk,NA,NA,"Vending Machine Services, Food Vending Machines, Hot Drinks Vending Machines, Vending Machine Sales, Coca Cola Vending Machines",NA,NA,09:15 - 13:15,09:15 - 13:15,Closed,Closed,09:15 - 13:15,09:15 - 13:15,09:15 - 13:15,https://api.scraperapi.com/?url=https%3A%2F%2Falloa.cylex-uk.co.uk%2Fcompany%2Fsv24-7-vending-17171138.html&api_key=adc3d866682a18dad67c04d3bcbc7f1c&scraper_sdk=python
Valley Car Sales,"BLOCK 4 UNIT 3, WARD STREET ",FK10 1ET,Alloa ,Clackmannanshire Scotland,01259 727881,01259 727881,NA,,NA,"Car Valeting, Car Cleaning, Car Detailing",NA,NA,NA,NA,NA,NA,NA,NA,NA,NA,https://api.scraperapi.com/?url=https%3A%2F%2Falloa.cylex-uk.co.uk%2Fcompany%2Fvalley-car-sales-17059324.html&api_key=adc3d866682a18dad67c04d3bcbc7f1c&scraper_sdk=python
Mcdowell Engineering Services Ltd,12 Wallace St ,FK10 3SA,Alloa ,Clackmannanshire Scotland,01259 726 665,01259 726 666,NA,,NA,NA,"Research Organisations, Scientific and Technical Services, Engineering",NA,NA,NA,NA,NA,NA,NA,NA,NA,https://api.scraperapi.com/?url=https%3A%2F%2Falloa.cylex-uk.co.uk%2Fcompany%2Fmcdowell-engineering-services-ltd-19935046.html&api_key=adc3d866682a18dad67c04d3bcbc7f1c&scraper_sdk=python
G J Nimmo Electrical Contractors,8 Ward St ,FK10 1ER,Alloa ,Clackmannanshire Scotland,01259 721985,07711 518189,01259 722566,gjnimmo.co.uk,NA,NA,"Electricians, Electrical Contractors, Electrical Installations, Industrial, Scotland, Residential, Domestics",NA,NA,NA,NA,NA,NA,NA,NA,NA,https://api.scraperapi.com/?url=https%3A%2F%2Falloa.cylex-uk.co.uk%2Fcompany%2Fg-j-nimmo-electrical-contractors-19319027.html&api_key=adc3d866682a18dad67c04d3bcbc7f1c&scraper_sdk=python
Thredgards Ltd,"Milne House, Ward Street ",FK10 1ET,Alloa ,Clackmannanshire Scotland,01259 218181,07901 848483,01259 212777,,"tapered plugs, tapred caps, round ribbed inserts, rectangle ribbed inserts, pipe end caps, tube end plugs, square end plugs, flange face protection plugs, vinyl end caps",NA,Plastic Injection Moulding,NA,NA,08:30 - 16:30,08:30 - 16:30,Closed,Closed,08:30 - 16:30,08:30 - 16:30,08:30 - 16:30,https://api.scraperapi.com/?url=https%3A%2F%2Falloa.cylex-uk.co.uk%2Fcompany%2Fthredgards-ltd-17123204.html&api_key=adc3d866682a18dad67c04d3bcbc7f1c&scraper_sdk=python
Mcewan Blacksmiths,"UNIT 2, 8 WARD STREET ",FK10 1ER,Alloa ,Clackmannanshire Scotland,01259 571191,01259 571191,NA,www.mcewanblacksmiths.co.uk,"Steel, Security Fencing, Wrought Iron Gates, Weldmesh, Steel Palisade",Gate Automation,"Steel Fabrication, Stainless Steel, Structural Steelwork, Blacksmith, Blacksmiths & Forgemasters, Railings, Security Grilles, Metalworks, Chain Link, Flood Barriers, Estate Fencing and Gates",NA,NA,NA,NA,NA,NA,NA,NA,NA,https://api.scraperapi.com/?url=https%3A%2F%2Falloa.cylex-uk.co.uk%2Fcompany%2Fmcewan-blacksmiths-22978206.html&api_key=adc3d866682a18dad67c04d3bcbc7f1c&scraper_sdk=python
BIO-KLEEN LIMITED,"Unit 33 Alloa Business Centre, Whins Road ",FK10 3SA,Alloa ,Clackmannanshire Scotland,01259 720721,NA,NA,www.biokleen.co.uk,NA,NA,Business Support,NA,NA,NA,NA,NA,NA,NA,NA,NA,https://api.scraperapi.com/?url=https%3A%2F%2Falloa.cylex-uk.co.uk%2Fcompany%2Fbio-kleen-limited-25448411.html&api_key=adc3d866682a18dad67c04d3bcbc7f1c&scraper_sdk=python
Mcewan Blacksmiths,"Unit 2, 8 Ward Street ",FK10 1ER,Alloa ,Clackmannanshire Scotland,01259 573585,07846 083597,01259 571191,www.mcewanblacksmiths.co.uk,"Steel, Gates, Security Fencing, Driveway Gates, Sliding Gates, Metal Fencing, Wrought Iron Gates & Railings, Handrails, Security Doors, Access Ramps","Glasgow,  Edinburgh,  Perth,  Stirling,  Fife,  Lanarkshire,  Ayrshire.","Steel Fabricators, Steel Erectors, Steel Fabrication, Structural Steelwork, Blacksmith, Blacksmiths & Forgemasters, Architectural Metalwork, Stairways, Wrought Ironwork, Fire Escapes, Walkways, Ornamental Ironwork, Ball Courts, Flood Barriers, Ring Beam, Flood Protection Systems, Steel Access Ladders, Steel Palisade Fencing & Gates, Timber Fencin, Timber Fencing & Decking, Weldmesh Chainlink Fencing",NA,Fencing Contractors,NA,NA,NA,NA,NA,NA,NA,https://api.scraperapi.com/?url=https%3A%2F%2Falloa.cylex-uk.co.uk%2Fcompany%2Fmcewan-blacksmiths-17716689.html&api_key=adc3d866682a18dad67c04d3bcbc7f1c&scraper_sdk=python
William Curle Developments Limited,"Office 90 Alloa Business Centre, Whins Road ",FK10 3SA,Alloa ,Clackmannanshire Scotland,0870 518 1715,NA,NA,,NA,NA,"Management Consultants, Financial Management, Business Consultants",NA,NA,NA,NA,NA,NA,NA,NA,NA,https://api.scraperapi.com/?url=https%3A%2F%2Falloa.cylex-uk.co.uk%2Fcompany%2Fwilliam-curle-developments-limited-22957284.html&api_key=adc3d866682a18dad67c04d3bcbc7f1c&scraper_sdk=python
WHEEL WHIZZ LTD,"Unit 83, Alloa Business Centre, Whins Road ",FK10 3SA,Alloa ,Clackmannanshire Scotland,07732 813029,NA,NA,www.wheelwhizz.co.uk,NA,"Car Repair, Car Maintenance",NA,NA,NA,08:30 - 17:00,08:30 - 15:00,09:00 - 12:00,Closed,08:30 - 17:00,08:30 - 17:00,08:30 - 17:00,https://api.scraperapi.com/?url=https%3A%2F%2Falloa.cylex-uk.co.uk%2Fcompany%2Fwheel-whizz-ltd-25280232.html&api_key=adc3d866682a18dad67c04d3bcbc7f1c&scraper_sdk=python
Geostokos (Ecosse) Ltd,"66 Alloa Business Centre, Whins Road ",FK10 3SA,Alloa ,Clackmannanshire Scotland,01259 726600,01259 215274,NA,www.kriging.com,NA,NA,NA,NA,NA,NA,NA,NA,NA,NA,NA,NA,https://api.scraperapi.com/?url=https%3A%2F%2Falloa.cylex-uk.co.uk%2Fcompany%2Fgeostokos--ecosse--ltd-17080392.html&api_key=adc3d866682a18dad67c04d3bcbc7f1c&scraper_sdk=python
WILLIAM CURLE PROJECTS LIMITED,"Office 90 Alloa Business Centre, Whins Road ",FK10 3SA,Alloa ,Clackmannanshire Scotland,NA,NA,NA,,NA,NA,NA,NA,Dormant Companies,NA,NA,NA,NA,NA,NA,NA,https://api.scraperapi.com/?url=https%3A%2F%2Falloa.cylex-uk.co.uk%2Fcompany%2Fwilliam-curle-projects-limited-25286066.html&api_key=adc3d866682a18dad67c04d3bcbc7f1c&scraper_sdk=python
Gems Sweets Limited,"45 Alloa Business Centre, Whins Road ",FK10 3SA,Alloa ,Clackmannanshire Scotland,NA,NA,NA,,"Bread, Cakes, Confectionery",NA,"Bakery, Patisserie",NA,NA,NA,NA,NA,NA,NA,NA,NA,https://api.scraperapi.com/?url=https%3A%2F%2Falloa.cylex-uk.co.uk%2Fcompany%2Fgems-sweets-limited-22515606.html&api_key=adc3d866682a18dad67c04d3bcbc7f1c&scraper_sdk=python
Jordan Shaw Ltd,"Alloa Business Centre, Whins Road ",FK10 3SA,Alloa ,Clackmannanshire Scotland,01259 723564,01259 207670,0845 055 0323,www.jordan-shaw.co.uk,NA,NA,NA,NA,NA,NA,NA,NA,NA,NA,NA,NA,https://api.scraperapi.com/?url=https%3A%2F%2Falloa.cylex-uk.co.uk%2Fcompany%2Fjordan-shaw-ltd-27119568.html&api_key=adc3d866682a18dad67c04d3bcbc7f1c&scraper_sdk=python
Solicitors Financial Services (Central Scotland) Ltd,"38 Alloa Business Centre, Whins Road ",FK10 3SA,Alloa ,Clackmannanshire Scotland,01259 726664,01259 724700,0800 023 4567,sfscentralscotland.co.uk,NA,NA,"Financial Services, Financial Planning, Financial Advice, Retirement Planning, Wealth Management Advice, Investment Planning, Graphic Designers, Management Consultants, Tax Planning",NA,NA,NA,NA,NA,NA,NA,NA,NA,https://api.scraperapi.com/?url=https%3A%2F%2Falloa.cylex-uk.co.uk%2Fcompany%2Fsolicitors-financial-services--central-scotland--ltd-19666006.html&api_key=adc3d866682a18dad67c04d3bcbc7f1c&scraper_sdk=python
Village Balti,95 Whins Road ,FK10 3RF,Alloa ,Clackmannanshire Scotland,01259 725890,NA,NA,,NA,NA,NA,NA,NA,NA,NA,NA,NA,NA,NA,NA,https://api.scraperapi.com/?url=https%3A%2F%2Falloa.cylex-uk.co.uk%2Fcompany%2Fvillage-balti-27085551.html&api_key=adc3d866682a18dad67c04d3bcbc7f1c&scraper_sdk=python
Stewart Accounting Services Limited,90 Whins Road ,FK10 3RF,Alloa ,Clackmannanshire Scotland,+44 1259 721156,NA,NA,stewartaccounting.co.uk,NA,"Accountancy, Book keeping","Accounting, Bookkeeping, Chartered Accountants, Accountancy Firms, Tax Accounting Services, VAT Return, Accountants Near Me, Accoutancy Services near me",NA,"Accounting firm, Chartered Accountant",09:00 - 17:00,09:00 - 17:00,Closed,Closed,09:00 - 17:00,09:00 - 17:00,09:00 - 17:00,https://api.scraperapi.com/?url=https%3A%2F%2Falloa.cylex-uk.co.uk%2Fcompany%2Fstewart-accounting-services-limited-27123251.html&api_key=adc3d866682a18dad67c04d3bcbc7f1c&scraper_sdk=python
Tru-Tone Ltd,"Unit 8, Block 1, Alloa Industrial Estate, Ward Street ",FK10 1ET,Alloa ,Clackmannanshire Scotland,01259 211943,07929 608220,01259 211943,,NA,NA,"Manufacture of Musical Instruments, Musical Instrument Manufacturers",NA,NA,10:00 - 17:30,10:00 - 17:30,10:00 - 15:00,Closed,10:00 - 17:30,10:00 - 17:30,10:00 - 17:30,https://api.scraperapi.com/?url=https%3A%2F%2Falloa.cylex-uk.co.uk%2Fcompany%2Ftru-tone-ltd-20055385.html&api_key=adc3d866682a18dad67c04d3bcbc7f1c&scraper_sdk=python
Ellkayoh Limited,"GABERSTON COTTAGE, 44 WHINS ROAD ",FK10 3RE,Alloa ,Clackmannanshire Scotland,NA,NA,NA,,NA,NA,"Fitness Centre, Fitness",NA,NA,NA,NA,NA,NA,NA,NA,NA,https://api.scraperapi.com/?url=https%3A%2F%2Falloa.cylex-uk.co.uk%2Fcompany%2Fellkayoh-limited-21300488.html&api_key=adc3d866682a18dad67c04d3bcbc7f1c&scraper_sdk=python
Gaberston House,82 Whins Road ,FK10 3SB,Alloa ,Clackmannanshire Scotland,01259 722402,NA,NA,www.crossreach.org.uk,NA,NA,"Social Care, Elder People Support",NA,NA,NA,NA,NA,NA,NA,NA,NA,https://api.scraperapi.com/?url=https%3A%2F%2Falloa.cylex-uk.co.uk%2Fcompany%2Fgaberston-house-17125733.html&api_key=adc3d866682a18dad67c04d3bcbc7f1c&scraper_sdk=python
Scottish Society For Autism,BALMYRE CENTRE WHINS ROAD ,FK10 3RH,Alloa ,Clackmannanshire Scotland,01259 729341,NA,NA,www.scottishautism.org,NA,NA,"Charities, Club",NA,NA,10:00 - 16:00,10:00 - 16:00,Closed,Closed,10:00 - 16:00,10:00 - 16:00,10:00 - 16:00,https://api.scraperapi.com/?url=https%3A%2F%2Falloa.cylex-uk.co.uk%2Fcompany%2Fscottish-society-for-autism-20008881.html&api_key=adc3d866682a18dad67c04d3bcbc7f1c&scraper_sdk=python
Silicon Group,95 Whins Road ,FK10 3RF,Alloa ,Clackmannanshire Scotland,01259 725200,01259 725270,NA,www.isilicon.co.uk,NA,NA,"Computer Components, PC Accessories, Retail Shops, PC Software, Computer Shops, Processors, Scanners",NA,Printers,10:00 - 17:30,10:00 - 17:30,10:00 - 17:30,Closed,10:00 - 17:30,10:00 - 17:30,10:00 - 17:30,https://api.scraperapi.com/?url=https%3A%2F%2Falloa.cylex-uk.co.uk%2Fcompany%2Fsilicon-group-17067473.html&api_key=adc3d866682a18dad67c04d3bcbc7f1c&scraper_sdk=python
Hamilton & Brydie,"GABERSTON FARM, WHINS ROAD ",FK10 3RD,Alloa ,Clackmannanshire Scotland,01259 722896,01259 216217,NA,,"Aggregates, Sand, Gravel",NA,"Road Haulage, Haulage, Road Haulage Contractors, Road Haulage Transport, Road Transport, Haulage Contractors, Transportation & Logistics, Road Haulage Companies, Logistics, Transport & Logistics",NA,NA,NA,NA,NA,NA,NA,NA,NA,https://api.scraperapi.com/?url=https%3A%2F%2Falloa.cylex-uk.co.uk%2Fcompany%2Fhamilton---brydie-17061731.html&api_key=adc3d866682a18dad67c04d3bcbc7f1c&scraper_sdk=python
Asda Alloa Superstore,Whins Road ,FK10 3SD,Alloa ,Clackmannanshire Scotland,01259 226600,NA,NA,http://storelocator.asda.com/store/alloa,NA,NA,"Supermarkets, Clothing Shops",NA,"Asda Stores Limited, Supermarket, ATM, Cafe, Gas Station, Clothing Shop",08:00 - 22:00,08:00 - 22:00,08:00 - 22:00,08:00 - 22:00,08:00 - 22:00,08:00 - 22:00,08:00 - 22:00,https://api.scraperapi.com/?url=https%3A%2F%2Falloa.cylex-uk.co.uk%2Fcompany%2Fasda-alloa-superstore-19243837.html&api_key=adc3d866682a18dad67c04d3bcbc7f1c&scraper_sdk=python
SPICE FUSION ALLOA LTD,101 Whins Road ,FK10 3RF,Alloa ,Clackmannanshire Scotland,01259 218005,NA,NA,spicefusionalloa.co.uk,NA,NA,NA,NA,NA,16:00 - 23:00,16:00 - 24:00,16:00 - 24:00,16:00 - 23:00,16:00 - 23:00,16:00 - 23:00,16:00 - 23:00,https://api.scraperapi.com/?url=https%3A%2F%2Falloa.cylex-uk.co.uk%2Fcompany%2Fspice-fusion-alloa-ltd-25693337.html&api_key=adc3d866682a18dad67c04d3bcbc7f1c&scraper_sdk=python
E-Net Computers Ltd.,95B Whins Road ,FK10 3RF,Alloa ,Clackmannanshire Scotland,01259 725200,01259 725270,NA,www.isilicon.co.uk,NA,NA,Computer Sales,NA,NA,10:00 - 18:00,10:00 - 18:00,10:00 - 18:00,Closed,10:00 - 18:00,10:00 - 18:00,10:00 - 18:00,https://api.scraperapi.com/?url=https%3A%2F%2Falloa.cylex-uk.co.uk%2Fcompany%2Fe-net-computers-ltd--19915899.html&api_key=adc3d866682a18dad67c04d3bcbc7f1c&scraper_sdk=python
ALDI,Whins Road ,FK10 3SE,Alloa ,Clackmannanshire Scotland,0844 406 8800,NA,NA,www.aldi.co.uk,NA,NA,"Supermarkets, Hypermarket, Retailers",NA,NA,08:00 - 22:00,08:00 - 22:00,08:00 - 22:00,09:00 - 19:00,08:00 - 22:00,08:00 - 22:00,08:00 - 22:00,https://api.scraperapi.com/?url=https%3A%2F%2Falloa.cylex-uk.co.uk%2Fcompany%2Faldi-20065452.html&api_key=adc3d866682a18dad67c04d3bcbc7f1c&scraper_sdk=python
Horizon Nhs Trust,"ERIC SHEPHERD UNIT, WOODSIDE ROAD ",WD5 0HT,Abbots Langley ,Hertfordshire England,01923 670804,01923 670804,NA,,Vehicles,NA,"Commercial Vehicles, Commercials, Repairers, Body Builders",NA,"Commercial Vehicle Repairers, Commercial Vehicle Bodybuilders, Commercial Vehicle Bodybuilders and Repairers",NA,NA,NA,NA,NA,NA,NA,https://api.scraperapi.com/?url=https%3A%2F%2Fabbots-langley.cylex-uk.co.uk%2Fcompany%2Fhorizon-nhs-trust-16193122.html&api_key=adc3d866682a18dad67c04d3bcbc7f1c&scraper_sdk=python
Hertfordshire Partnership Nhs Trust,Woodside Road ,WD5 0HT,Abbots Langley ,Hertfordshire England,01923 681948,NA,NA,,NA,NA,NA,NA,"Medical Centre, Medical Practice, Clinic",NA,NA,NA,NA,NA,NA,NA,https://api.scraperapi.com/?url=https%3A%2F%2Fabbots-langley.cylex-uk.co.uk%2Fcompany%2Fhertfordshire-partnership-nhs-trust-16184324.html&api_key=adc3d866682a18dad67c04d3bcbc7f1c&scraper_sdk=python
DPEX SOLUTIONS LIMITED,16 Windsor Gardens ,FK10 2LB,Alloa ,Clackmannanshire Scotland,01324 870441,NA,NA,,NA,"blocked drains, flood alleviation, drainage services, pipework contractors, sewage consultants, water engineers, drainage engineers, water leak detection, Drainage","Site Preparation Services, Drainage Consultants",NA,Pipework Contractors,Open 24 Hours,Open 24 Hours,Open 24 Hours,Open 24 Hours,Open 24 Hours,Open 24 Hours,Open 24 Hours,https://api.scraperapi.com/?url=https%3A%2F%2Falloa.cylex-uk.co.uk%2Fcompany%2Fdpex-solutions-limited-24318190.html&api_key=adc3d866682a18dad67c04d3bcbc7f1c&scraper_sdk=python
Firs and Hewlitt,"The Firs and Hewlitt, Woodside Road ",WD5 0HT,Abbots Langley ,Hertfordshire England,01923 681157,056 0313 4673,NA,www.lifeopportunitiestrust.co.uk,NA,NA,"Residential Care Homes, Dementia Care, Learning Difficulties, Old Age 65, Physical Disability",NA,NA,NA,NA,NA,NA,NA,NA,NA,https://api.scraperapi.com/?url=https%3A%2F%2Fabbots-langley.cylex-uk.co.uk%2Fcompany%2Ffirs-and-hewlitt-23484687.html&api_key=adc3d866682a18dad67c04d3bcbc7f1c&scraper_sdk=python
