Name,Street,Postal,Locality,Region,Phone,Mobile,Fax,Website,Products,Service,Keyword,Facilities,Categories,Thursday,Friday,Saturday,Sunday,Monday,Tuesday,Wednesday,URL
AVS Image Designs,,,Falkirk ,,07394 865519,NA,NA,https://avsimagedesigns.co.uk/,NA,NA,"Graphic Designers, Website Designers, Stationery Shops, Web Consultants",NA,"Graphic Designers, Website Designers, Stationery Shops, Web Consultants",13:00 - 18:00,13:00 - 18:00,13:00 - 18:00,13:00 - 18:00,13:00 - 18:00,13:00 - 18:00,13:00 - 18:00,https://api.scraperapi.com/?url=https%3A%2F%2Ffalkirk.cylex-uk.co.uk%2Fcompany%2Favs-image-designs-27123333.html&api_key=adc3d866682a18dad67c04d3bcbc7f1c&scraper_sdk=python
Wagon And Horses,9 King Street ,DE55 7AF,Alfreton ,Derbyshire England,01773 545890,NA,NA,www.jdwetherspoon.com,"Pubs, Bars, Accommodation, Night Clubs, Screen TV","Pubs, Bars, Accommodation, Night Clubs, Screen TV","Pubs, Bars, Accommodation, Night Clubs, Screen TV","Pubs, Bars, Accommodation, Night Clubs, Screen TV",NA,08:00 - 24:00,08:00 - 01:00,08:00 - 01:00,08:00 - 24:00,08:00 - 24:00,08:00 - 24:00,08:00 - 24:00,https://api.scraperapi.com/?url=https%3A%2F%2Falfreton.cylex-uk.co.uk%2Fcompany%2Fwagon-and-horses-19277206.html&api_key=adc3d866682a18dad67c04d3bcbc7f1c&scraper_sdk=python
The Eresby School,Eresby Avenue ,PE23 5HU,Spilsby ,Lincolnshire England,01790 752441,01790 754223,NA,www.eresbyspecialschool.co.uk,NA,NA,"School, Local Authority Schools, Local Education, Educational Establishments, Special School, Educational Institution, Special Educational Needs, Special Education, Education, Learning, College, University, Local Authority Maintained, Community Development, Specialist, Local Education Authority, Specials",NA,NA,NA,NA,NA,NA,NA,NA,NA,https://api.scraperapi.com/?url=https%3A%2F%2Fspilsby.cylex-uk.co.uk%2Fcompany%2Fthe-eresby-school-16542129.html&api_key=adc3d866682a18dad67c04d3bcbc7f1c&scraper_sdk=python
Evans & Davies,1 Cadwgan Pl ,SA46 0BU,Aberaeron ,Ceredigion Wales,01545 570335,01545 571145,NA,evansanddavies.co.uk,NA,NA,NA,NA,"Solicitors, Lawyer",09:00 - 17:00,09:00 - 17:00,Closed,Closed,09:00 - 17:00,09:00 - 17:00,09:00 - 17:00,https://api.scraperapi.com/?url=https%3A%2F%2Faberaeron.cylex-uk.co.uk%2Fcompany%2Fevans---davies-13240852.html&api_key=adc3d866682a18dad67c04d3bcbc7f1c&scraper_sdk=python
East Wold C of E Primary School,Station Rd ,LN11 8LD,Legbourne ,Lincolnshire England,01507 610060,NA,NA,,NA,NA,"School, Schooling, Local Authority Schools, Schools and Colleges, Faith Schools, Primary School, Education, Learning, Teaching, Classes, College, University, Student, Teaching Activities, Local Authority Maintained, Teaching Methods, Community Development, Voluntary Controlled",NA,NA,NA,NA,NA,NA,NA,NA,NA,https://api.scraperapi.com/?url=https%3A%2F%2Flegbourne.cylex-uk.co.uk%2Fcompany%2Feast-wold-c-of-e-primary-school-14340664.html&api_key=adc3d866682a18dad67c04d3bcbc7f1c&scraper_sdk=python
Post Office Limited,The Post Office,SA40 9XP,Llanybydder ,Ceredigion Wales,01570 480241,NA,NA,www.postoffice.co.uk,"Post Office, Mail Delivery, Current Account Servicing, Foreign Currency Euros Only, Ink and Toner, National Express Tickets","Post Office, Mail Delivery, Current Account Servicing, Foreign Currency Euros Only, Ink and Toner, National Express Tickets","Post Office, Mail Delivery, Current Account Servicing, Foreign Currency Euros Only, Ink and Toner, National Express Tickets","Post Office, Mail Delivery, Current Account Servicing, Foreign Currency Euros Only, Ink and Toner, National Express Tickets",NA,09:00 - 17:30,09:00 - 17:30,09:00 - 12:00,Closed,09:00 - 17:30,09:00 - 17:30,09:00 - 17:30,https://api.scraperapi.com/?url=https%3A%2F%2Fllanybydder.cylex-uk.co.uk%2Fcompany%2Fpost-office-limited-17127678.html&api_key=adc3d866682a18dad67c04d3bcbc7f1c&scraper_sdk=python
BUILDBASE LOUTH,Bolingbroke Road ,LN11 0WA,Louth ,Lincolnshire England,+44 1507 351280,NA,NA,www.buildbase.co.uk,"Builders' Merchants, Plasterboard, Kitchen Suppliers, Tool Rental, Cement, Patios, Bricks, Bretts","Builders' Merchants, Plasterboard, Kitchen Suppliers, Tool Rental, Cement, Patios, Bricks, Bretts","Builders' Merchants, Plasterboard, Kitchen Suppliers, Tool Rental, Cement, Patios, Bricks, Bretts",NA,"Builders' Merchants, Plasterboard, Kitchen Suppliers, Tool Rental, Cement, Patios, Bricks, Bretts",07:00 - 17:00,07:00 - 17:00,08:00 - 12:00,Closed,07:00 - 17:00,07:00 - 17:00,07:00 - 17:00,https://api.scraperapi.com/?url=https%3A%2F%2Flouth.cylex-uk.co.uk%2Fcompany%2Fbuildbase-louth-23766239.html&api_key=adc3d866682a18dad67c04d3bcbc7f1c&scraper_sdk=python
Oasis Clothing Store,"Debenhams Unit 1, Ayr Central Mill Street ",KA7 1TJ,Ayr ,South Ayrshire Scotland,01292 282084,NA,NA,www.oasis-stores.com/row/homepage,"Clothing Shops, Darlings",NA,"Clothing Shops, Darlings",NA,NA,09:00 - 19:00,09:00 - 18:00,09:00 - 18:00,11:00 - 17:00,09:00 - 18:00,09:30 - 18:00,09:00 - 18:00,https://api.scraperapi.com/?url=https%3A%2F%2Fayr-south-ayrshire.cylex-uk.co.uk%2Fcompany%2Foasis-clothing-store-19253871.html&api_key=adc3d866682a18dad67c04d3bcbc7f1c&scraper_sdk=python
The Vocational Learning Trust,THE WORK PLACE HEIGHINGTON LANE ,DL5 6AH,Aycliffe Business Park ,Durham England,NA,NA,NA,,NA,NA,"Educational Services, Education, Training Courses, Adult Education",NA,NA,NA,NA,NA,NA,NA,NA,NA,https://api.scraperapi.com/?url=https%3A%2F%2Faycliffe-business-park.cylex-uk.co.uk%2Fcompany%2Fthe-vocational-learning-trust-22904640.html&api_key=adc3d866682a18dad67c04d3bcbc7f1c&scraper_sdk=python
Granite Transformations MAIDSTONE,"Newnham Court Shopping Village, Bearsted Road ",ME14 5LH,Weavering ,Kent England,01622 807577,NA,NA,www.granitetransformations.co.uk,"Granite Worktops, Glass Worktops",NA,"Granite Worktops, Glass Worktops",NA,NA,09:30 - 17:00,09:30 - 17:00,09:30 - 17:30,10:30 - 16:30,09:30 - 17:00,09:30 - 17:00,09:30 - 17:00,https://api.scraperapi.com/?url=https%3A%2F%2Fweavering.cylex-uk.co.uk%2Fcompany%2Fgranite-transformations-maidstone-23861144.html&api_key=adc3d866682a18dad67c04d3bcbc7f1c&scraper_sdk=python
OPTIMUM SKILLS LIMITED,"Bede House St Cuthberts Way, Block 1, Ground Floor ",DL5 6DX,Aycliffe Business Park ,Durham England,01325 311832,NA,NA,www.optimumskills.co.uk,NA,NA,"Technical College, Vocational School, Education, Professional Services",NA,NA,09:00 - 17:00,08:30 - 16:00,Closed,Closed,08:30 - 17:00,08:30 - 17:00,09:00 - 17:00,https://api.scraperapi.com/?url=https%3A%2F%2Faycliffe-business-park.cylex-uk.co.uk%2Fcompany%2Foptimum-skills-limited-24860122.html&api_key=adc3d866682a18dad67c04d3bcbc7f1c&scraper_sdk=python
B&Q,"Sanquhar Farm Road, Heathfield ",KA8 9TB,Ayr ,South Ayrshire Scotland,01292 886644,01292 613110,NA,www.diy.com,"DIY Stores, Home Improvement Products, Garden Decor, Kitchen Showrooms, Mirror Frames","DIY Stores, Home Improvement Products, Garden Decor, Kitchen Showrooms, Mirror Frames","DIY Stores, Home Improvement Products, Garden Decor, Kitchen Showrooms, Mirror Frames",NA,NA,07:00 - 21:00,07:00 - 21:00,07:00 - 20:00,09:00 - 18:00,07:00 - 21:00,07:00 - 21:00,07:00 - 21:00,https://api.scraperapi.com/?url=https%3A%2F%2Fayr-south-ayrshire.cylex-uk.co.uk%2Fcompany%2Fb-q-17039020.html&api_key=adc3d866682a18dad67c04d3bcbc7f1c&scraper_sdk=python
O2 Broadband and Telecommunication - Cribbs Causeway,Cribbs Causeway ,BS34 5DG,Bristol ,City Of Bristol England,0117 959 4628,NA,NA,www.o2.co.uk,"Telecommunication Services, Data Mobile","Telecommunication Services, Data Mobile","Telecommunication Services, Data Mobile","Telecommunication Services, Data Mobile",NA,09:30 - 21:00,09:30 - 21:00,09:00 - 20:00,11:00 - 17:00,09:30 - 20:00,09:30 - 20:00,09:30 - 20:00,https://api.scraperapi.com/?url=https%3A%2F%2Fbristol.cylex-uk.co.uk%2Fcompany%2Fo2-broadband-and-telecommunication---cribbs-causeway-16577283.html&api_key=adc3d866682a18dad67c04d3bcbc7f1c&scraper_sdk=python
RBS The Royal Bank of Scotland MUNLOCHY,"Bank House, 44 Millbank Road ",IV8 8NL,Munlochy ,Highland Scotland,01463 811811,NA,NA,personal.rbs.co.uk/personal.html,NA,"Bank, Travel, Credit Card","Bank, Travel, Credit Card","Bank, Travel, Credit Card",NA,09:30 - 13:00,Closed,Closed,Closed,Closed,09:30 - 13:00,Closed,https://api.scraperapi.com/?url=https%3A%2F%2Fmunlochy.cylex-uk.co.uk%2Fcompany%2Frbs-the-royal-bank-of-scotland-munlochy-17269583.html&api_key=adc3d866682a18dad67c04d3bcbc7f1c&scraper_sdk=python
Howdens  - Chatham,"Unit 12, Lordswood Industrial Estate, ",ME5 8UD,Chatham ,Kent England,01634 412400,01634 865283,NA,https://www.howdens.com/find-a-depot/chatham,"Granite Worktops, Quartz Worktops, Kitchen Units, Splashbacks, Kitchen Remodellers, Kitchen Sinks, Kitchen Taps, Laminate Flooring, Vinyl Flooring, Engineered Wood Flooring, Door Suppliers, Quickstep, Sink Taps, Hardware Fixing, The Nest, Tools Accessories, Tp Link","Granite Worktops, Quartz Worktops, Kitchen Units, Splashbacks, Kitchen Remodellers, Kitchen Sinks, Kitchen Taps, Laminate Flooring, Vinyl Flooring, Engineered Wood Flooring, Door Suppliers, Quickstep, Sink Taps, Hardware Fixing, The Nest, Tools Accessories, Tp Link","Granite Worktops, Quartz Worktops, Kitchen Units, Splashbacks, Kitchen Remodellers, Kitchen Sinks, Kitchen Taps, Laminate Flooring, Vinyl Flooring, Engineered Wood Flooring, Door Suppliers, Quickstep, Sink Taps, Hardware Fixing, The Nest, Tools Accessories, Tp Link",NA,"Granite Worktops, Quartz Worktops, Kitchen Units, Splashbacks, Kitchen Remodellers, Kitchen Sinks, Kitchen Taps, Laminate Flooring, Vinyl Flooring, Engineered Wood Flooring, Door Suppliers, Quickstep, Sink Taps, Hardware Fixing, The Nest, Tools Accessories, Tp Link",08:00 - 17:00,08:00 - 17:00,08:00 - 12:00,Closed,08:00 - 17:00,08:00 - 17:00,08:00 - 17:00,https://api.scraperapi.com/?url=https%3A%2F%2Fchatham.cylex-uk.co.uk%2Fcompany%2Fhowdens----chatham-18895022.html&api_key=adc3d866682a18dad67c04d3bcbc7f1c&scraper_sdk=python
Harvey Mclean Ltd.,5 Old Bridge Road ,KA8 9SX,Ayr ,South Ayrshire Scotland,01292 283595,01292 283045,NA,harveymclean.co.uk,"Education, Designers, Joinery Manufacturers, Shopfitters, Manufacture of Carpentry and Joinery, Street, Arts and Entertainment, Colleges & Universities, Luxury Kitchens, Gay Bar, Community Organisations, Fit out Contractors, Art Technology, Bar Manufacturers, Hotel Fit out, Restaurant Fit out, Bespoke Bars, Bar Fit, Bar Fit out","Education, Designers, Joinery Manufacturers, Shopfitters, Manufacture of Carpentry and Joinery, Street, Arts and Entertainment, Colleges & Universities, Luxury Kitchens, Gay Bar, Community Organisations, Fit out Contractors, Art Technology, Bar Manufacturers, Hotel Fit out, Restaurant Fit out, Bespoke Bars, Bar Fit, Bar Fit out","Education, Designers, Joinery Manufacturers, Shopfitters, Manufacture of Carpentry and Joinery, Street, Arts and Entertainment, Colleges & Universities, Luxury Kitchens, Gay Bar, Community Organisations, Fit out Contractors, Art Technology, Bar Manufacturers, Hotel Fit out, Restaurant Fit out, Bespoke Bars, Bar Fit, Bar Fit out",NA,"Education, Designers, Joinery Manufacturers, Shopfitters, Manufacture of Carpentry and Joinery, Street, Arts and Entertainment, Colleges & Universities, Luxury Kitchens, Gay Bar, Community Organisations, Fit out Contractors, Art Technology, Bar Manufacturers, Hotel Fit out, Restaurant Fit out, Bespoke Bars, Bar Fit, Bar Fit out",09:00 - 17:00,09:00 - 17:00,Closed,Closed,09:00 - 17:00,09:00 - 17:00,09:00 - 17:00,https://api.scraperapi.com/?url=https%3A%2F%2Fayr-south-ayrshire.cylex-uk.co.uk%2Fcompany%2Fharvey-mclean-ltd--17758190.html&api_key=adc3d866682a18dad67c04d3bcbc7f1c&scraper_sdk=python
Millburn Takeaway,32 Millburn Road ,IV2 3TR,Inverness ,Highland Scotland,01463 713222,NA,NA,www.just-eat.co.uk/restaurants-millburn-chinese-takeaway-inverness/menu,NA,NA,"Takeaway, Grocery",NA,NA,NA,NA,16:30 - 23:00,16:30 - 23:00,NA,NA,NA,https://api.scraperapi.com/?url=https%3A%2F%2Finverness.cylex-uk.co.uk%2Fcompany%2Fmillburn-takeaway-17065735.html&api_key=adc3d866682a18dad67c04d3bcbc7f1c&scraper_sdk=python
COLINTON FOODS LIMITED,Colinton ,IV6 7SA,Tore ,Highland Scotland,NA,NA,NA,,NA,NA,Takeaway,NA,NA,NA,NA,NA,NA,NA,NA,NA,https://api.scraperapi.com/?url=https%3A%2F%2Ftore.cylex-uk.co.uk%2Fcompany%2Fcolinton-foods-limited-24232343.html&api_key=adc3d866682a18dad67c04d3bcbc7f1c&scraper_sdk=python
SHAHJALAL (INVERNESS) LTD,"Unit 3B2, Raj Tandoori Smithton Industrial Estate ",IV2 7WL,Smithton ,Highland Scotland,NA,NA,NA,,NA,NA,Takeaway,NA,NA,NA,NA,NA,NA,NA,NA,NA,https://api.scraperapi.com/?url=https%3A%2F%2Fsmithton.cylex-uk.co.uk%2Fcompany%2Fshahjalal--inverness--ltd-25053733.html&api_key=adc3d866682a18dad67c04d3bcbc7f1c&scraper_sdk=python
Culloden Take-a-Way,KEPPOCH ROAD ,IV2 7LL,Culloden ,Highland Scotland,01463791019,0131 221 9595,NA,,NA,NA,Takeaway,NA,NA,NA,NA,NA,NA,NA,NA,NA,https://api.scraperapi.com/?url=https%3A%2F%2Fculloden.cylex-uk.co.uk%2Fcompany%2Fculloden-take-a-way-17137543.html&api_key=adc3d866682a18dad67c04d3bcbc7f1c&scraper_sdk=python
GREEN HIGHLAND PROPERTIES LTD.,21 Hillpark Brae ,IV8 8PL,Munlochy ,Highland Scotland,NA,NA,NA,,NA,NA,"Estate Agents, Takeaway, Real Estate",NA,NA,NA,NA,NA,NA,NA,NA,NA,https://api.scraperapi.com/?url=https%3A%2F%2Fmunlochy.cylex-uk.co.uk%2Fcompany%2Fgreen-highland-properties-ltd--24469065.html&api_key=adc3d866682a18dad67c04d3bcbc7f1c&scraper_sdk=python
Deveron Fast Foods Limited,Achorn House 34 Millbank Road ,IV8 8ND,Munlochy ,Highland Scotland,NA,NA,NA,,NA,NA,"Takeaway, Takeaway Food Shops, Mobile Food Stands",NA,NA,NA,NA,NA,NA,NA,NA,NA,https://api.scraperapi.com/?url=https%3A%2F%2Fmunlochy.cylex-uk.co.uk%2Fcompany%2Fdeveron-fast-foods-limited-22438907.html&api_key=adc3d866682a18dad67c04d3bcbc7f1c&scraper_sdk=python
Magic Wok Takeaway,1 Barn Church Road ,IV2 7WB,Culloden ,Highland Scotland,01463 798866,NA,NA,,NA,NA,"Takeaway, Restaurants, Takeaway Food, Fast Food Restaurants, Takeaway & Fast Food",NA,NA,04:30 - 23:00,04:30 - 23:00,04:30 - 23:00,04:30 - 23:00,04:30 - 23:00,04:30 - 23:00,04:30 - 23:00,https://api.scraperapi.com/?url=https%3A%2F%2Fculloden.cylex-uk.co.uk%2Fcompany%2Fmagic-wok-takeaway-17134157.html&api_key=adc3d866682a18dad67c04d3bcbc7f1c&scraper_sdk=python
Demon Catering Limited,"ACHORN HOUSE, 34 MILLBANK ROAD ",IV8 8ND,Munlochy ,Highland Scotland,NA,NA,NA,,NA,NA,"Takeaway, Takeaway Food Shops, Mobile Food Stands",NA,NA,NA,NA,NA,NA,NA,NA,NA,https://api.scraperapi.com/?url=https%3A%2F%2Fmunlochy.cylex-uk.co.uk%2Fcompany%2Fdemon-catering-limited-22436162.html&api_key=adc3d866682a18dad67c04d3bcbc7f1c&scraper_sdk=python
Karls Kitchen Ltd,Avoch Road,IV10 8TU,Fortrose ,Highland Scotland,NA,NA,NA,,NA,NA,Takeaway,NA,NA,NA,NA,NA,NA,NA,NA,NA,https://api.scraperapi.com/?url=https%3A%2F%2Ffortrose.cylex-uk.co.uk%2Fcompany%2Fkarls-kitchen-ltd-22611068.html&api_key=adc3d866682a18dad67c04d3bcbc7f1c&scraper_sdk=python
RBS The Royal Bank of Scotland DINGWALL,High Street,IV15 9HF,Dingwall ,Highland Scotland,01349 862131,NA,NA,personal.rbs.co.uk/personal.html,NA,"Bank, Travel, Credit Card","Bank, Travel, Credit Card","Bank, Travel, Credit Card",NA,09:00 - 17:00,09:00 - 17:00,09:00 - 12:30,Closed,09:00 - 17:00,09:00 - 17:00,09:30 - 17:00,https://api.scraperapi.com/?url=https%3A%2F%2Fdingwall.cylex-uk.co.uk%2Fcompany%2Frbs-the-royal-bank-of-scotland-dingwall-17080688.html&api_key=adc3d866682a18dad67c04d3bcbc7f1c&scraper_sdk=python
Gabi's Tandoori,1 Rose St ,IV9 8QH,Avoch ,Highland Scotland,01381 621000,NA,NA,,NA,NA,"Takeaway, Takeaway Food, Sandwich Shop, Indians",NA,NA,17:00 - 22:00,17:00 - 22:00,17:00 - 22:00,16:00 - 21:00,Closed,17:00 - 22:00,17:00 - 22:00,https://api.scraperapi.com/?url=https%3A%2F%2Favoch.cylex-uk.co.uk%2Fcompany%2Fgabi%2527s-tandoori-17964496.html&api_key=adc3d866682a18dad67c04d3bcbc7f1c&scraper_sdk=python
Jasmine,37 High St ,IV9 8PT,Avoch ,Highland Scotland,01381 620866,NA,NA,,NA,NA,"Takeaway, Takeaway Food",NA,NA,NA,NA,NA,NA,NA,NA,NA,https://api.scraperapi.com/?url=https%3A%2F%2Favoch.cylex-uk.co.uk%2Fcompany%2Fjasmine-17035521.html&api_key=adc3d866682a18dad67c04d3bcbc7f1c&scraper_sdk=python
Abrial Rozario,Rose Place ,IV9 8QH,Avoch ,Highland Scotland,01381 622265,01381 621000,01381 622265,,NA,NA,"Takeaway, Warehousing & Storage",NA,NA,NA,NA,NA,NA,NA,NA,NA,https://api.scraperapi.com/?url=https%3A%2F%2Favoch.cylex-uk.co.uk%2Fcompany%2Fabrial-rozario-19915348.html&api_key=adc3d866682a18dad67c04d3bcbc7f1c&scraper_sdk=python
Clydesdale Bank PLC,"PARK HOUSE, HIGH STREET ",IV15 9HA,Dingwall ,Highland Scotland,01349 862292,01349 865407,NA,cbonline.co.uk,NA,"Bank, Private Banking, Business Banking","Bank, Private Banking, Business Banking",NA,NA,09:15 - 16:30,09:15 - 16:30,Closed,Closed,09:15 - 16:30,09:15 - 16:30,09:15 - 16:30,https://api.scraperapi.com/?url=https%3A%2F%2Fdingwall.cylex-uk.co.uk%2Fcompany%2Fclydesdale-bank-plc-17139280.html&api_key=adc3d866682a18dad67c04d3bcbc7f1c&scraper_sdk=python
Post Office Limited,Dingwall,IV7 8LU,Jemimaville ,Highland Scotland,03457223344,NA,NA,www.postoffice.co.uk,"Post Office, Mail Delivery, Postal Service, Ink and Toner, International UK Mail Delivery","Post Office, Mail Delivery, Postal Service, Ink and Toner, International UK Mail Delivery","Post Office, Mail Delivery, Postal Service, Ink and Toner, International UK Mail Delivery","Post Office, Mail Delivery, Postal Service, Ink and Toner, International UK Mail Delivery",NA,11:00 - 16:00,Closed,Closed,Closed,11:00 - 16:00,Closed,Closed,https://api.scraperapi.com/?url=https%3A%2F%2Fjemimaville.cylex-uk.co.uk%2Fcompany%2Fpost-office-limited-17262467.html&api_key=adc3d866682a18dad67c04d3bcbc7f1c&scraper_sdk=python
Invergordon P.O,96 High Street ,IV18 0DL,Invergordon ,Highland Scotland,01349 852209,NA,NA,,"Post Office, Letters, Special Delivery, Business Mail, Letter Delivery, Sending Mail, Postage, Package Delivery, Car Insurance, Travel Insurance, Postal Service, Mailing, Passport, Savings, Banking, Post, Credit Card, Postal Rates, Postal Tariffs, Annual, Foreign Currency Exchange, Instant Saver, Licence Applications","Post Office, Letters, Special Delivery, Business Mail, Letter Delivery, Sending Mail, Postage, Package Delivery, Car Insurance, Travel Insurance, Postal Service, Mailing, Passport, Savings, Banking, Post, Credit Card, Postal Rates, Postal Tariffs, Annual, Foreign Currency Exchange, Instant Saver, Licence Applications","Post Office, Letters, Special Delivery, Business Mail, Letter Delivery, Sending Mail, Postage, Package Delivery, Car Insurance, Travel Insurance, Postal Service, Mailing, Passport, Savings, Banking, Post, Credit Card, Postal Rates, Postal Tariffs, Annual, Foreign Currency Exchange, Instant Saver, Licence Applications",NA,NA,NA,NA,NA,NA,NA,NA,NA,https://api.scraperapi.com/?url=https%3A%2F%2Finvergordon.cylex-uk.co.uk%2Fcompany%2Finvergordon-p-o-17128301.html&api_key=adc3d866682a18dad67c04d3bcbc7f1c&scraper_sdk=python
Clydesdale Bank PLC,64 HIGH STREET ,IV18 0DH,Invergordon ,Highland Scotland,01349 852228,01349 854169,NA,cbonline.co.uk,NA,"Bank, Private Banking, Business Banking","Bank, Private Banking, Business Banking",NA,NA,NA,NA,NA,NA,NA,NA,NA,https://api.scraperapi.com/?url=https%3A%2F%2Finvergordon.cylex-uk.co.uk%2Fcompany%2Fclydesdale-bank-plc-17138100.html&api_key=adc3d866682a18dad67c04d3bcbc7f1c&scraper_sdk=python
Post Office Limited,40 High Street ,IV15 9SN,Dingwall ,Highland Scotland,03457223344,NA,NA,www.postoffice.co.uk,NA,"Post Office, Mail Delivery, Current Account Servicing, National Express Tickets","Post Office, Mail Delivery, Current Account Servicing, National Express Tickets",NA,NA,07:30 - 21:00,07:30 - 21:00,07:30 - 21:00,08:00 - 21:00,07:30 - 21:00,07:30 - 21:00,07:30 - 21:00,https://api.scraperapi.com/?url=https%3A%2F%2Fdingwall.cylex-uk.co.uk%2Fcompany%2Fpost-office-limited-23688735.html&api_key=adc3d866682a18dad67c04d3bcbc7f1c&scraper_sdk=python
Post Office Limited,83 High Street ,IV18 0AB,Invergordon ,Highland Scotland,01349 854135,NA,NA,www.postoffice.co.uk,NA,"Post Office, Mail Delivery, Current Account Servicing, Facilities for Hard of Hearing People, National Express Tickets","Post Office, Mail Delivery, Current Account Servicing, Facilities for Hard of Hearing People, National Express Tickets","Post Office, Mail Delivery, Current Account Servicing, Facilities for Hard of Hearing People, National Express Tickets",NA,06:00 - 22:00,06:00 - 22:00,06:00 - 22:00,08:00 - 22:00,06:00 - 22:00,06:00 - 22:00,06:00 - 22:00,https://api.scraperapi.com/?url=https%3A%2F%2Finvergordon.cylex-uk.co.uk%2Fcompany%2Fpost-office-limited-23688717.html&api_key=adc3d866682a18dad67c04d3bcbc7f1c&scraper_sdk=python
Post Office Limited,Edderton Village ,IV19 1LA,Edderton ,Highland Scotland,03457223344,NA,NA,www.postoffice.co.uk,"Post Office, Mail Delivery, Postal Service, Ink and Toner, International UK Mail Delivery","Post Office, Mail Delivery, Postal Service, Ink and Toner, International UK Mail Delivery","Post Office, Mail Delivery, Postal Service, Ink and Toner, International UK Mail Delivery",NA,NA,Closed,Closed,Closed,Closed,Closed,Closed,10:00 - 12:00,https://api.scraperapi.com/?url=https%3A%2F%2Fedderton.cylex-uk.co.uk%2Fcompany%2Fpost-office-limited-17910692.html&api_key=adc3d866682a18dad67c04d3bcbc7f1c&scraper_sdk=python
RBS The Royal Bank of Scotland INVERGORDON,60 High Street ,IV18 0DH,Invergordon ,Highland Scotland,01349 852246,NA,NA,personal.rbs.co.uk/personal.html,NA,"Bank, Travel, Credit Card","Bank, Travel, Credit Card","Bank, Travel, Credit Card",NA,10:00 - 16:00,10:00 - 16:00,Closed,Closed,10:00 - 16:00,10:00 - 16:00,10:00 - 16:00,https://api.scraperapi.com/?url=https%3A%2F%2Finvergordon.cylex-uk.co.uk%2Fcompany%2Frbs-the-royal-bank-of-scotland-invergordon-17259792.html&api_key=adc3d866682a18dad67c04d3bcbc7f1c&scraper_sdk=python
Tim Dearman Coach Hire,Inch Navie Lower ,IV17 0XL,Alness ,Highland Scotland,01349 883585,NA,NA,www.timdearmancoaches.co.uk,NA,"Holiday Insurance, Travel Insurance, coaches general advice, Coach Hire",NA,NA,NA,NA,NA,NA,NA,NA,NA,NA,https://api.scraperapi.com/?url=https%3A%2F%2Falness.cylex-uk.co.uk%2Fcompany%2Ftim-dearman-coach-hire-17175937.html&api_key=adc3d866682a18dad67c04d3bcbc7f1c&scraper_sdk=python
Post Office Limited,39 High Street ,IV17 0PT,Alness ,Highland Scotland,03457223344,NA,NA,www.postoffice.co.uk,NA,"Post Office, Mail Delivery, ATM 24hr, Current Account Servicing, National Express Tickets","Post Office, Mail Delivery, ATM 24hr, Current Account Servicing, National Express Tickets",NA,NA,09:00 - 17:30,09:00 - 17:30,09:00 - 12:30,Closed,09:00 - 17:30,09:00 - 17:30,09:00 - 17:30,https://api.scraperapi.com/?url=https%3A%2F%2Falness.cylex-uk.co.uk%2Fcompany%2Fpost-office-limited-23688716.html&api_key=adc3d866682a18dad67c04d3bcbc7f1c&scraper_sdk=python
RBS The Royal Bank of Scotland ATM,DALMORE ROAD ,IV17 0UY,Alness ,Highland Scotland,0800 121 129,NA,NA,personal.rbs.co.uk/personal.html,NA,"Bank, Travel, Credit Card","Bank, Travel, Credit Card","Bank, Travel, Credit Card",NA,NA,NA,NA,NA,NA,NA,NA,https://api.scraperapi.com/?url=https%3A%2F%2Falness.cylex-uk.co.uk%2Fcompany%2Frbs-the-royal-bank-of-scotland-atm-23676764.html&api_key=adc3d866682a18dad67c04d3bcbc7f1c&scraper_sdk=python
RBS The Royal Bank of Scotland ALNESS,53 High Street ,IV17 0SH,Alness ,Highland Scotland,01349 882209,NA,NA,personal.rbs.co.uk/personal.html,NA,"Bank, Travel, Credit Card","Bank, Travel, Credit Card","Bank, Travel, Credit Card",NA,09:00 - 17:00,09:00 - 17:00,09:00 - 12:30,Closed,09:00 - 17:00,09:00 - 17:00,09:30 - 17:00,https://api.scraperapi.com/?url=https%3A%2F%2Falness.cylex-uk.co.uk%2Fcompany%2Frbs-the-royal-bank-of-scotland-alness-17080453.html&api_key=adc3d866682a18dad67c04d3bcbc7f1c&scraper_sdk=python
Fitted Doors ME,78 Glebe Ln ,ME16 9BA,Maidstone ,Kent England,01622 725649,07802 726060,NA,www.fitteddoors.co.uk,"Kitchens, Kitchen Suppliers, Kitchen Showrooms, Organisations, Home Office, Fitted Kitchen Doors, Kitchen Doors Made-to-Measure","Kitchens, Kitchen Suppliers, Kitchen Showrooms, Organisations, Home Office, Fitted Kitchen Doors, Kitchen Doors Made-to-Measure","Kitchens, Kitchen Suppliers, Kitchen Showrooms, Organisations, Home Office, Fitted Kitchen Doors, Kitchen Doors Made-to-Measure","Kitchens, Kitchen Suppliers, Kitchen Showrooms, Organisations, Home Office, Fitted Kitchen Doors, Kitchen Doors Made-to-Measure",NA,09:30 - 17:00,09:30 - 17:00,Closed,Closed,09:30 - 17:00,09:30 - 17:00,09:30 - 17:00,https://api.scraperapi.com/?url=https%3A%2F%2Fmaidstone.cylex-uk.co.uk%2Fcompany%2Ffitted-doors-me-25825367.html&api_key=adc3d866682a18dad67c04d3bcbc7f1c&scraper_sdk=python
Harlequin Fitted Furniture Limited,SUITE 15 6-8 REVENGE ROAD ,ME5 8UD,Chatham ,Kent England,NA,NA,NA,,NA,NA,"Manufacture of Carpentry and Joinery, Manufacture of Kitchen Furniture, Kitchen Furniture Manufacturers",NA,"Manufacture of Carpentry and Joinery, Manufacture of Kitchen Furniture, Kitchen Furniture Manufacturers",NA,NA,NA,NA,NA,NA,NA,https://api.scraperapi.com/?url=https%3A%2F%2Fchatham.cylex-uk.co.uk%2Fcompany%2Fharlequin-fitted-furniture-limited-21416497.html&api_key=adc3d866682a18dad67c04d3bcbc7f1c&scraper_sdk=python
Magnet Kitchens,9 King Street ,ME14 1BA,Maidstone ,Kent England,01622 690970,NA,NA,www.magnet.co.uk/find-a-showroom/south-east/maidstone,NA,NA,NA,NA,Kitchen supply shop,09:00 - 18:00,09:00 - 18:00,09:00 - 18:00,Closed,09:00 - 18:00,09:00 - 18:00,09:00 - 18:00,https://api.scraperapi.com/?url=https%3A%2F%2Fmaidstone.cylex-uk.co.uk%2Fcompany%2Fmagnet-kitchens-16421491.html&api_key=adc3d866682a18dad67c04d3bcbc7f1c&scraper_sdk=python
Oryx Design Limited,21 UPPER FANT ROAD ,ME16 8BP,Maidstone ,Kent England,NA,NA,NA,,NA,NA,"Manufacture of Kitchen Furniture, Kitchen Furniture Manufacturers",NA,"Manufacture of Kitchen Furniture, Kitchen Furniture Manufacturers",NA,NA,NA,NA,NA,NA,NA,https://api.scraperapi.com/?url=https%3A%2F%2Fmaidstone.cylex-uk.co.uk%2Fcompany%2Foryx-design-limited-21860516.html&api_key=adc3d866682a18dad67c04d3bcbc7f1c&scraper_sdk=python
Dream Doors - Maidstone,12 Pudding Lane ,ME14 1LN,Maidstone ,Kent England,01622 808698,NA,NA,www.dreamdoors.co.uk/kitchen-showrooms/maidstone,NA,Home & Garden Kitchens,Home & Garden Kitchens,NA,Home & Garden Kitchens,09:00 - 17:00,09:00 - 17:00,10:00 - 16:00,Closed,09:00 - 17:00,09:00 - 17:00,09:00 - 17:00,https://api.scraperapi.com/?url=https%3A%2F%2Fmaidstone.cylex-uk.co.uk%2Fcompany%2Fdream-doors---maidstone-23747729.html&api_key=adc3d866682a18dad67c04d3bcbc7f1c&scraper_sdk=python
Alon Interiors Ltd,785 London Road ,ME20 6DE,Aylesford ,Kent England,01732 843900,NA,NA,aloninteriors.co.uk,"Kitchen Planning, Kitchen Showrooms, Kitchen Suppliers, Home Goods Store","Kitchen Planning, Kitchen Showrooms, Kitchen Suppliers, Home Goods Store","Kitchen Planning, Kitchen Showrooms, Kitchen Suppliers, Home Goods Store","Kitchen Planning, Kitchen Showrooms, Kitchen Suppliers, Home Goods Store","Kitchen Planning, Kitchen Showrooms, Kitchen Suppliers, Home Goods Store",09:00 - 17:00,09:00 - 17:00,10:00 - 16:00,Closed,09:00 - 17:00,09:00 - 17:00,09:00 - 17:00,https://api.scraperapi.com/?url=https%3A%2F%2Faylesford.cylex-uk.co.uk%2Fcompany%2Falon-interiors-ltd-18859582.html&api_key=adc3d866682a18dad67c04d3bcbc7f1c&scraper_sdk=python
BLUE REEF (UK) LTD,27 Fernleigh Rise ,ME20 6BP,Ditton ,Kent England,NA,NA,NA,,NA,NA,"Manufacture of Kitchen Furniture, Kitchen Furniture Manufacturers",NA,NA,NA,NA,NA,NA,NA,NA,NA,https://api.scraperapi.com/?url=https%3A%2F%2Fditton.cylex-uk.co.uk%2Fcompany%2Fblue-reef--uk--ltd-21104329.html&api_key=adc3d866682a18dad67c04d3bcbc7f1c&scraper_sdk=python
The Fitted Kitchen Limited,"THE CORNER HOUSE, 2 HIGH STREET ",ME20 7BG,Aylesford ,Kent England,NA,NA,NA,,NA,NA,"Manufacture of Kitchen Furniture, Kitchen Furniture Manufacturers",NA,NA,NA,NA,NA,NA,NA,NA,NA,https://api.scraperapi.com/?url=https%3A%2F%2Faylesford.cylex-uk.co.uk%2Fcompany%2Fthe-fitted-kitchen-limited-22114916.html&api_key=adc3d866682a18dad67c04d3bcbc7f1c&scraper_sdk=python
Howdens  - Aylesford,"Unit 2, Homefarm Estate, ",ME20 7QZ,Aylesford ,Kent England,01622 715655,01622 715699,NA,https://www.howdens.com/find-a-depot/aylesford,"Granite Worktops, Quartz Worktops, Kitchen Units, Splashbacks, Kitchen Remodellers, Kitchen Sinks, Kitchen Taps, Laminate Flooring, Vinyl Flooring, Engineered Wood Flooring, Door Suppliers, Quickstep, Sink Taps, Hardware Fixing, The Nest, Tools Accessories, Tp Link","Granite Worktops, Quartz Worktops, Kitchen Units, Splashbacks, Kitchen Remodellers, Kitchen Sinks, Kitchen Taps, Laminate Flooring, Vinyl Flooring, Engineered Wood Flooring, Door Suppliers, Quickstep, Sink Taps, Hardware Fixing, The Nest, Tools Accessories, Tp Link","Granite Worktops, Quartz Worktops, Kitchen Units, Splashbacks, Kitchen Remodellers, Kitchen Sinks, Kitchen Taps, Laminate Flooring, Vinyl Flooring, Engineered Wood Flooring, Door Suppliers, Quickstep, Sink Taps, Hardware Fixing, The Nest, Tools Accessories, Tp Link",NA,"Granite Worktops, Quartz Worktops, Kitchen Units, Splashbacks, Kitchen Remodellers, Kitchen Sinks, Kitchen Taps, Laminate Flooring, Vinyl Flooring, Engineered Wood Flooring, Door Suppliers, Quickstep, Sink Taps, Hardware Fixing, The Nest, Tools Accessories, Tp Link",08:00 - 17:00,08:00 - 17:00,08:00 - 12:00,Closed,08:00 - 17:00,08:00 - 17:00,08:00 - 17:00,https://api.scraperapi.com/?url=https%3A%2F%2Faylesford.cylex-uk.co.uk%2Fcompany%2Fhowdens----aylesford-18830044.html&api_key=adc3d866682a18dad67c04d3bcbc7f1c&scraper_sdk=python
Keemlaw Catering Compliments,9 Market Buildings ,ME14 1HP,Maidstone ,Kent England,01622 764632,01622 688664,NA,www.keemlaw.co.uk,NA,NA,"Retailers, Wholesalers, Kitchen Equipment, Kitchen Furniture Manufacturers",NA,"Retailers, Wholesalers, Kitchen Equipment, Kitchen Furniture Manufacturers",09:00 - 17:00,09:00 - 17:00,09:00 - 17:00,Closed,09:30 - 17:00,09:00 - 17:00,09:00 - 17:00,https://api.scraperapi.com/?url=https%3A%2F%2Fmaidstone.cylex-uk.co.uk%2Fcompany%2Fkeemlaw-catering-compliments-23738255.html&api_key=adc3d866682a18dad67c04d3bcbc7f1c&scraper_sdk=python
Wren Kitchens QUARRY WOOD,Aylesford Retail Park,ME20 7TP,Aylesford ,Kent England,01622 231420,NA,NA,www.wrenkitchens.com,Kitchens,Kitchens,Kitchens,Kitchens,NA,09:00 - 20:00,09:00 - 20:00,09:00 - 18:00,10:30 - 17:00,09:00 - 21:00,09:00 - 21:00,09:00 - 22:00,https://api.scraperapi.com/?url=https%3A%2F%2Faylesford.cylex-uk.co.uk%2Fcompany%2Fwren-kitchens-quarry-wood-23846677.html&api_key=adc3d866682a18dad67c04d3bcbc7f1c&scraper_sdk=python
Abacus Decor Kitchens & Bedrooms,"4 Appledore Court, ",ME16 0PA,Maidstone ,Kent England,01622 769777,NA,NA,http://www.abacus-decor.co.uk/,NA,NA,"Kitchen Remodellers, Flooring Contractors",NA,"Kitchen Remodellers, Flooring Contractors",Closed,10:00 - 16:00,09:00 - 17:00,Closed,10:00 - 16:00,10:00 - 16:00,10:00 - 16:00,https://api.scraperapi.com/?url=https%3A%2F%2Fmaidstone.cylex-uk.co.uk%2Fcompany%2Fabacus-decor-kitchens---bedrooms-23504751.html&api_key=adc3d866682a18dad67c04d3bcbc7f1c&scraper_sdk=python
Lip Property Maintenance,2 Dalblair Rd ,KA7 1UL,Ayr ,South Ayrshire Scotland,01292 264169,07850 653349,NA,,Warehousing & Storage,Warehousing & Storage,Warehousing & Storage,NA,Warehousing & Storage,NA,NA,NA,NA,NA,NA,NA,https://api.scraperapi.com/?url=https%3A%2F%2Fayr-south-ayrshire.cylex-uk.co.uk%2Fcompany%2Flip-property-maintenance-19912502.html&api_key=adc3d866682a18dad67c04d3bcbc7f1c&scraper_sdk=python
M H Crawford Joinery Ltd,30 Sunningdale Avenue ,KA7 4RQ,Ayr ,South Ayrshire Scotland,01292 440 112,NA,NA,,Warehousing & Storage,Warehousing & Storage,Warehousing & Storage,NA,Warehousing & Storage,06:00 - 23:00,06:00 - 23:00,06:00 - 23:00,06:00 - 23:00,06:00 - 23:00,06:00 - 23:00,06:00 - 23:00,https://api.scraperapi.com/?url=https%3A%2F%2Fayr-south-ayrshire.cylex-uk.co.uk%2Fcompany%2Fm-h-crawford-joinery-ltd-19912503.html&api_key=adc3d866682a18dad67c04d3bcbc7f1c&scraper_sdk=python
Acorn Shutters & Blinds,36 Crown Street ,KA8 8AG,Ayr ,South Ayrshire Scotland,01292 263503,NA,NA,www.acornshuttersandblinds.co.uk,"Shopping & Retail, Nonstore Retailers, Home Goods Store, Material, Canopy, Door Furnishings, Scraft Shutters","Shopping & Retail, Nonstore Retailers, Home Goods Store, Material, Canopy, Door Furnishings, Scraft Shutters","Shopping & Retail, Nonstore Retailers, Home Goods Store, Material, Canopy, Door Furnishings, Scraft Shutters",NA,NA,08:00 - 18:00,08:00 - 18:00,Closed,Closed,08:00 - 18:00,08:00 - 18:00,08:00 - 18:00,https://api.scraperapi.com/?url=https%3A%2F%2Fayr-south-ayrshire.cylex-uk.co.uk%2Fcompany%2Facorn-shutters---blinds-19214916.html&api_key=adc3d866682a18dad67c04d3bcbc7f1c&scraper_sdk=python
Jewson,5 Green Street ,KA8 8AF,Ayr ,South Ayrshire Scotland,01292 268712,01292 611407,NA,www.jewson.co.uk,Quickstep,Quickstep,Quickstep,Quickstep,NA,07:30 - 17:00,07:30 - 17:00,08:00 - 12:00,Closed,07:30 - 17:00,07:30 - 17:00,07:30 - 17:00,https://api.scraperapi.com/?url=https%3A%2F%2Fayr-south-ayrshire.cylex-uk.co.uk%2Fcompany%2Fjewson-17107098.html&api_key=adc3d866682a18dad67c04d3bcbc7f1c&scraper_sdk=python
Apollo Blinds,8 Lorne Arcade ,KA7 1QL,Ayr ,South Ayrshire Scotland,01292 261838,NA,NA,www.apollo-blinds.co.uk,"duette, rollet, roman, shutter, venetian, vertical, wooden, calico, conservatory, cordless, Window Blinds, Conservatories, Awnings, Shutters","duette, rollet, roman, shutter, venetian, vertical, wooden, calico, conservatory, cordless, Window Blinds, Conservatories, Awnings, Shutters",NA,NA,NA,09:30 - 17:00,09:30 - 17:00,09:30 - 17:00,Closed,09:30 - 17:00,09:30 - 17:00,09:30 - 17:00,https://api.scraperapi.com/?url=https%3A%2F%2Fayr-south-ayrshire.cylex-uk.co.uk%2Fcompany%2Fapollo-blinds-17050318.html&api_key=adc3d866682a18dad67c04d3bcbc7f1c&scraper_sdk=python
Adam Mclaughlin Joinery Limited,2A Taylor Street ,KA8 8AU,Ayr ,South Ayrshire Scotland,01292 283234,07710 546445,01292 283904,www.joinery-ayrshire.co.uk,"Doors, PVCU windows, Staircases, Wooden Windows, Wooden Staircases, Sash Windows, Bespoke Furniture, UPVC Windows, Staircase Joinery","Doors, PVCU windows, Staircases, Wooden Windows, Wooden Staircases, Sash Windows, Bespoke Furniture, UPVC Windows, Staircase Joinery",NA,NA,"Doors, PVCU windows, Staircases, Wooden Windows, Wooden Staircases, Sash Windows, Bespoke Furniture, UPVC Windows, Staircase Joinery",08:30 - 16:30,08:30 - 16:30,Closed,Closed,08:30 - 16:30,08:30 - 16:30,08:30 - 16:30,https://api.scraperapi.com/?url=https%3A%2F%2Fayr-south-ayrshire.cylex-uk.co.uk%2Fcompany%2Fadam-mclaughlin-joinery-limited-17083061.html&api_key=adc3d866682a18dad67c04d3bcbc7f1c&scraper_sdk=python
M R B Joinery,"Unit 3, ",KA8 8DG,Ayr ,South Ayrshire Scotland,07939 590330,NA,NA,http://www.mrbjoinery.co,NA,NA,"Door Suppliers, Window Suppliers",NA,"Door Suppliers, Window Suppliers",08:00 - 17:00,08:00 - 17:00,08:00 - 12:00,Closed,08:00 - 17:00,08:00 - 17:00,08:00 - 17:00,https://api.scraperapi.com/?url=https%3A%2F%2Fayr-south-ayrshire.cylex-uk.co.uk%2Fcompany%2Fm-r-b-joinery-25807434.html&api_key=adc3d866682a18dad67c04d3bcbc7f1c&scraper_sdk=python
Caledonian Windows,13 Old Farm Rd ,KA8 9ST,Ayr ,South Ayrshire Scotland,01292 619111,NA,NA,http://www.caledonianwindows.co.uk,NA,"Window Suppliers, Door Suppliers","Window Suppliers, Door Suppliers",NA,"Window Suppliers, Door Suppliers",08:00 - 17:00,08:00 - 16:00,10:00 - 16:00,12:00 - 16:00,08:00 - 17:00,08:00 - 17:00,08:00 - 17:00,https://api.scraperapi.com/?url=https%3A%2F%2Fayr-south-ayrshire.cylex-uk.co.uk%2Fcompany%2Fcaledonian-windows-17085445.html&api_key=adc3d866682a18dad67c04d3bcbc7f1c&scraper_sdk=python
Jewson,"Unit 40 Mccalls Avenue, ",KA8 9AE,Ayr ,South Ayrshire Scotland,01292 269318,01292 611544,NA,www.jewson.co.uk,Quickstep,Quickstep,Quickstep,NA,NA,07:30 - 17:00,07:30 - 17:00,08:00 - 12:00,Closed,07:30 - 17:00,07:30 - 17:00,07:30 - 17:00,https://api.scraperapi.com/?url=https%3A%2F%2Fayr-south-ayrshire.cylex-uk.co.uk%2Fcompany%2Fjewson-17110028.html&api_key=adc3d866682a18dad67c04d3bcbc7f1c&scraper_sdk=python
Tom Callaghan Windows & Conservatories Ltd,"Unit 2, ",KA8 8BN,Ayr ,South Ayrshire Scotland,01292 288445,NA,NA,http://www.tomcallaghan.com/,NA,"Door Suppliers, Window Suppliers","Door Suppliers, Window Suppliers",NA,"Door Suppliers, Window Suppliers",09:00 - 17:00,09:00 - 16:00,10:00 - 16:00,Closed,09:00 - 17:00,09:00 - 17:00,09:00 - 17:00,https://api.scraperapi.com/?url=https%3A%2F%2Fayr-south-ayrshire.cylex-uk.co.uk%2Fcompany%2Ftom-callaghan-windows---conservatories-ltd-18882122.html&api_key=adc3d866682a18dad67c04d3bcbc7f1c&scraper_sdk=python
"LCS Workwear - Workwear, Corporate wear, & Embroidery Specialist Ayr",12 George St ,KA8 0BL,Ayr ,South Ayrshire Scotland,01292 270236,NA,NA,www.lcsembroidery.co.uk,NA,NA,NA,NA,NA,10:00 - 17:00,10:00 - 17:00,10:00 - 15:00,Closed,10:00 - 17:00,10:00 - 17:00,10:00 - 17:00,https://api.scraperapi.com/?url=https%3A%2F%2Fayr-south-ayrshire.cylex-uk.co.uk%2Fcompany%2Flcs-workwear---workwear--corporate-wear----embroidery-specialist-ayr-27152111.html&api_key=adc3d866682a18dad67c04d3bcbc7f1c&scraper_sdk=python
Rexel,Unit 4 Black Peebles Street ,KA8 8DT,Ayr ,South Ayrshire Scotland,01292 280880,01292 280882,NA,https://www.rexel.co.uk/,"Luminaire, Cabling Contractors, Industrial Equipment Suppliers, Wholesalers, Distributors, Quality, Specialist, Energy, Online, Expert, Fire Security, Stockists, Webshop, Branch, Energy Audit, Multi Channel, Electrical Tests, Security Systems Suppliers","Luminaire, Cabling Contractors, Industrial Equipment Suppliers, Wholesalers, Distributors, Quality, Specialist, Energy, Online, Expert, Fire Security, Stockists, Webshop, Branch, Energy Audit, Multi Channel, Electrical Tests, Security Systems Suppliers","Luminaire, Cabling Contractors, Industrial Equipment Suppliers, Wholesalers, Distributors, Quality, Specialist, Energy, Online, Expert, Fire Security, Stockists, Webshop, Branch, Energy Audit, Multi Channel, Electrical Tests, Security Systems Suppliers",NA,"Luminaire, Cabling Contractors, Industrial Equipment Suppliers, Wholesalers, Distributors, Quality, Specialist, Energy, Online, Expert, Fire Security, Stockists, Webshop, Branch, Energy Audit, Multi Channel, Electrical Tests, Security Systems Suppliers",07:00 - 17:30,07:00 - 17:30,Closed,Closed,07:00 - 17:30,07:00 - 17:30,07:00 - 17:30,https://api.scraperapi.com/?url=https%3A%2F%2Fayr-south-ayrshire.cylex-uk.co.uk%2Fcompany%2Frexel-26347666.html&api_key=adc3d866682a18dad67c04d3bcbc7f1c&scraper_sdk=python
Ayrshire Trade Frames Ltd,"Unit 37 Heathfield Ind Est, ",KA8 9DJ,Ayr ,,01292 737540,NA,NA,http://www.ayrshiretradeframes.co.uk,NA,"Door Suppliers, Window Suppliers","Door Suppliers, Window Suppliers",NA,"Door Suppliers, Window Suppliers",07:30 - 17:00,07:30 - 17:00,09:00 - 17:00,09:00 - 17:00,07:30 - 17:00,07:30 - 17:00,07:30 - 17:00,https://api.scraperapi.com/?url=https%3A%2F%2Fayr-south-ayrshire.cylex-uk.co.uk%2Fcompany%2Fayrshire-trade-frames-ltd-26933335.html&api_key=adc3d866682a18dad67c04d3bcbc7f1c&scraper_sdk=python
Dulux Decorator Centre - Ayr,1 Old Bridge Road ,KA8 9SX,Ayr ,South Ayrshire Scotland,01292 281726,01292 268699,NA,www.duluxdecoratorcentre.co.uk,"Paint Supplies, Floor Paint, Roller",NA,"Paint Supplies, Floor Paint, Roller",NA,NA,07:00 - 17:00,07:00 - 17:00,08:00 - 12:00,Closed,07:00 - 17:00,07:00 - 17:00,07:00 - 17:00,https://api.scraperapi.com/?url=https%3A%2F%2Fayr-south-ayrshire.cylex-uk.co.uk%2Fcompany%2Fdulux-decorator-centre---ayr-17080111.html&api_key=adc3d866682a18dad67c04d3bcbc7f1c&scraper_sdk=python
Kylemark Workwear,45 Green St ,KA8 8BQ,Ayr ,South Ayrshire Scotland,01292 618344,0800 756 0837,NA,www.kylemark.co.uk,NA,NA,Clothing Shops,NA,NA,08:30 - 17:00,08:30 - 17:00,Closed,Closed,08:30 - 17:00,08:30 - 17:00,08:30 - 17:00,https://api.scraperapi.com/?url=https%3A%2F%2Fayr-south-ayrshire.cylex-uk.co.uk%2Fcompany%2Fkylemark-workwear-25855864.html&api_key=adc3d866682a18dad67c04d3bcbc7f1c&scraper_sdk=python
Enercare Windows & Doors,2 Callander Road ,KA8 9AF,Ayr ,South Ayrshire Scotland,01292 266774,NA,NA,https://enercare.co.uk/,"Door Suppliers, Window Manufacturers, double glazing Ayr, windows and doors Ayrshire, Windows Ayrshire","Door Suppliers, Window Manufacturers, double glazing Ayr, windows and doors Ayrshire, Windows Ayrshire","Door Suppliers, Window Manufacturers, double glazing Ayr, windows and doors Ayrshire, Windows Ayrshire",NA,NA,09:00 - 17:00,09:00 - 16:00,09:30 - 14:00,Closed,09:00 - 17:00,09:00 - 17:00,09:00 - 17:00,https://api.scraperapi.com/?url=https%3A%2F%2Fayr-south-ayrshire.cylex-uk.co.uk%2Fcompany%2Fenercare-windows---doors-26669298.html&api_key=adc3d866682a18dad67c04d3bcbc7f1c&scraper_sdk=python
Toolstation Ayr,"5 Wallacetown Drive, Heathfield Industrial Estate",KA8 9FH,Ayr ,South Ayrshire Scotland,0330 333 3303,NA,NA,www.toolstation.com,"Hardware, Plumbing Supplies, Tools, Electrical Supplies, Drills, Drill Bits, Toolbox, Power Tools, Screws, Fixings, Plasterboard Fixings, Vice, Plumber Tools, Punch","Hardware, Plumbing Supplies, Tools, Electrical Supplies, Drills, Drill Bits, Toolbox, Power Tools, Screws, Fixings, Plasterboard Fixings, Vice, Plumber Tools, Punch","Hardware, Plumbing Supplies, Tools, Electrical Supplies, Drills, Drill Bits, Toolbox, Power Tools, Screws, Fixings, Plasterboard Fixings, Vice, Plumber Tools, Punch",NA,NA,07:00 - 20:00,07:00 - 20:00,07:00 - 20:00,09:00 - 16:00,07:00 - 20:00,07:00 - 20:00,07:00 - 20:00,https://api.scraperapi.com/?url=https%3A%2F%2Fayr-south-ayrshire.cylex-uk.co.uk%2Fcompany%2Ftoolstation-ayr-25324252.html&api_key=adc3d866682a18dad67c04d3bcbc7f1c&scraper_sdk=python
The Photo Wizard,14A Hope Street ,KA7 1LT,Ayr ,South Ayrshire Scotland,01292 286 936,NA,NA,,NA,"Textile Manufacturers, Warehousing & Storage","Textile Manufacturers, Warehousing & Storage",NA,NA,NA,NA,NA,NA,NA,NA,NA,https://api.scraperapi.com/?url=https%3A%2F%2Fayr-south-ayrshire.cylex-uk.co.uk%2Fcompany%2Fthe-photo-wizard-19912599.html&api_key=adc3d866682a18dad67c04d3bcbc7f1c&scraper_sdk=python
The Working Wardrobe,3 WELLINGTON SQUARE ,KA7 1EN,Ayr ,South Ayrshire Scotland,01563 549520,NA,NA,,"Safety Footwear, Embroidered Workwear, Workwear Clothing, Work Uniforms, The Working Wardrobe, Safety Hats",NA,"Safety Footwear, Embroidered Workwear, Workwear Clothing, Work Uniforms, The Working Wardrobe, Safety Hats",NA,NA,NA,NA,NA,NA,NA,NA,NA,https://api.scraperapi.com/?url=https%3A%2F%2Fayr-south-ayrshire.cylex-uk.co.uk%2Fcompany%2Fthe-working-wardrobe-19338495.html&api_key=adc3d866682a18dad67c04d3bcbc7f1c&scraper_sdk=python
Ayrshire Workwear,7 Old Bridge Street ,KA7 1QA,Ayr ,South Ayrshire Scotland,01292 268248,0870 840 2365,NA,www.ayrshireworkwear.co.uk/ayrshireworkwear/ayrshireworkwear.html,"Workwear Suppliers, Rainwear",NA,"Workwear Suppliers, Rainwear",NA,NA,10:00 - 17:00,10:00 - 17:00,10:00 - 17:00,Closed,10:00 - 17:00,10:00 - 17:00,10:00 - 17:00,https://api.scraperapi.com/?url=https%3A%2F%2Fayr-south-ayrshire.cylex-uk.co.uk%2Fcompany%2Fayrshire-workwear-17061500.html&api_key=adc3d866682a18dad67c04d3bcbc7f1c&scraper_sdk=python
Kylemark Embroidery Ltd,45 Green St ,KA8 8BQ,Ayr ,South Ayrshire Scotland,01292 618344,01292 618322,0800 756 0837,www.kylemark.co.uk,"Workwear and Uniforms, Chefs Clothing, Blouses, Miscellaneous Manufacturing, Manufacturing, Companies, Leisure Uniform",NA,"Workwear and Uniforms, Chefs Clothing, Blouses, Miscellaneous Manufacturing, Manufacturing, Companies, Leisure Uniform",NA,NA,08:30 - 17:00,08:30 - 17:00,Closed,Closed,08:30 - 17:00,08:30 - 17:00,08:30 - 17:00,https://api.scraperapi.com/?url=https%3A%2F%2Fayr-south-ayrshire.cylex-uk.co.uk%2Fcompany%2Fkylemark-embroidery-ltd-16915853.html&api_key=adc3d866682a18dad67c04d3bcbc7f1c&scraper_sdk=python
Ds Property Management Limited,20 Cathcart Street ,KA7 1BJ,Ayr ,South Ayrshire Scotland,01292 618277,NA,NA,www.designstudioayr.co.uk,"Estate Agents, Real Estate, Decoration, Interior Designers, Furnishers, Space Planning, Furniture and Lighting Retail, Cookers, Stoves & Ovens - Retail & Suppliers","Estate Agents, Real Estate, Decoration, Interior Designers, Furnishers, Space Planning, Furniture and Lighting Retail, Cookers, Stoves & Ovens - Retail & Suppliers","Estate Agents, Real Estate, Decoration, Interior Designers, Furnishers, Space Planning, Furniture and Lighting Retail, Cookers, Stoves & Ovens - Retail & Suppliers","Estate Agents, Real Estate, Decoration, Interior Designers, Furnishers, Space Planning, Furniture and Lighting Retail, Cookers, Stoves & Ovens - Retail & Suppliers","Estate Agents, Real Estate, Decoration, Interior Designers, Furnishers, Space Planning, Furniture and Lighting Retail, Cookers, Stoves & Ovens - Retail & Suppliers",09:00 - 18:00,09:00 - 18:00,09:00 - 18:00,Closed,09:00 - 18:00,09:00 - 18:00,09:00 - 18:00,https://api.scraperapi.com/?url=https%3A%2F%2Fayr-south-ayrshire.cylex-uk.co.uk%2Fcompany%2Fds-property-management-limited-22243443.html&api_key=adc3d866682a18dad67c04d3bcbc7f1c&scraper_sdk=python
Signrite Ltd,41C Green Street ,KA8 8BQ,Ayr ,South Ayrshire Scotland,01292 285908,01784 471694,01292 261539,www.kylemark.co.uk,"Logos, Embroidery Shop, Embroidery Designs, Sign Makers, Sign Writers, Staff, PPE, Embroidery Machines, Mascot, Handicrafts, Kylemark","Logos, Embroidery Shop, Embroidery Designs, Sign Makers, Sign Writers, Staff, PPE, Embroidery Machines, Mascot, Handicrafts, Kylemark","Logos, Embroidery Shop, Embroidery Designs, Sign Makers, Sign Writers, Staff, PPE, Embroidery Machines, Mascot, Handicrafts, Kylemark",NA,NA,09:00 - 17:00,09:00 - 17:00,Closed,Closed,09:00 - 17:00,09:00 - 17:00,09:00 - 17:00,https://api.scraperapi.com/?url=https%3A%2F%2Fayr-south-ayrshire.cylex-uk.co.uk%2Fcompany%2Fsignrite-ltd-17046036.html&api_key=adc3d866682a18dad67c04d3bcbc7f1c&scraper_sdk=python
Eurotrade Windows Ltd,30 Waggon Road ,KA8 8BA,Ayr ,South Ayrshire Scotland,01292 288672,01292 618050,NA,www.eurotrade-ayr.co.uk,"Miscellaneous Manufacturing, Double Glazing Installers, Fully Installed or Supply Only","Miscellaneous Manufacturing, Double Glazing Installers, Fully Installed or Supply Only","Miscellaneous Manufacturing, Double Glazing Installers, Fully Installed or Supply Only",NA,"Miscellaneous Manufacturing, Double Glazing Installers, Fully Installed or Supply Only",08:00 - 17:00,08:00 - 17:00,08:30 - 14:00,Closed,08:00 - 17:00,08:00 - 17:00,08:00 - 17:00,https://api.scraperapi.com/?url=https%3A%2F%2Fayr-south-ayrshire.cylex-uk.co.uk%2Fcompany%2Feurotrade-windows-ltd-17072029.html&api_key=adc3d866682a18dad67c04d3bcbc7f1c&scraper_sdk=python
Neweys Online Electrical Wholesaler - Ayr,"Unit 4, Black Peebles Street ",KA8 8DT,Ayr ,South Ayrshire Scotland,01292 280880,01292 280882,NA,www.rexel.co.uk/uki,"Electrical Equipment, Cable Tray, Test Instruments, Calibration and Repair","Electrical Equipment, Cable Tray, Test Instruments, Calibration and Repair","Electrical Equipment, Cable Tray, Test Instruments, Calibration and Repair",NA,NA,07:30 - 17:30,07:30 - 17:00,Closed,Closed,07:30 - 17:30,07:30 - 17:30,07:30 - 17:30,https://api.scraperapi.com/?url=https%3A%2F%2Fayr-south-ayrshire.cylex-uk.co.uk%2Fcompany%2Fneweys-online-electrical-wholesaler---ayr-16777332.html&api_key=adc3d866682a18dad67c04d3bcbc7f1c&scraper_sdk=python
Kitchen Trends,16 Parkhouse St ,KA7 2HH,Ayr ,South Ayrshire Scotland,01292 611134,NA,NA,www.kitchen-trends.co.uk,"Home Decor, Kitchen & Bath Contractor, Home Goods Store","Home Decor, Kitchen & Bath Contractor, Home Goods Store","Home Decor, Kitchen & Bath Contractor, Home Goods Store",NA,"Home Decor, Kitchen & Bath Contractor, Home Goods Store",09:00 - 17:00,09:00 - 17:00,09:30 - 17:00,Closed,09:00 - 17:00,09:00 - 17:00,09:00 - 17:00,https://api.scraperapi.com/?url=https%3A%2F%2Fayr-south-ayrshire.cylex-uk.co.uk%2Fcompany%2Fkitchen-trends-25780562.html&api_key=adc3d866682a18dad67c04d3bcbc7f1c&scraper_sdk=python
Digital Kitchens & Bedrooms Factory Outlet,1 Mosshill Ind Est ,KA6 6BE,Ayr ,South Ayrshire Scotland,01292 738083,NA,NA,digitalkitchens.co.uk,"Stove & Oven Retailers, Home & Garden Website, Garden Website","Stove & Oven Retailers, Home & Garden Website, Garden Website","Stove & Oven Retailers, Home & Garden Website, Garden Website",NA,NA,08:00 - 19:00,08:00 - 17:00,08:00 - 16:00,11:00 - 16:00,08:00 - 17:00,08:00 - 17:00,08:00 - 17:00,https://api.scraperapi.com/?url=https%3A%2F%2Fayr-south-ayrshire.cylex-uk.co.uk%2Fcompany%2Fdigital-kitchens---bedrooms-factory-outlet-25780316.html&api_key=adc3d866682a18dad67c04d3bcbc7f1c&scraper_sdk=python
AS-Nu Replacement Kitchen Doors,40A New Road ,KA8 8EX,Ayr ,South Ayrshire Scotland,01292 265557,NA,NA,www.as-nu.co.uk,"Kitchen Taps, Kitchens, Kitchen Sinks, Kitchen Showrooms, As-Nu Kitchens Ayr","Kitchen Taps, Kitchens, Kitchen Sinks, Kitchen Showrooms, As-Nu Kitchens Ayr","Kitchen Taps, Kitchens, Kitchen Sinks, Kitchen Showrooms, As-Nu Kitchens Ayr",NA,NA,09:00 - 17:00,09:00 - 17:00,09:00 - 16:00,Closed,09:00 - 17:00,09:00 - 17:00,09:00 - 17:00,https://api.scraperapi.com/?url=https%3A%2F%2Fayr-south-ayrshire.cylex-uk.co.uk%2Fcompany%2Fas-nu-replacement-kitchen-doors-17084314.html&api_key=adc3d866682a18dad67c04d3bcbc7f1c&scraper_sdk=python
Alno Contracts (Scotland),1 Carrick Road ,KA7 2RA,Ayr ,South Ayrshire Scotland,01292 283417,01292 611308,NA,www.creativedesignsayr.co.uk,Kitchen Designers,Kitchen Designers,Kitchen Designers,NA,NA,Closed,09:00 - 17:00,09:30 - 17:00,Closed,09:00 - 17:30,09:00 - 17:30,09:00 - 17:30,https://api.scraperapi.com/?url=https%3A%2F%2Fayr-south-ayrshire.cylex-uk.co.uk%2Fcompany%2Falno-contracts--scotland--17155916.html&api_key=adc3d866682a18dad67c04d3bcbc7f1c&scraper_sdk=python
Craig's Home Improvements,"Station Rd, ",KA7 3AX,Ayr ,South Ayrshire Scotland,01292 880860,NA,NA,,"Made to Measure Kitchen Doors, Granite, Quartz, Family Business, Fitted Bathrooms, New Appliances, New Worktops, Est 1985, All Products Fully Guaranteed, Free Planning Service, Open 10 am 4pm Mon-Sat, Open Sunday by appt","Made to Measure Kitchen Doors, Granite, Quartz, Family Business, Fitted Bathrooms, New Appliances, New Worktops, Est 1985, All Products Fully Guaranteed, Free Planning Service, Open 10 am 4pm Mon-Sat, Open Sunday by appt","Made to Measure Kitchen Doors, Granite, Quartz, Family Business, Fitted Bathrooms, New Appliances, New Worktops, Est 1985, All Products Fully Guaranteed, Free Planning Service, Open 10 am 4pm Mon-Sat, Open Sunday by appt",NA,NA,10:00 - 16:00,10:00 - 16:00,10:00 - 16:00,Closed,10:00 - 16:00,10:00 - 16:00,10:00 - 16:00,https://api.scraperapi.com/?url=https%3A%2F%2Fayr-south-ayrshire.cylex-uk.co.uk%2Fcompany%2Fcraig%2527s-home-improvements-26348231.html&api_key=adc3d866682a18dad67c04d3bcbc7f1c&scraper_sdk=python
Asnu Replacement Kitchen Doors,"40A, NEW ROAD ",KA8 8EX,Ayr ,South Ayrshire Scotland,01292 265977,NA,NA,www.as-nu.co.uk,"Kitchen Units, Kitchen Taps","Kitchen Units, Kitchen Taps","Kitchen Units, Kitchen Taps",NA,NA,09:00 - 17:00,09:00 - 17:00,09:00 - 17:00,Closed,09:00 - 17:00,09:00 - 17:00,09:00 - 17:00,https://api.scraperapi.com/?url=https%3A%2F%2Fayr-south-ayrshire.cylex-uk.co.uk%2Fcompany%2Fasnu-replacement-kitchen-doors-17019110.html&api_key=adc3d866682a18dad67c04d3bcbc7f1c&scraper_sdk=python
Designer Fitted Kitchens Ayr,40A NEW ROAD ,KA8 8EX,Ayr ,South Ayrshire Scotland,01292 265557,NA,NA,www.designerfittedkitchens.co.uk,"Designer Fitted Kitchens, Kitchens, Kitchen Sinks, Kitchen Appliances, Kitchen Taps, As-Nu Kitchens Ayr","Designer Fitted Kitchens, Kitchens, Kitchen Sinks, Kitchen Appliances, Kitchen Taps, As-Nu Kitchens Ayr","Designer Fitted Kitchens, Kitchens, Kitchen Sinks, Kitchen Appliances, Kitchen Taps, As-Nu Kitchens Ayr",NA,NA,09:00 - 17:00,09:00 - 17:00,09:00 - 16:00,Closed,09:00 - 17:00,09:00 - 17:00,09:00 - 17:00,https://api.scraperapi.com/?url=https%3A%2F%2Fayr-south-ayrshire.cylex-uk.co.uk%2Fcompany%2Fdesigner-fitted-kitchens-ayr-17292572.html&api_key=adc3d866682a18dad67c04d3bcbc7f1c&scraper_sdk=python
Wren Kitchens AYR,Liberator Drive ,KA8 9BF,Ayr ,South Ayrshire Scotland,01292 340020,NA,NA,www.wrenkitchens.com,Kitchens,Kitchens,Kitchens,Kitchens,NA,09:00 - 20:00,09:00 - 20:00,09:00 - 18:00,10:30 - 17:00,09:00 - 21:00,09:00 - 21:00,09:00 - 22:00,https://api.scraperapi.com/?url=https%3A%2F%2Fayr-south-ayrshire.cylex-uk.co.uk%2Fcompany%2Fwren-kitchens-ayr-26671660.html&api_key=adc3d866682a18dad67c04d3bcbc7f1c&scraper_sdk=python
Magnet Trade Ayr,"15 Old Farm Road, Heathfield Industrial Estate ",KA8 9ST,Ayr ,South Ayrshire Scotland,01292 265568,NA,NA,www.magnettrade.co.uk,"Joinery Manufacturers, Kitchen Suppliers, Sliding Bedroom Doors","Joinery Manufacturers, Kitchen Suppliers, Sliding Bedroom Doors","Joinery Manufacturers, Kitchen Suppliers, Sliding Bedroom Doors",NA,NA,07:30 - 17:00,07:30 - 17:00,08:00 - 12:00,Closed,07:30 - 17:00,07:30 - 17:00,07:30 - 17:00,https://api.scraperapi.com/?url=https%3A%2F%2Fayr-south-ayrshire.cylex-uk.co.uk%2Fcompany%2Fmagnet-trade-ayr-16926070.html&api_key=adc3d866682a18dad67c04d3bcbc7f1c&scraper_sdk=python
Howdens  - Ayr,11 Old Farm Road ,KA8 9ST,Ayr ,South Ayrshire Scotland,01292 289461,01292 284447,NA,https://www.howdens.com/find-a-depot/ayr,"Granite Worktops, Quartz Worktops, Kitchen Units, Splashbacks, Kitchen Remodellers, Kitchen Sinks, Kitchen Taps, Laminate Flooring, Vinyl Flooring, Engineered Wood Flooring, Door Suppliers, Quickstep, Sink Taps, Hardware Fixing, The Nest, Tools Accessories, Tp Link","Granite Worktops, Quartz Worktops, Kitchen Units, Splashbacks, Kitchen Remodellers, Kitchen Sinks, Kitchen Taps, Laminate Flooring, Vinyl Flooring, Engineered Wood Flooring, Door Suppliers, Quickstep, Sink Taps, Hardware Fixing, The Nest, Tools Accessories, Tp Link","Granite Worktops, Quartz Worktops, Kitchen Units, Splashbacks, Kitchen Remodellers, Kitchen Sinks, Kitchen Taps, Laminate Flooring, Vinyl Flooring, Engineered Wood Flooring, Door Suppliers, Quickstep, Sink Taps, Hardware Fixing, The Nest, Tools Accessories, Tp Link",NA,"Granite Worktops, Quartz Worktops, Kitchen Units, Splashbacks, Kitchen Remodellers, Kitchen Sinks, Kitchen Taps, Laminate Flooring, Vinyl Flooring, Engineered Wood Flooring, Door Suppliers, Quickstep, Sink Taps, Hardware Fixing, The Nest, Tools Accessories, Tp Link",08:00 - 17:00,08:00 - 17:00,08:00 - 12:00,Closed,08:00 - 17:00,08:00 - 17:00,08:00 - 17:00,https://api.scraperapi.com/?url=https%3A%2F%2Fayr-south-ayrshire.cylex-uk.co.uk%2Fcompany%2Fhowdens----ayr-17125129.html&api_key=adc3d866682a18dad67c04d3bcbc7f1c&scraper_sdk=python
Medical Response Team Training,LANGTON BUSINESS CENTRE DURHAM WAY NORTH ,DL5 6BL,Aycliffe Business Park ,Durham England,01325 308081,NA,NA,,NA,First Aid Training,NA,NA,NA,NA,NA,NA,NA,NA,NA,NA,https://api.scraperapi.com/?url=https%3A%2F%2Faycliffe-business-park.cylex-uk.co.uk%2Fcompany%2Fmedical-response-team-training-16881425.html&api_key=adc3d866682a18dad67c04d3bcbc7f1c&scraper_sdk=python
Digital Factory,DURHAM WAY SOUTH ,DL5 6XP,Aycliffe Business Park ,Durham England,01325 379600,01325 379609,NA,,NA,NA,"Training Manager, Training Courses, Training Classes, Training Service Providers, Training Consultancies, Training Services, Training Consultants",NA,NA,NA,NA,NA,NA,NA,NA,NA,https://api.scraperapi.com/?url=https%3A%2F%2Faycliffe-business-park.cylex-uk.co.uk%2Fcompany%2Fdigital-factory-13332752.html&api_key=adc3d866682a18dad67c04d3bcbc7f1c&scraper_sdk=python
Communicators Training Associates,DURHAM WAY NORTH ,DL5 6DL,Aycliffe Business Park ,Durham England,01325 308840,01325 308840,NA,www.learndirect.com,NA,NA,"Training Courses, Training Classes, Training Centre, Training Rooms, Training Programme, Educational Establishments, Training Venues, Training Services, School, Training",NA,NA,NA,NA,NA,NA,NA,NA,NA,https://api.scraperapi.com/?url=https%3A%2F%2Faycliffe-business-park.cylex-uk.co.uk%2Fcompany%2Fcommunicators-training-associates-15922706.html&api_key=adc3d866682a18dad67c04d3bcbc7f1c&scraper_sdk=python
BRIGHT FUTURES TRUST C.I.C.,"Block 2, Entrance B St Cuthberts House St Cuthberts Way ",DL5 6DX,Aycliffe Business Park ,Durham England,NA,NA,NA,,NA,NA,"Technical College, Vocational School",NA,NA,NA,NA,NA,NA,NA,NA,NA,https://api.scraperapi.com/?url=https%3A%2F%2Faycliffe-business-park.cylex-uk.co.uk%2Fcompany%2Fbright-futures-trust-c-i-c--24151239.html&api_key=adc3d866682a18dad67c04d3bcbc7f1c&scraper_sdk=python
Baltic Training Services,"Baltic House, Hilton Road ",DL5 6EN,Aycliffe Business Park ,Durham England,01325 731050,NA,NA,baltictraining.com,NA,"Vocational School, Training Centre, Training Providers, Work Based Learning, Training Services, Education, Technical College","Vocational School, Training Centre, Training Providers, Work Based Learning, Training Services, Education, Technical College",NA,NA,09:00 - 17:00,09:00 - 17:00,Closed,Closed,09:00 - 17:00,09:00 - 17:00,09:00 - 17:00,https://api.scraperapi.com/?url=https%3A%2F%2Faycliffe-business-park.cylex-uk.co.uk%2Fcompany%2Fbaltic-training-services-23038441.html&api_key=adc3d866682a18dad67c04d3bcbc7f1c&scraper_sdk=python
Langton (Medical Training) Ltd,"LANGTON BUSINESS CENTRE, DURHAM WAY NORTH, AYCLIFFE INDUSTRIAL PARK ",DL5 6BL,Aycliffe Business Park ,Durham England,01325 308081,01325 308082,NA,,NA,First Aid Training,NA,NA,NA,NA,NA,NA,NA,NA,NA,NA,https://api.scraperapi.com/?url=https%3A%2F%2Faycliffe-business-park.cylex-uk.co.uk%2Fcompany%2Flangton--medical-training--ltd-14457960.html&api_key=adc3d866682a18dad67c04d3bcbc7f1c&scraper_sdk=python
Baltic Training Services Limited,Aycliffe Business Park,DL5 6EN,Aycliffe Business Park ,Durham England,NA,NA,NA,,NA,NA,"Vocational School, Vocational Education, Technical College",NA,NA,NA,NA,NA,NA,NA,NA,NA,https://api.scraperapi.com/?url=https%3A%2F%2Faycliffe-business-park.cylex-uk.co.uk%2Fcompany%2Fbaltic-training-services-limited-22323684.html&api_key=adc3d866682a18dad67c04d3bcbc7f1c&scraper_sdk=python
S. W. Durham Training Ltd,Durham Way South,DL5 6AT,Aycliffe Business Park ,Durham England,01325 313194,01325 318249,NA,swdt.co.uk,"School, Vocational School, Vocational Education, Training Manager, Educational Services, Training Courses, Adult Education, Training Classes, Training Service Providers, Training Centre, Tertiary Education, Training Consultancies, Training Services, Training Consultants, Education, Engineering, Electronics, Technical College, Electronic Parts, Electronic Devices, Health and Safety Consultants, Electronic Accessories",NA,"School, Vocational School, Vocational Education, Training Manager, Educational Services, Training Courses, Adult Education, Training Classes, Training Service Providers, Training Centre, Tertiary Education, Training Consultancies, Training Services, Training Consultants, Education, Engineering, Electronics, Technical College, Electronic Parts, Electronic Devices, Health and Safety Consultants, Electronic Accessories",NA,NA,08:00 - 17:00,08:00 - 14:30,Closed,Closed,08:00 - 17:00,08:00 - 17:00,08:00 - 17:00,https://api.scraperapi.com/?url=https%3A%2F%2Faycliffe-business-park.cylex-uk.co.uk%2Fcompany%2Fs--w--durham-training-ltd-16995429.html&api_key=adc3d866682a18dad67c04d3bcbc7f1c&scraper_sdk=python
Jewson,Albert Road ,PE25 3RB,Skegness ,Lincolnshire England,01754 763238,01754 610581,NA,www.jewson.co.uk,Quickstep,Quickstep,Quickstep,Quickstep,NA,07:30 - 17:00,07:30 - 17:00,08:00 - 12:00,Closed,07:30 - 17:00,07:30 - 17:00,07:30 - 17:00,https://api.scraperapi.com/?url=https%3A%2F%2Fskegness.cylex-uk.co.uk%2Fcompany%2Fjewson-12910455.html&api_key=adc3d866682a18dad67c04d3bcbc7f1c&scraper_sdk=python
Ian Wood Ltd,50 FINSBURY STREET ,LN13 9BH,Alford ,Lincolnshire England,NA,NA,NA,,NA,Plasterers,Plasterers,NA,NA,NA,NA,NA,NA,NA,NA,NA,https://api.scraperapi.com/?url=https%3A%2F%2Falford-east-lindsey.cylex-uk.co.uk%2Fcompany%2Fian-wood-ltd-21454894.html&api_key=adc3d866682a18dad67c04d3bcbc7f1c&scraper_sdk=python
Lincs Timber,"The Hollies Main St, ",LN12 2QE,Mablethorpe ,,01507 834505,NA,NA,https://www.lincsbuildingproducts.co.uk,NA,NA,"Roofing Contractors, Siding Contractors",NA,"Roofing Contractors, Siding Contractors",NA,NA,NA,NA,NA,NA,NA,https://api.scraperapi.com/?url=https%3A%2F%2Fmablethorpe.cylex-uk.co.uk%2Fcompany%2Flincs-timber-26889025.html&api_key=adc3d866682a18dad67c04d3bcbc7f1c&scraper_sdk=python
Askew's Furniture Retailer,West St ,LN13 9DU,Alford ,Lincolnshire England,01507 462936,NA,NA,www.askewsfurniture.co.uk,"Shops, Bedding, Giftware, Mattress Store, Racking & Storage Products, Myers, Slumberland, Lebus","Shops, Bedding, Giftware, Mattress Store, Racking & Storage Products, Myers, Slumberland, Lebus","Shops, Bedding, Giftware, Mattress Store, Racking & Storage Products, Myers, Slumberland, Lebus",NA,"Shops, Bedding, Giftware, Mattress Store, Racking & Storage Products, Myers, Slumberland, Lebus",09:00 - 17:00,09:00 - 17:00,09:00 - 15:00,Closed,09:00 - 17:00,09:00 - 17:00,09:00 - 17:00,https://api.scraperapi.com/?url=https%3A%2F%2Falford-east-lindsey.cylex-uk.co.uk%2Fcompany%2Faskew%2527s-furniture-retailer-14015431.html&api_key=adc3d866682a18dad67c04d3bcbc7f1c&scraper_sdk=python
N.A Wood,"The Wrenwood, Farlesthorpe Road ",LN13 9PS,Alford ,Lincolnshire England,01507 463763,NA,NA,,NA,"Plasterers, Plasters","Plasterers, Plasters",NA,NA,NA,NA,NA,NA,NA,NA,NA,https://api.scraperapi.com/?url=https%3A%2F%2Falford-east-lindsey.cylex-uk.co.uk%2Fcompany%2Fn-a-wood-12804762.html&api_key=adc3d866682a18dad67c04d3bcbc7f1c&scraper_sdk=python
British Damp Proofing,19 South Street ,LN13 9AJ,Alford ,Lincolnshire England,01507 509213,01507 463687,0800 859 5968,www.britishdampproofing.co.uk,NA,Damp Survey,Damp Survey,NA,NA,NA,NA,Closed,Closed,NA,NA,NA,https://api.scraperapi.com/?url=https%3A%2F%2Falford-east-lindsey.cylex-uk.co.uk%2Fcompany%2Fbritish-damp-proofing-16841459.html&api_key=adc3d866682a18dad67c04d3bcbc7f1c&scraper_sdk=python
Arthur Wood & Sons,"Unit 6, Hardwick Court, Beechings Way Industrial Estate ",LN13 9JE,Alford ,Lincolnshire England,01507 462465,07957 622594,01507 463977,www.arthurwoodandsons.com,NA,"Construction Management, Joinery",NA,NA,"Construction Management, Joinery",08:00 - 05:00,08:00 - 05:00,Closed,Closed,08:00 - 05:00,08:00 - 05:00,08:00 - 05:00,https://api.scraperapi.com/?url=https%3A%2F%2Falford-east-lindsey.cylex-uk.co.uk%2Fcompany%2Farthur-wood---sons-13598891.html&api_key=adc3d866682a18dad67c04d3bcbc7f1c&scraper_sdk=python
Db Direct,"15, EAST STREET ",LN13 9EQ,Alford ,Lincolnshire England,01507 466819,01296 397012,NA,,"Coal, Coal & Solid Fuel, Photography, Entertainment Lifestyle, Linsminis, Firewood, Aerial Photography, Aerial Photographers",NA,"Coal, Coal & Solid Fuel, Photography, Entertainment Lifestyle, Linsminis, Firewood, Aerial Photography, Aerial Photographers",NA,NA,NA,NA,NA,NA,NA,NA,NA,https://api.scraperapi.com/?url=https%3A%2F%2Falford-east-lindsey.cylex-uk.co.uk%2Fcompany%2Fdb-direct-12834697.html&api_key=adc3d866682a18dad67c04d3bcbc7f1c&scraper_sdk=python
S S Crome Design,"17, COMMERCIAL ROAD ",LN13 9EY,Alford ,Lincolnshire England,01507 466005,01507 466017,NA,sscrome.com,"Graphic Designers, Logo Design, Visual Communication, Graphic Art, Graphic Illustration, Sign Makers, Religion, Centres, Branding, Holidays, Tourism, Creative, Installations, Forestry, Natural, Stone, Tourist Information, Castle, Historic, Great Britain, Nature, Britains, Thames, Cathedral, Celtic, Visitor, Roman, Abbey, Viking, National Trust, Reservoir, English Heritage, Armour, Battle, Forestry Commission, Visitor Centre, Nature Reserve, Stonehenge, Warriors, Historic Sites, Celt, Henge, Interpretive Design, SNH, Picts, Interpretive Panels, Tattershall, Thames Water, Scottish Natural Heritage, Standing Stone, Ancient Forest","Graphic Designers, Logo Design, Visual Communication, Graphic Art, Graphic Illustration, Sign Makers, Religion, Centres, Branding, Holidays, Tourism, Creative, Installations, Forestry, Natural, Stone, Tourist Information, Castle, Historic, Great Britain, Nature, Britains, Thames, Cathedral, Celtic, Visitor, Roman, Abbey, Viking, National Trust, Reservoir, English Heritage, Armour, Battle, Forestry Commission, Visitor Centre, Nature Reserve, Stonehenge, Warriors, Historic Sites, Celt, Henge, Interpretive Design, SNH, Picts, Interpretive Panels, Tattershall, Thames Water, Scottish Natural Heritage, Standing Stone, Ancient Forest","Graphic Designers, Logo Design, Visual Communication, Graphic Art, Graphic Illustration, Sign Makers, Religion, Centres, Branding, Holidays, Tourism, Creative, Installations, Forestry, Natural, Stone, Tourist Information, Castle, Historic, Great Britain, Nature, Britains, Thames, Cathedral, Celtic, Visitor, Roman, Abbey, Viking, National Trust, Reservoir, English Heritage, Armour, Battle, Forestry Commission, Visitor Centre, Nature Reserve, Stonehenge, Warriors, Historic Sites, Celt, Henge, Interpretive Design, SNH, Picts, Interpretive Panels, Tattershall, Thames Water, Scottish Natural Heritage, Standing Stone, Ancient Forest",NA,NA,NA,NA,NA,NA,NA,NA,NA,https://api.scraperapi.com/?url=https%3A%2F%2Falford-east-lindsey.cylex-uk.co.uk%2Fcompany%2Fs-s-crome-design-16599324.html&api_key=adc3d866682a18dad67c04d3bcbc7f1c&scraper_sdk=python
BUILDBASE ALFORD,"Beechings Way Industrial Estate, ",LN13 9JA,Alford ,Lincolnshire England,+44 1507 464320,NA,NA,www.buildbase.co.uk,"Builders' Merchants, Plasterboard, Kitchen Suppliers, Tool Rental, Cement, Patios, Bricks, Bretts","Builders' Merchants, Plasterboard, Kitchen Suppliers, Tool Rental, Cement, Patios, Bricks, Bretts","Builders' Merchants, Plasterboard, Kitchen Suppliers, Tool Rental, Cement, Patios, Bricks, Bretts",NA,"Builders' Merchants, Plasterboard, Kitchen Suppliers, Tool Rental, Cement, Patios, Bricks, Bretts",07:00 - 17:00,07:00 - 17:00,08:00 - 12:00,Closed,07:00 - 17:00,07:00 - 17:00,07:00 - 17:00,https://api.scraperapi.com/?url=https%3A%2F%2Falford-east-lindsey.cylex-uk.co.uk%2Fcompany%2Fbuildbase-alford-23766234.html&api_key=adc3d866682a18dad67c04d3bcbc7f1c&scraper_sdk=python
Alford Coal Supplies,"Red Lion Yard, Church Street ",LN13 9EG,Alford ,Lincolnshire England,01507 466211,NA,NA,www.alfordcoalsupplies.co.uk,"Coal, Smokeless Fuel Merchants, Coal Merchants, Coal and Smokeless Fuel Merchants and Distributors, Fuel Agency, Distributors, Chemical Wholesalers, Firewood, Ore, Metal Wholesalers",NA,"Coal, Smokeless Fuel Merchants, Coal Merchants, Coal and Smokeless Fuel Merchants and Distributors, Fuel Agency, Distributors, Chemical Wholesalers, Firewood, Ore, Metal Wholesalers",NA,NA,08:00 - 17:00,08:00 - 17:00,08:00 - 12:00,Closed,08:00 - 17:00,08:00 - 17:00,08:00 - 17:00,https://api.scraperapi.com/?url=https%3A%2F%2Falford-east-lindsey.cylex-uk.co.uk%2Fcompany%2Falford-coal-supplies-15660081.html&api_key=adc3d866682a18dad67c04d3bcbc7f1c&scraper_sdk=python
NATIONAL TYRES AND AUTOCARE Stirling,Linden Avenue ,FK7 7PG,Stirling ,Stirling Scotland,01786 462335,0800 432 0460,NA,www.national.co.uk,"Tyre Pressure Monitoring Systems, Steering Suspension","Tyre Pressure Monitoring Systems, Steering Suspension","Tyre Pressure Monitoring Systems, Steering Suspension",NA,"Tyre Pressure Monitoring Systems, Steering Suspension",08:30 - 18:00,08:30 - 18:00,08:30 - 17:00,10:00 - 16:00,08:30 - 18:00,08:30 - 18:00,08:30 - 18:00,https://api.scraperapi.com/?url=https%3A%2F%2Fstirling.cylex-uk.co.uk%2Fcompany%2Fnational-tyres-and-autocare-stirling-17995635.html&api_key=adc3d866682a18dad67c04d3bcbc7f1c&scraper_sdk=python
Stirling Audi,8 Craig Leith Road ,FK7 7LQ,Stirling ,Stirling Scotland,0845 485 1691,NA,NA,www.lookers.co.uk/audi/contact-us/stirling-audi,"Official Dealership, Wi Fi Available","Official Dealership, Wi Fi Available","Official Dealership, Wi Fi Available","Official Dealership, Wi Fi Available","Official Dealership, Wi Fi Available",07:00 - 19:00,07:00 - 18:00,08:00 - 13:00,Closed,07:00 - 19:00,07:00 - 19:00,07:00 - 19:00,https://api.scraperapi.com/?url=https%3A%2F%2Fstirling.cylex-uk.co.uk%2Fcompany%2Fstirling-audi-23503648.html&api_key=adc3d866682a18dad67c04d3bcbc7f1c&scraper_sdk=python
ONESTOP MOTOR ENGINEERS LTD,18 Whitehouse Road ,FK7 7SS,Stirling ,Stirling Scotland,01786 446771,NA,NA,http://www.stirling-tyres.co.uk,"Stirling, Bridge of Allan, Thornhill, Dunblane, Cowie, Alva, Bannockburn, Dollars, Menstrie, Plean, St Ninians, Throsk, Tillicoultry, Fallin, Gargunnock, TPMS Tyre Pressure Monitoring Systems","Stirling, Bridge of Allan, Thornhill, Dunblane, Cowie, Alva, Bannockburn, Dollars, Menstrie, Plean, St Ninians, Throsk, Tillicoultry, Fallin, Gargunnock, TPMS Tyre Pressure Monitoring Systems","Stirling, Bridge of Allan, Thornhill, Dunblane, Cowie, Alva, Bannockburn, Dollars, Menstrie, Plean, St Ninians, Throsk, Tillicoultry, Fallin, Gargunnock, TPMS Tyre Pressure Monitoring Systems",NA,"Stirling, Bridge of Allan, Thornhill, Dunblane, Cowie, Alva, Bannockburn, Dollars, Menstrie, Plean, St Ninians, Throsk, Tillicoultry, Fallin, Gargunnock, TPMS Tyre Pressure Monitoring Systems",08:00 - 17:00,08:00 - 17:00,08:00 - 12:00,Closed,08:00 - 17:00,08:00 - 17:00,08:00 - 17:00,https://api.scraperapi.com/?url=https%3A%2F%2Fstirling.cylex-uk.co.uk%2Fcompany%2Fonestop-motor-engineers-ltd-26719289.html&api_key=adc3d866682a18dad67c04d3bcbc7f1c&scraper_sdk=python
Ats Euromaster Stirling,"Unit 3,19-23 Kerse Road ",FK7 7SY,Stirling ,Stirling Scotland,01786 476160,01307 818940,NA,www.atseuromaster.co.uk,"tyres, brakes, car batteries, leisure batteries, car bulbs, wiper blades","tyres, brakes, car batteries, leisure batteries, car bulbs, wiper blades",NA,NA,"tyres, brakes, car batteries, leisure batteries, car bulbs, wiper blades",08:30 - 17:30,08:30 - 17:30,08:30 - 12:30,Closed,08:30 - 17:30,08:30 - 17:30,08:30 - 17:30,https://api.scraperapi.com/?url=https%3A%2F%2Fstirling.cylex-uk.co.uk%2Fcompany%2Fats-euromaster-stirling-17145293.html&api_key=adc3d866682a18dad67c04d3bcbc7f1c&scraper_sdk=python
West End Garage Skoda,Falkirk Road ,FK7 8JD,Bannockburn ,Stirling Scotland,01786 241658,NA,NA,www.westendskoda.com,"Official Dealership, Wi Fi Available","Official Dealership, Wi Fi Available","Official Dealership, Wi Fi Available","Official Dealership, Wi Fi Available","Official Dealership, Wi Fi Available",08:30 - 17:00,08:30 - 17:00,08:30 - 12:30,Closed,08:30 - 17:00,08:30 - 17:00,08:30 - 17:00,https://api.scraperapi.com/?url=https%3A%2F%2Fbannockburn.cylex-uk.co.uk%2Fcompany%2Fwest-end-garage-skoda-25785245.html&api_key=adc3d866682a18dad67c04d3bcbc7f1c&scraper_sdk=python
Kilgannon Motors Ltd,Falkirk Road ,FK7 8JD,Bannockburn ,Stirling Scotland,01786 813476,NA,NA,www.kilgannonmotors.com,Wi Fi Available,Wi Fi Available,Wi Fi Available,Wi Fi Available,Wi Fi Available,08:00 - 18:00,08:00 - 18:00,08:30 - 13:00,Closed,08:00 - 18:00,08:00 - 18:00,08:00 - 18:00,https://api.scraperapi.com/?url=https%3A%2F%2Fbannockburn.cylex-uk.co.uk%2Fcompany%2Fkilgannon-motors-ltd-26670790.html&api_key=adc3d866682a18dad67c04d3bcbc7f1c&scraper_sdk=python
SWR Auto Diagnostics & Repairs,9 Munro Rd ,FK7 7XQ,Springkerse Industrial Estate ,Stirling Scotland,01786 849489,NA,NA,www.swrautos.co.uk,"Clutch Service Centres, Brake Service Centres","Clutch Service Centres, Brake Service Centres","Clutch Service Centres, Brake Service Centres",NA,"Clutch Service Centres, Brake Service Centres",08:00 - 18:00,08:00 - 18:00,08:00 - 13:00,Closed,08:00 - 18:00,08:00 - 18:00,08:00 - 18:00,https://api.scraperapi.com/?url=https%3A%2F%2Fspringkerse-industrial-estate.cylex-uk.co.uk%2Fcompany%2Fswr-auto-diagnostics---repairs-19237078.html&api_key=adc3d866682a18dad67c04d3bcbc7f1c&scraper_sdk=python
Jk Tyres Stirling,5 Cunningham Rd ,FK7 7SW,Stirling ,Stirling Scotland,01786 450101,01786 450401,NA,www.jktyres.co.uk,"Tyre Dealer & Repair Shop, Automotive, Aircraft, Boats","Tyre Dealer & Repair Shop, Automotive, Aircraft, Boats","Tyre Dealer & Repair Shop, Automotive, Aircraft, Boats",NA,"Tyre Dealer & Repair Shop, Automotive, Aircraft, Boats",08:30 - 17:30,08:30 - 17:30,08:30 - 12:00,Closed,08:30 - 17:30,08:30 - 17:30,08:30 - 17:30,https://api.scraperapi.com/?url=https%3A%2F%2Fstirling.cylex-uk.co.uk%2Fcompany%2Fjk-tyres-stirling-18602264.html&api_key=adc3d866682a18dad67c04d3bcbc7f1c&scraper_sdk=python
M a C Atl Ltd Stirling Springkerse Industrial Estate,15 Munro Rd ,FK7 7UU,Springkerse Industrial Estate ,Stirling Scotland,01786 813198,NA,NA,,NA,"brakes and shock-absorber repair, car interior repair, car repairs, car safety checks, car air conditioning servicing and repair, clutch replacement, diesel tuning, engine diagnostics and repair, exhaust replacement and repair, mot test, wheel balancing and alignment, Car Repair, Wheel Alignment & Balancing",NA,NA,NA,NA,NA,NA,NA,NA,NA,NA,https://api.scraperapi.com/?url=https%3A%2F%2Fspringkerse-industrial-estate.cylex-uk.co.uk%2Fcompany%2Fm-a-c-atl-ltd-stirling-springkerse-industrial-estate-19281100.html&api_key=adc3d866682a18dad67c04d3bcbc7f1c&scraper_sdk=python
D&g Autocare- Stirling,8 Munro Rd ,FK7 7UU,Springkerse Industrial Estate ,Stirling Scotland,01786 448775,01786 475626,NA,www.dandgautocare.co.uk,"Tyres, Car Tyres, Radiators, Bearings, Car Batteries, Number Plates, Brakes & Clutches, Car Brakes, Starter Motors, Motor Radiators, Spark Plugs, Catalytic Converters, Car Alternators, Headlight Bulbs","Tyres, Car Tyres, Radiators, Bearings, Car Batteries, Number Plates, Brakes & Clutches, Car Brakes, Starter Motors, Motor Radiators, Spark Plugs, Catalytic Converters, Car Alternators, Headlight Bulbs",NA,"Tyres, Car Tyres, Radiators, Bearings, Car Batteries, Number Plates, Brakes & Clutches, Car Brakes, Starter Motors, Motor Radiators, Spark Plugs, Catalytic Converters, Car Alternators, Headlight Bulbs","Tyres, Car Tyres, Radiators, Bearings, Car Batteries, Number Plates, Brakes & Clutches, Car Brakes, Starter Motors, Motor Radiators, Spark Plugs, Catalytic Converters, Car Alternators, Headlight Bulbs",08:00 - 18:00,08:00 - 18:00,08:00 - 13:00,Closed,08:00 - 18:00,08:00 - 18:00,08:00 - 18:00,https://api.scraperapi.com/?url=https%3A%2F%2Fspringkerse-industrial-estate.cylex-uk.co.uk%2Fcompany%2Fd-g-autocare--stirling-18600143.html&api_key=adc3d866682a18dad67c04d3bcbc7f1c&scraper_sdk=python
A MANSON AND SONS of Alloa,"Kennet Garage, Kennet Village ",FK10 4DP,Alloa ,Clackmannanshire Scotland,01259 730261,NA,NA,,"Tyres, Brakes, Batteries, Gearboxes, Clutches, Exhaust Systems","Tyres, Brakes, Batteries, Gearboxes, Clutches, Exhaust Systems",NA,NA,NA,08:00 - 18:00,08:00 - 18:00,09:00 - 12:00,Closed,08:00 - 18:00,08:00 - 18:00,08:00 - 18:00,https://api.scraperapi.com/?url=https%3A%2F%2Falloa.cylex-uk.co.uk%2Fcompany%2Fa-manson-and-sons-of-alloa-17123819.html&api_key=adc3d866682a18dad67c04d3bcbc7f1c&scraper_sdk=python
Kwik Fit,26 Clackmannan Road ,FK10 1RR,Alloa ,Clackmannanshire Scotland,01259 722222,NA,NA,www.kwik-fit.com,"batteries, tyres, Brakes, Exhausts, Shock Absorbers","batteries, tyres, Brakes, Exhausts, Shock Absorbers",NA,"batteries, tyres, Brakes, Exhausts, Shock Absorbers","batteries, tyres, Brakes, Exhausts, Shock Absorbers",08:30 - 18:00,08:30 - 18:00,08:30 - 17:00,10:00 - 16:00,08:30 - 18:00,08:30 - 18:00,08:30 - 18:00,https://api.scraperapi.com/?url=https%3A%2F%2Falloa.cylex-uk.co.uk%2Fcompany%2Fkwik-fit-17161779.html&api_key=adc3d866682a18dad67c04d3bcbc7f1c&scraper_sdk=python
Spilsby County Primary School,Woodlands Avenue ,PE23 5EP,Spilsby ,Lincolnshire England,01790 752503,01790 754207,NA,www.spilsbyprimary.org.uk,"School, Schooling, Local Authority Schools, Primary Education, Preparatory School, Compulsory Education, Local Education, Primary School, Educational Institution, Education, Learning, Teaching, Classes, College, University, Student, Teaching Activities, Local Authority Maintained, Teaching Methods, Community Development, Community, Website, Primary, Local Education Authority, Informations, Great Britain, Best Deals, Musicians & Bands",NA,"School, Schooling, Local Authority Schools, Primary Education, Preparatory School, Compulsory Education, Local Education, Primary School, Educational Institution, Education, Learning, Teaching, Classes, College, University, Student, Teaching Activities, Local Authority Maintained, Teaching Methods, Community Development, Community, Website, Primary, Local Education Authority, Informations, Great Britain, Best Deals, Musicians & Bands",NA,NA,NA,NA,NA,NA,NA,NA,NA,https://api.scraperapi.com/?url=https%3A%2F%2Fspilsby.cylex-uk.co.uk%2Fcompany%2Fspilsby-county-primary-school-16607591.html&api_key=adc3d866682a18dad67c04d3bcbc7f1c&scraper_sdk=python
Sms Alloa Ltd,Church Street ,FK10 1LJ,Alloa ,Clackmannanshire Scotland,01259 216586,NA,NA,https://www.alloatyres.co.uk,"Alloa, Tullibody, Clackmannan, Inglewood, Sauchie, TPMS Tyre Pressure Monitoring Systems","Alloa, Tullibody, Clackmannan, Inglewood, Sauchie, TPMS Tyre Pressure Monitoring Systems","Alloa, Tullibody, Clackmannan, Inglewood, Sauchie, TPMS Tyre Pressure Monitoring Systems",NA,"Alloa, Tullibody, Clackmannan, Inglewood, Sauchie, TPMS Tyre Pressure Monitoring Systems",08:30 - 18:00,08:30 - 18:00,08:30 - 16:00,Closed,08:30 - 18:00,08:30 - 18:00,08:30 - 18:00,https://api.scraperapi.com/?url=https%3A%2F%2Falloa.cylex-uk.co.uk%2Fcompany%2Fsms-alloa-ltd-17168233.html&api_key=adc3d866682a18dad67c04d3bcbc7f1c&scraper_sdk=python
Theddlethorpe Community Primary School,Mill Road ,LN12 1PB,Theddlethorpe ,Lincolnshire England,01507 338215,NA,NA,www.theddlethorpeacademy.co.uk,NA,NA,"School, Schooling, Local Authority Schools, Community School, Primary School, Special School, Education, Learning, Teaching, Classes, College, University, Student, Teaching Activities, Local Authority Maintained, Teaching Methods, Community Development",NA,NA,NA,NA,NA,NA,NA,NA,NA,https://api.scraperapi.com/?url=https%3A%2F%2Ftheddlethorpe.cylex-uk.co.uk%2Fcompany%2Ftheddlethorpe-community-primary-school-16516821.html&api_key=adc3d866682a18dad67c04d3bcbc7f1c&scraper_sdk=python
Mablethorpe County Primary School & Nursery,High Street ,LN12 1EW,Mablethorpe ,Lincolnshire England,01507 472472,07860 003888,01507 472188,www.mablethorpeprimaryacademy.org,NA,NA,"School, Schooling, Local Authority Schools, Special School, Education, Learning, Teaching, Classes, College, University, Student, Teaching Activities, Local Authority Maintained, Teaching Methods, Community Development, Community, Nursery School, Paras",NA,NA,NA,NA,NA,NA,NA,NA,NA,https://api.scraperapi.com/?url=https%3A%2F%2Fmablethorpe.cylex-uk.co.uk%2Fcompany%2Fmablethorpe-county-primary-school---nursery-16420247.html&api_key=adc3d866682a18dad67c04d3bcbc7f1c&scraper_sdk=python
Oak Lodge,STANLEY AVENUE ,LN12 1DP,Mablethorpe ,Lincolnshire England,01507 479782,NA,NA,www.linkage.org.uk,NA,NA,"Adult Education, Residential Care Homes",NA,NA,NA,NA,NA,NA,NA,NA,NA,https://api.scraperapi.com/?url=https%3A%2F%2Fmablethorpe.cylex-uk.co.uk%2Fcompany%2Foak-lodge-19872901.html&api_key=adc3d866682a18dad67c04d3bcbc7f1c&scraper_sdk=python
Partney C Of E Primary School,Maddison Lane ,PE23 4PX,Partney ,Lincolnshire England,01790 753319,NA,NA,www.partneyschool.co.uk,NA,NA,"School, Local Authority Schools, Faith Schools, Primary School, College, University, Local Authority Maintained, Voluntary Aided",NA,NA,07:30 - 17:30,07:30 - 17:30,Closed,Closed,07:30 - 17:30,07:30 - 17:30,07:30 - 17:30,https://api.scraperapi.com/?url=https%3A%2F%2Fpartney.cylex-uk.co.uk%2Fcompany%2Fpartney-c-of-e-primary-school-16344106.html&api_key=adc3d866682a18dad67c04d3bcbc7f1c&scraper_sdk=python
Hogsthorpe Community Primary School,THAMES STREET ,PE24 5PT,Hogsthorpe ,Lincolnshire England,01754 872323,NA,NA,www.greatukpubs.co.uk/flute-and-flagon-solihull,NA,NA,"School, Schooling, Local Authority Schools, Primary School, Education, Learning, Teaching, Classes, College, University, Student, Teaching Activities, Local Authority Maintained, Teaching Methods, Community, Primary",NA,NA,09:00 - 24:00,09:00 - 01:00,09:00 - 01:00,09:00 - 23:00,09:00 - 23:00,09:00 - 23:00,09:00 - 23:00,https://api.scraperapi.com/?url=https%3A%2F%2Fhogsthorpe.cylex-uk.co.uk%2Fcompany%2Fhogsthorpe-community-primary-school-16189040.html&api_key=adc3d866682a18dad67c04d3bcbc7f1c&scraper_sdk=python
Sutton on Sea Community Primary School,Station Road ,LN12 2HU,Sutton-On-Sea ,Lincolnshire England,01507 441319,01507 443578,NA,www.sutton.lincs.sch.uk,NA,NA,"School, Primary School, College, University",NA,NA,08:00 - 18:00,08:00 - 18:00,Closed,Closed,08:00 - 18:00,08:00 - 18:00,08:00 - 18:00,https://api.scraperapi.com/?url=https%3A%2F%2Fsutton-on-sea.cylex-uk.co.uk%2Fcompany%2Fsutton-on-sea-community-primary-school-14640431.html&api_key=adc3d866682a18dad67c04d3bcbc7f1c&scraper_sdk=python
St Margaret's C Of e Primary School,Main Road ,LN13 0NB,Withern ,Lincolnshire England,01507 450375,NA,NA,www.st-margarets-pri.lincs.sch.uk,NA,NA,"School, Local Authority Schools, Faith Schools, Classes, College, University, Student, Teaching Activities, Local Authority Maintained, Community Development, Voluntary Controlled, Lincs, Elementary and Secondary Schools",NA,NA,NA,NA,NA,NA,NA,NA,NA,https://api.scraperapi.com/?url=https%3A%2F%2Fwithern.cylex-uk.co.uk%2Fcompany%2Fst-margaret%2527s-c-of-e-primary-school-16456398.html&api_key=adc3d866682a18dad67c04d3bcbc7f1c&scraper_sdk=python
Queen Elizabeth S Grammar School,STATION ROAD ,LN13 9HY,Alford ,Lincolnshire England,01507 462403,01507 462125,NA,www.qegs.co.uk,NA,NA,"School, Local Authority Schools, Grammar School, Education, Classes, College, University, Local Authority Maintained, Foundation, Grade",NA,NA,NA,NA,NA,NA,NA,NA,NA,https://api.scraperapi.com/?url=https%3A%2F%2Falford-east-lindsey.cylex-uk.co.uk%2Fcompany%2Fqueen-elizabeth-s-grammar-school-14563280.html&api_key=adc3d866682a18dad67c04d3bcbc7f1c&scraper_sdk=python
John Spendluffe Technology College,Hanby Lane ,LN13 9BL,Alford ,Lincolnshire England,01507 462443,01507 462013,NA,www.john-spendluffe.lincs.sch.uk,NA,NA,"School, Schooling, Local Authority Schools, Secondary Education, Foundation School, Schools and Colleges, Secondary School, Special School, Education, Learning, Teaching, Classes, College, University, Student, Teaching Activities, Local Authority Maintained, Teaching Methods, Community Development, Quality, Curriculum, Secondary, Ofstead, Excellent Ofsted Report, Ofsted Reports, John Spendluffe School, Populars",NA,NA,NA,NA,NA,NA,NA,NA,NA,https://api.scraperapi.com/?url=https%3A%2F%2Falford-east-lindsey.cylex-uk.co.uk%2Fcompany%2Fjohn-spendluffe-technology-college-16230433.html&api_key=adc3d866682a18dad67c04d3bcbc7f1c&scraper_sdk=python
St Helena's C Of E Primary School,Main Road,LN13 9NH,Alford ,Lincolnshire England,01507 462367,01507 462628,NA,www.st-helenascofe.lincs.sch.uk,NA,NA,"School, Primary School, College, University",NA,NA,NA,NA,NA,NA,NA,NA,NA,https://api.scraperapi.com/?url=https%3A%2F%2Falford-east-lindsey.cylex-uk.co.uk%2Fcompany%2Fst-helena%2527s-c-of-e-primary-school-16453470.html&api_key=adc3d866682a18dad67c04d3bcbc7f1c&scraper_sdk=python
Moseley George Solicitors,11 South Marine Terrace ,SY23 1JX,Aberystwyth ,Ceredigion Wales,01970 623 785,NA,NA,,NA,NA,Warehousing & Storage,NA,Warehousing & Storage,NA,NA,NA,NA,NA,NA,NA,https://api.scraperapi.com/?url=https%3A%2F%2Faberystwyth.cylex-uk.co.uk%2Fcompany%2Fmoseley-george-solicitors-19914563.html&api_key=adc3d866682a18dad67c04d3bcbc7f1c&scraper_sdk=python
James Jones & Son & Francis,12 Lincoln St ,SA44 4BU,Llandysul ,Ceredigion Wales,01559 362224,NA,NA,jjsf.co.uk,NA,NA,NA,NA,Solicitors,09:00 - 17:00,09:00 - 17:00,Closed,Closed,09:00 - 17:00,09:00 - 17:00,09:00 - 17:00,https://api.scraperapi.com/?url=https%3A%2F%2Fllandysul.cylex-uk.co.uk%2Fcompany%2Fjames-jones---son---francis-14432571.html&api_key=adc3d866682a18dad67c04d3bcbc7f1c&scraper_sdk=python
E.W Mathias,"Tynwern, Ffarmers",SA19 8JX,Ffarmers ,Carmarthenshire Wales,01558 650664,NA,NA,,NA,Legal Services,NA,NA,Legal Services,NA,NA,NA,NA,NA,NA,NA,https://api.scraperapi.com/?url=https%3A%2F%2Fffarmers.cylex-uk.co.uk%2Fcompany%2Fe-w-mathias-12969022.html&api_key=adc3d866682a18dad67c04d3bcbc7f1c&scraper_sdk=python
Owen & Co,30 BRIDGE STREET ,SA48 7AA,Lampeter ,Ceredigion Wales,01570 423400,NA,NA,,NA,"Law, Legal Professions","Law, Legal Professions",NA,"Law, Legal Professions",NA,NA,NA,NA,NA,NA,NA,https://api.scraperapi.com/?url=https%3A%2F%2Flampeter.cylex-uk.co.uk%2Fcompany%2Fowen---co-17252639.html&api_key=adc3d866682a18dad67c04d3bcbc7f1c&scraper_sdk=python
Williams & Bourne Cyfreithwyr/Solicitors,1 Harford Square ,SA48 7HD,Lampeter ,Ceredigion Wales,01570 422206,NA,NA,www.west-wales-solicitors.co.uk,NA,"Child, Company & Commercial, Crime General, Debt and bankruptcy personal, Family general, Landlord and Tenant Residential, Litigation General, Private client Probate, Private client trusts, Private Client Wills","Child, Company & Commercial, Crime General, Debt and bankruptcy personal, Family general, Landlord and Tenant Residential, Litigation General, Private client Probate, Private client trusts, Private Client Wills",NA,"Child, Company & Commercial, Crime General, Debt and bankruptcy personal, Family general, Landlord and Tenant Residential, Litigation General, Private client Probate, Private client trusts, Private Client Wills",09:00 - 17:00,09:00 - 17:00,Closed,Closed,09:00 - 17:00,09:00 - 17:00,09:00 - 17:00,https://api.scraperapi.com/?url=https%3A%2F%2Flampeter.cylex-uk.co.uk%2Fcompany%2Fwilliams---bourne-cyfreithwyr-solicitors-17020542.html&api_key=adc3d866682a18dad67c04d3bcbc7f1c&scraper_sdk=python
Cliff Williams & Co,19 College St ,SA48 7DY,Lampeter ,Ceredigion Wales,01570 423300,01570 423223,NA,,NA,NA,"Law, Legal Professions",NA,"Law, Legal Professions",NA,NA,NA,NA,NA,NA,NA,https://api.scraperapi.com/?url=https%3A%2F%2Flampeter.cylex-uk.co.uk%2Fcompany%2Fcliff-williams---co-13701494.html&api_key=adc3d866682a18dad67c04d3bcbc7f1c&scraper_sdk=python
Arnold Davies Vincent Evans,33 High Street ,SA48 7BB,Lampeter ,Ceredigion Wales,01570 422517,01570 423244,NA,,NA,NA,NA,NA,"Solicitors, Lawyer, Legal Representative",NA,NA,NA,NA,NA,NA,NA,https://api.scraperapi.com/?url=https%3A%2F%2Flampeter.cylex-uk.co.uk%2Fcompany%2Farnold-davies-vincent-evans-15565303.html&api_key=adc3d866682a18dad67c04d3bcbc7f1c&scraper_sdk=python
Adve Law Limited,33 HIGH STREET ,SA48 7BB,Lampeter ,Ceredigion Wales,01570 422233,07808 472662,01349 865393,,NA,NA,NA,NA,Solicitors,NA,NA,Closed,Closed,NA,NA,NA,https://api.scraperapi.com/?url=https%3A%2F%2Flampeter.cylex-uk.co.uk%2Fcompany%2Fadve-law-limited-21005937.html&api_key=adc3d866682a18dad67c04d3bcbc7f1c&scraper_sdk=python
Bevan Jones,Cilwenau ,SA47 0QA,Llanarth ,Ceredigion Wales,01545 580746,NA,NA,www.bevanjones.co.uk,NA,Conveyancing,NA,NA,Conveyancing,NA,NA,NA,NA,NA,NA,NA,https://api.scraperapi.com/?url=https%3A%2F%2Fllanarth.cylex-uk.co.uk%2Fcompany%2Fbevan-jones-15571482.html&api_key=adc3d866682a18dad67c04d3bcbc7f1c&scraper_sdk=python
Cliff Williams,Gilfach Deg ,SA47 0QA,Llanarth ,Ceredigion Wales,01545 580339,NA,NA,,NA,NA,"Law, Legal Professions",NA,"Law, Legal Professions",NA,NA,NA,NA,NA,NA,NA,https://api.scraperapi.com/?url=https%3A%2F%2Fllanarth.cylex-uk.co.uk%2Fcompany%2Fcliff-williams-15587270.html&api_key=adc3d866682a18dad67c04d3bcbc7f1c&scraper_sdk=python
Aeron Law Limited,1 Cadwgan Place ,SA46 0BU,Aberaeron ,Ceredigion Wales,01545 570335,NA,NA,,NA,NA,NA,NA,Solicitors,NA,NA,NA,NA,NA,NA,NA,https://api.scraperapi.com/?url=https%3A%2F%2Faberaeron.cylex-uk.co.uk%2Fcompany%2Faeron-law-limited-22280428.html&api_key=adc3d866682a18dad67c04d3bcbc7f1c&scraper_sdk=python
CJ Electrical Solutions,1 Clos Pentre James ,SA46 0JE,Aberaeron ,Ceredigion Wales,01545 581166,NA,NA,http://www.cj-electrical-solutions.co.uk,NA,NA,"Electricians, Computer Networking Services",NA,"Electricians, Computer Networking Services",Open 24 Hours,Open 24 Hours,09:00 - 17:00,09:00 - 17:00,Open 24 Hours,Open 24 Hours,Open 24 Hours,https://api.scraperapi.com/?url=https%3A%2F%2Faberaeron.cylex-uk.co.uk%2Fcompany%2Fcj-electrical-solutions-26349705.html&api_key=adc3d866682a18dad67c04d3bcbc7f1c&scraper_sdk=python
Mary R Rishko,12 NORTH ROAD ,SA46 0JF,Aberaeron ,Ceredigion Wales,01545 570872,01545 571227,NA,,NA,"Law, Barristers, Law Society, Legal Professions","Law, Barristers, Law Society, Legal Professions",NA,"Law, Barristers, Law Society, Legal Professions",NA,NA,NA,NA,NA,NA,NA,https://api.scraperapi.com/?url=https%3A%2F%2Faberaeron.cylex-uk.co.uk%2Fcompany%2Fmary-r-rishko-13170259.html&api_key=adc3d866682a18dad67c04d3bcbc7f1c&scraper_sdk=python
Gwynne Hughes,26 Alban Square ,SA46 0AL,Aberaeron ,Ceredigion Wales,01545 570861,01545 571121,NA,www.gwynnehughes.co.uk,NA,"Remortgage, Motoring Offence","Remortgage, Motoring Offence",NA,"Remortgage, Motoring Offence",09:00 - 17:00,09:00 - 17:00,Closed,Closed,09:00 - 17:00,09:00 - 17:00,09:00 - 17:00,https://api.scraperapi.com/?url=https%3A%2F%2Faberaeron.cylex-uk.co.uk%2Fcompany%2Fgwynne-hughes-13151217.html&api_key=adc3d866682a18dad67c04d3bcbc7f1c&scraper_sdk=python
Solutions It Ltd,"350 Main St, unit 3 ",FK1 4EG,Camelon ,Falkirk Scotland,01324877183,NA,NA,,NA,"Web Design, IT Support, Computer Companies, Computer Repairs, Falkirk IT Support, Falkirk Webdesign, Grangemout Computer Repair, Grangemouth IT Support, Voip Phones Systems Edinburgh","Web Design, IT Support, Computer Companies, Computer Repairs, Falkirk IT Support, Falkirk Webdesign, Grangemout Computer Repair, Grangemouth IT Support, Voip Phones Systems Edinburgh",NA,NA,08:00 - 17:30,08:00 - 17:30,Closed,Closed,08:00 - 17:30,08:00 - 17:30,08:00 - 17:30,https://api.scraperapi.com/?url=https%3A%2F%2Fcamelon.cylex-uk.co.uk%2Fcompany%2Fsolutions-it-ltd-23601433.html&api_key=adc3d866682a18dad67c04d3bcbc7f1c&scraper_sdk=python
Prontaprint,166 GRAHAMS ROAD ,FK2 7BY,Falkirk ,Falkirk Scotland,01324612910,NA,NA,,Foam Board,Foam Board,Foam Board,NA,NA,NA,NA,NA,NA,NA,NA,NA,https://api.scraperapi.com/?url=https%3A%2F%2Ffalkirk.cylex-uk.co.uk%2Fcompany%2Fprontaprint-16964638.html&api_key=adc3d866682a18dad67c04d3bcbc7f1c&scraper_sdk=python
IKM Digital Solutions Ltd,35 Bo'Ness Rd ,FK3 8AN,Grangemouth ,Falkirk Scotland,01324 878822,01324 878823,NA,www.ikmdigitalsolutions.co.uk,NA,"Film & Video Production, IT Services, Computer Services, Video, Website, Mobile Apps, Voiceover, Product Animations, Virtual Reality Apps, Induction Safety","Film & Video Production, IT Services, Computer Services, Video, Website, Mobile Apps, Voiceover, Product Animations, Virtual Reality Apps, Induction Safety",NA,NA,08:00 - 16:30,08:00 - 15:30,Closed,Closed,08:00 - 16:30,08:00 - 16:30,08:00 - 16:30,https://api.scraperapi.com/?url=https%3A%2F%2Fgrangemouth.cylex-uk.co.uk%2Fcompany%2Fikm-digital-solutions-ltd-19923086.html&api_key=adc3d866682a18dad67c04d3bcbc7f1c&scraper_sdk=python
Business View Ltd,"Forsyth House Lomond Court, The Castle Business Park ",FK9 4TU,Stirling ,Stirling Scotland,07568 406833,NA,NA,business-view.co,NA,"Web Design and Development, Ecommerce Systems, Email Marketing, Google 360 Tour","Web Design and Development, Ecommerce Systems, Email Marketing, Google 360 Tour",NA,NA,09:00 - 17:00,09:00 - 17:00,Closed,Closed,09:00 - 17:00,09:00 - 17:00,09:00 - 17:00,https://api.scraperapi.com/?url=https%3A%2F%2Fstirling.cylex-uk.co.uk%2Fcompany%2Fbusiness-view-ltd-25849453.html&api_key=adc3d866682a18dad67c04d3bcbc7f1c&scraper_sdk=python
Beattie,118 North Main Street ,FK2 8HU,Carronshore ,Falkirk Scotland,01324 602 550,0800 612 9890,NA,www.beattiegroup.com,NA,"Public Relations, Media and Public Relations Consultants, Public Relations Agency, PR Agency, Media Relations, PR Consultants, PR Consultancy, Public Relation Consultants, Public Relations Companies, Social Media Agency, Sales, Internet, Media Representation Services, Sales Promotion, Media Training, Marketing PR, Media Representative","Public Relations, Media and Public Relations Consultants, Public Relations Agency, PR Agency, Media Relations, PR Consultants, PR Consultancy, Public Relation Consultants, Public Relations Companies, Social Media Agency, Sales, Internet, Media Representation Services, Sales Promotion, Media Training, Marketing PR, Media Representative",NA,NA,09:00 - 17:00,09:00 - 17:00,Closed,Closed,09:00 - 17:00,09:00 - 17:00,09:00 - 17:00,https://api.scraperapi.com/?url=https%3A%2F%2Fcarronshore.cylex-uk.co.uk%2Fcompany%2Fbeattie-17753642.html&api_key=adc3d866682a18dad67c04d3bcbc7f1c&scraper_sdk=python
The IT Guy,25a Dunning Pl ,FK2 7UE,Falkirk ,Falkirk Scotland,0131 208 8898,07517 827608,NA,theitguy.scot,NA,NA,"Web Design, Computer Repairs, Data Backup, IT Support, Hardware, Security Systems, CCTV, IT Network",NA,NA,08:00 - 20:00,08:00 - 20:00,08:00 - 20:00,08:00 - 20:00,08:00 - 20:00,08:00 - 20:00,08:00 - 20:00,https://api.scraperapi.com/?url=https%3A%2F%2Ffalkirk.cylex-uk.co.uk%2Fcompany%2Fthe-it-guy-23858766.html&api_key=adc3d866682a18dad67c04d3bcbc7f1c&scraper_sdk=python
Prontaprint Stirling,34 Cowane St ,FK8 1JR,Stirling ,Stirling Scotland,01786 462010,01786 451291,NA,,Foam Board,Foam Board,Foam Board,NA,NA,09:00 - 17:00,09:00 - 17:00,Closed,Closed,09:00 - 17:00,09:00 - 17:00,09:00 - 17:00,https://api.scraperapi.com/?url=https%3A%2F%2Fstirling.cylex-uk.co.uk%2Fcompany%2Fprontaprint-stirling-16992201.html&api_key=adc3d866682a18dad67c04d3bcbc7f1c&scraper_sdk=python
Prontaprint,79 KING STREET ,FK8 1BN,Stirling ,Stirling Scotland,01786 462010,01262 400258,NA,www.prontaprint.com/pages/welcome.aspx,Foam Board,Foam Board,Foam Board,NA,NA,NA,NA,NA,NA,NA,NA,NA,https://api.scraperapi.com/?url=https%3A%2F%2Fstirling.cylex-uk.co.uk%2Fcompany%2Fprontaprint-16964688.html&api_key=adc3d866682a18dad67c04d3bcbc7f1c&scraper_sdk=python
Done Your Way,3 Enterprise House,FK7 7UF,Stirling ,Stirling Scotland,01786 611699,NA,NA,doneyourway.co.uk,NA,"Software Development, Web Design, Commerce, Commerce Stirling, Web Designer Stirling","Software Development, Web Design, Commerce, Commerce Stirling, Web Designer Stirling",NA,NA,10:00 - 17:00,10:00 - 17:00,Closed,Closed,10:00 - 17:00,10:00 - 17:00,10:00 - 17:00,https://api.scraperapi.com/?url=https%3A%2F%2Fstirling.cylex-uk.co.uk%2Fcompany%2Fdone-your-way-23873438.html&api_key=adc3d866682a18dad67c04d3bcbc7f1c&scraper_sdk=python
Mike Dow,16 Wallace St ,FK10 3RZ,Alloa ,Clackmannanshire Scotland,07557 904990,NA,NA,www.mikedow.co.uk,NA,NA,Web Design,NA,NA,08:00 - 20:00,08:00 - 20:00,08:00 - 20:00,08:00 - 20:00,08:00 - 20:00,08:00 - 20:00,08:00 - 20:00,https://api.scraperapi.com/?url=https%3A%2F%2Falloa.cylex-uk.co.uk%2Fcompany%2Fmike-dow-23005659.html&api_key=adc3d866682a18dad67c04d3bcbc7f1c&scraper_sdk=python
Clear Documentation,9 Craigbank,FK10 3EG,Alloa ,Clackmannanshire Scotland,01259 213533,0845 052 1578,NA,,NA,NA,"IT Services, Web Design",NA,NA,NA,NA,NA,NA,NA,NA,NA,https://api.scraperapi.com/?url=https%3A%2F%2Falloa.cylex-uk.co.uk%2Fcompany%2Fclear-documentation-18824085.html&api_key=adc3d866682a18dad67c04d3bcbc7f1c&scraper_sdk=python
Forth Graphic Design Services,"Old Russels Yard, Clackmannan Road ",FK10 4DA,Alloa ,Clackmannanshire Scotland,01259 212945,07824 797779,NA,www.forthgraphicdesign.com,"Web Design, Website Design, Website, Design Business","Web Design, Website Design, Website, Design Business","Web Design, Website Design, Website, Design Business",NA,NA,08:00 - 17:00,08:00 - 17:00,08:00 - 12:30,Closed,08:00 - 17:00,08:00 - 17:00,08:00 - 17:00,https://api.scraperapi.com/?url=https%3A%2F%2Falloa.cylex-uk.co.uk%2Fcompany%2Fforth-graphic-design-services-26715419.html&api_key=adc3d866682a18dad67c04d3bcbc7f1c&scraper_sdk=python
Post Office Limited,Co-Operative (Cws Group) Ltd,SA48 7AF,Lampeter ,Ceredigion Wales,03457223344,NA,NA,www.postoffice.co.uk,NA,"Post Office, Mail Delivery, Current Account Servicing, dropdown counters, lap trays and portable chip & pin, Low Payment Counters including clipboards, National Express Tickets","Post Office, Mail Delivery, Current Account Servicing, dropdown counters, lap trays and portable chip & pin, Low Payment Counters including clipboards, National Express Tickets","Post Office, Mail Delivery, Current Account Servicing, dropdown counters, lap trays and portable chip & pin, Low Payment Counters including clipboards, National Express Tickets",NA,06:00 - 23:00,06:00 - 23:00,06:00 - 23:00,10:00 - 16:00,06:00 - 23:00,06:00 - 23:00,06:00 - 23:00,https://api.scraperapi.com/?url=https%3A%2F%2Flampeter.cylex-uk.co.uk%2Fcompany%2Fpost-office-limited-23686873.html&api_key=adc3d866682a18dad67c04d3bcbc7f1c&scraper_sdk=python
Art-Is-an-Option,8 Primrose Street ,FK10 1JG,Alloa ,Clackmannanshire Scotland,01259 726900,01259 726901,NA,artisanoption.co.uk,"Graphic Designers, Logos, Brand Design, Logo Design, Visual Communication, Advertising & Graphic Designers, Graphic Design Companies, Web Design, Designers, Communication Design, Brand Development, Business Support, Business Advice, Photographer, Photography, Website Design, Professional Photography, Professional Photographer, Photo Gallery, Photo Processing, Branding, Images, Scotland, Design Consultancy, Corporate Identity, New Media, Marketing Communications, Photoshoot, Digital Communications, Brand Packaging, Artisanoption","Graphic Designers, Logos, Brand Design, Logo Design, Visual Communication, Advertising & Graphic Designers, Graphic Design Companies, Web Design, Designers, Communication Design, Brand Development, Business Support, Business Advice, Photographer, Photography, Website Design, Professional Photography, Professional Photographer, Photo Gallery, Photo Processing, Branding, Images, Scotland, Design Consultancy, Corporate Identity, New Media, Marketing Communications, Photoshoot, Digital Communications, Brand Packaging, Artisanoption","Graphic Designers, Logos, Brand Design, Logo Design, Visual Communication, Advertising & Graphic Designers, Graphic Design Companies, Web Design, Designers, Communication Design, Brand Development, Business Support, Business Advice, Photographer, Photography, Website Design, Professional Photography, Professional Photographer, Photo Gallery, Photo Processing, Branding, Images, Scotland, Design Consultancy, Corporate Identity, New Media, Marketing Communications, Photoshoot, Digital Communications, Brand Packaging, Artisanoption",NA,NA,09:00 - 17:00,09:00 - 17:00,Closed,Closed,09:00 - 17:00,09:00 - 17:00,09:00 - 17:00,https://api.scraperapi.com/?url=https%3A%2F%2Falloa.cylex-uk.co.uk%2Fcompany%2Fart-is-an-option-16820549.html&api_key=adc3d866682a18dad67c04d3bcbc7f1c&scraper_sdk=python
Barclays Bank,Harford Square ,SA48 7HF,Lampeter ,Ceredigion Wales,0345 734 5345,NA,NA,www.barclays.co.uk,NA,"Financial Services, Bank, Credit Card","Financial Services, Bank, Credit Card",NA,NA,09:30 - 16:30,09:30 - 16:30,Closed,Closed,09:30 - 16:30,09:30 - 16:30,Closed,https://api.scraperapi.com/?url=https%3A%2F%2Flampeter.cylex-uk.co.uk%2Fcompany%2Fbarclays-bank-14225415.html&api_key=adc3d866682a18dad67c04d3bcbc7f1c&scraper_sdk=python
HSBC Bank,16 Harford Square ,SA48 7DU,Lampeter ,Ceredigion Wales,0345 740 4404,0345 740 4404,NA,www.hsbc.co.uk/1/2//contact-and-support/branch-locator#,"Bank, Mortgage Advice, Credit Card","Bank, Mortgage Advice, Credit Card","Bank, Mortgage Advice, Credit Card","Bank, Mortgage Advice, Credit Card",NA,09:30 - 16:30,09:30 - 16:30,Closed,Closed,09:30 - 16:30,09:30 - 16:30,09:30 - 16:30,https://api.scraperapi.com/?url=https%3A%2F%2Flampeter.cylex-uk.co.uk%2Fcompany%2Fhsbc-bank-13157686.html&api_key=adc3d866682a18dad67c04d3bcbc7f1c&scraper_sdk=python
Post Office Limited,Bontnewydd,SY23 4JH,Bontnewydd ,Ceredigion Wales,01974 251542,NA,NA,www.postoffice.co.uk,"Post Office, Mail Delivery, Postal Service, dropdown counters, lap trays and portable chip & pin, Low Payment Counters including clipboards, Ink and Toner, International UK Mail Delivery","Post Office, Mail Delivery, Postal Service, dropdown counters, lap trays and portable chip & pin, Low Payment Counters including clipboards, Ink and Toner, International UK Mail Delivery","Post Office, Mail Delivery, Postal Service, dropdown counters, lap trays and portable chip & pin, Low Payment Counters including clipboards, Ink and Toner, International UK Mail Delivery","Post Office, Mail Delivery, Postal Service, dropdown counters, lap trays and portable chip & pin, Low Payment Counters including clipboards, Ink and Toner, International UK Mail Delivery",NA,14:00 - 16:00,Closed,Closed,Closed,14:00 - 16:00,Closed,Closed,https://api.scraperapi.com/?url=https%3A%2F%2Fbontnewydd.cylex-uk.co.uk%2Fcompany%2Fpost-office-limited-17032768.html&api_key=adc3d866682a18dad67c04d3bcbc7f1c&scraper_sdk=python
Post Office Limited,Felinfach ,SA48 8AE,Felinfach ,Ceredigion Wales,03457223344,NA,NA,www.postoffice.co.uk,"Post Office, Mail Delivery, Current Account Servicing, Foreign Currency Euros Only, Ink and Toner, National Express Tickets","Post Office, Mail Delivery, Current Account Servicing, Foreign Currency Euros Only, Ink and Toner, National Express Tickets","Post Office, Mail Delivery, Current Account Servicing, Foreign Currency Euros Only, Ink and Toner, National Express Tickets","Post Office, Mail Delivery, Current Account Servicing, Foreign Currency Euros Only, Ink and Toner, National Express Tickets",NA,09:00 - 17:30,09:00 - 17:30,09:00 - 12:30,Closed,09:00 - 17:30,09:00 - 17:30,09:00 - 16:30,https://api.scraperapi.com/?url=https%3A%2F%2Ffelinfach.cylex-uk.co.uk%2Fcompany%2Fpost-office-limited-14358703.html&api_key=adc3d866682a18dad67c04d3bcbc7f1c&scraper_sdk=python
Post Office Limited,Joppa Mobile Service ,SY23 5EJ,Llanrhystud ,Ceredigion Wales,03457223344,NA,NA,www.postoffice.co.uk,"Post Office, Mail Delivery, Current Account Servicing, Foreign Currency Euros Only, Ink and Toner, National Express Tickets","Post Office, Mail Delivery, Current Account Servicing, Foreign Currency Euros Only, Ink and Toner, National Express Tickets","Post Office, Mail Delivery, Current Account Servicing, Foreign Currency Euros Only, Ink and Toner, National Express Tickets",NA,NA,Closed,Closed,Closed,Closed,17:00 - 18:00,Closed,Closed,https://api.scraperapi.com/?url=https%3A%2F%2Fllanrhystud.cylex-uk.co.uk%2Fcompany%2Fpost-office-limited-16232477.html&api_key=adc3d866682a18dad67c04d3bcbc7f1c&scraper_sdk=python
Post Office Limited,Church Street ,SA45 9NZ,New Quay ,Ceredigion Wales,01545 561102,0345 722 3344,NA,www.postoffice.co.uk,"Post Office, Mail Delivery, Alternative Languages Available, Current Account Servicing, Facilities for Hard of Hearing People, Foreign Currency Euros Only, Ink and Toner, National Express Tickets","Post Office, Mail Delivery, Alternative Languages Available, Current Account Servicing, Facilities for Hard of Hearing People, Foreign Currency Euros Only, Ink and Toner, National Express Tickets","Post Office, Mail Delivery, Alternative Languages Available, Current Account Servicing, Facilities for Hard of Hearing People, Foreign Currency Euros Only, Ink and Toner, National Express Tickets","Post Office, Mail Delivery, Alternative Languages Available, Current Account Servicing, Facilities for Hard of Hearing People, Foreign Currency Euros Only, Ink and Toner, National Express Tickets",NA,09:00 - 17:30,09:00 - 17:30,09:00 - 12:30,Closed,09:00 - 17:30,09:00 - 17:30,09:00 - 17:30,https://api.scraperapi.com/?url=https%3A%2F%2Fnew-quay.cylex-uk.co.uk%2Fcompany%2Fpost-office-limited-13003051.html&api_key=adc3d866682a18dad67c04d3bcbc7f1c&scraper_sdk=python
Aromatherapy Reflexology Centre Llanon Aberystwyth,"The Barn House, Pennant Road ",SY23 5LZ,Llanon ,Ceredigion Wales,01974 202581,NA,NA,mrt.wales,"Life Insurance, Personal Loans, Business Insurance, Private Medical Insurance, Van Insurance, Savings Accounts, Motorcycle Insurance, Aa Breakdown Cover, Student Car Insurance, Financial Services, Leisure, Hotel, Guest House, Travel, Aromatherapy Products, Aromatherapy Oils, Travel Companies, Aromatherapy Essential Oils, Route Planner, National Recovery, Aromatherapy Candles, Beach Front, Free High Speed Internet WiFi, Pets Allowed Dog Pet Friendly","Life Insurance, Personal Loans, Business Insurance, Private Medical Insurance, Van Insurance, Savings Accounts, Motorcycle Insurance, Aa Breakdown Cover, Student Car Insurance, Financial Services, Leisure, Hotel, Guest House, Travel, Aromatherapy Products, Aromatherapy Oils, Travel Companies, Aromatherapy Essential Oils, Route Planner, National Recovery, Aromatherapy Candles, Beach Front, Free High Speed Internet WiFi, Pets Allowed Dog Pet Friendly","Life Insurance, Personal Loans, Business Insurance, Private Medical Insurance, Van Insurance, Savings Accounts, Motorcycle Insurance, Aa Breakdown Cover, Student Car Insurance, Financial Services, Leisure, Hotel, Guest House, Travel, Aromatherapy Products, Aromatherapy Oils, Travel Companies, Aromatherapy Essential Oils, Route Planner, National Recovery, Aromatherapy Candles, Beach Front, Free High Speed Internet WiFi, Pets Allowed Dog Pet Friendly","Life Insurance, Personal Loans, Business Insurance, Private Medical Insurance, Van Insurance, Savings Accounts, Motorcycle Insurance, Aa Breakdown Cover, Student Car Insurance, Financial Services, Leisure, Hotel, Guest House, Travel, Aromatherapy Products, Aromatherapy Oils, Travel Companies, Aromatherapy Essential Oils, Route Planner, National Recovery, Aromatherapy Candles, Beach Front, Free High Speed Internet WiFi, Pets Allowed Dog Pet Friendly","Life Insurance, Personal Loans, Business Insurance, Private Medical Insurance, Van Insurance, Savings Accounts, Motorcycle Insurance, Aa Breakdown Cover, Student Car Insurance, Financial Services, Leisure, Hotel, Guest House, Travel, Aromatherapy Products, Aromatherapy Oils, Travel Companies, Aromatherapy Essential Oils, Route Planner, National Recovery, Aromatherapy Candles, Beach Front, Free High Speed Internet WiFi, Pets Allowed Dog Pet Friendly",NA,NA,NA,NA,NA,NA,NA,https://api.scraperapi.com/?url=https%3A%2F%2Fllanon.cylex-uk.co.uk%2Fcompany%2Faromatherapy-reflexology-centre-llanon-aberystwyth-14212195.html&api_key=adc3d866682a18dad67c04d3bcbc7f1c&scraper_sdk=python
Shawsmead Caravan Club Site,OAKFORD,SA47 0RN,Oakford ,Ceredigion Wales,01545 580423,NA,NA,www.caravanclub.co.uk,"Caravan Park, Caravan Club, Electric Hookups, Block Toilet, Bbqs Allowed Charcoal, Disabled Facilities Facilities for Wheelchair Disabled, TV Reception Fair, Wi-Fi Rating Bronze","Caravan Park, Caravan Club, Electric Hookups, Block Toilet, Bbqs Allowed Charcoal, Disabled Facilities Facilities for Wheelchair Disabled, TV Reception Fair, Wi-Fi Rating Bronze","Caravan Park, Caravan Club, Electric Hookups, Block Toilet, Bbqs Allowed Charcoal, Disabled Facilities Facilities for Wheelchair Disabled, TV Reception Fair, Wi-Fi Rating Bronze","Caravan Park, Caravan Club, Electric Hookups, Block Toilet, Bbqs Allowed Charcoal, Disabled Facilities Facilities for Wheelchair Disabled, TV Reception Fair, Wi-Fi Rating Bronze",NA,NA,NA,NA,NA,NA,NA,NA,https://api.scraperapi.com/?url=https%3A%2F%2Foakford.cylex-uk.co.uk%2Fcompany%2Fshawsmead-caravan-club-site-15698890.html&api_key=adc3d866682a18dad67c04d3bcbc7f1c&scraper_sdk=python
Post Office Limited,20 - 21 Market Street ,SA46 0AS,Aberaeron ,Ceredigion Wales,01545 571380,0345 722 3344,NA,www.postoffice.co.uk,"Post Office, Mail Delivery, Alternative Languages Available, Current Account Servicing, Facilities for Hard of Hearing People, Foreign Currency Euros Only, Low Reception/Information Counters Available, Ink and Toner, National Express Tickets","Post Office, Mail Delivery, Alternative Languages Available, Current Account Servicing, Facilities for Hard of Hearing People, Foreign Currency Euros Only, Low Reception/Information Counters Available, Ink and Toner, National Express Tickets","Post Office, Mail Delivery, Alternative Languages Available, Current Account Servicing, Facilities for Hard of Hearing People, Foreign Currency Euros Only, Low Reception/Information Counters Available, Ink and Toner, National Express Tickets","Post Office, Mail Delivery, Alternative Languages Available, Current Account Servicing, Facilities for Hard of Hearing People, Foreign Currency Euros Only, Low Reception/Information Counters Available, Ink and Toner, National Express Tickets",NA,09:00 - 17:30,09:00 - 17:30,09:00 - 12:00,Closed,09:00 - 17:30,09:00 - 17:30,09:00 - 17:30,https://api.scraperapi.com/?url=https%3A%2F%2Faberaeron.cylex-uk.co.uk%2Fcompany%2Fpost-office-limited-13118624.html&api_key=adc3d866682a18dad67c04d3bcbc7f1c&scraper_sdk=python
NatWest - ABERAERON ATM,1 South Road ,SA46 0NW,Aberaeron ,Ceredigion Wales,01970 615600,NA,NA,personal.natwest.com/personal.html,NA,"Bank, Credit Card","Bank, Credit Card",NA,NA,Closed,10:00 - 15:00,09:00 - 12:30,Closed,10:00 - 15:00,Closed,10:00 - 15:00,https://api.scraperapi.com/?url=https%3A%2F%2Faberaeron.cylex-uk.co.uk%2Fcompany%2Fnatwest---aberaeron-atm-15663402.html&api_key=adc3d866682a18dad67c04d3bcbc7f1c&scraper_sdk=python
Co-op Food ALFRETON,24 High Street ,DE55 5NY,Alfreton ,Derbyshire England,01773 873658,NA,NA,finder.coop.co.uk/food/store/de55-5ny/24-high-street,"Grocery, Food Suppliers, Drink Suppliers, ATM Cashpoint",NA,"Grocery, Food Suppliers, Drink Suppliers, ATM Cashpoint","Grocery, Food Suppliers, Drink Suppliers, ATM Cashpoint",NA,07:00 - 22:00,07:00 - 22:00,07:00 - 22:00,08:00 - 22:00,07:00 - 22:00,07:00 - 22:00,07:00 - 22:00,https://api.scraperapi.com/?url=https%3A%2F%2Falfreton.cylex-uk.co.uk%2Fcompany%2Fco-op-food-alfreton-23761040.html&api_key=adc3d866682a18dad67c04d3bcbc7f1c&scraper_sdk=python
Flowers By Marcus,18 Nottingham Road ,DE55 7HL,Alfreton ,Derbyshire England,01773 835878,01638 720135,01773 833832,www.flowersbymarcus.co.uk,"Flowers, Floral Displays, Lilies, Retail Florists, Online Florists, Interflora Florists","Flowers, Floral Displays, Lilies, Retail Florists, Online Florists, Interflora Florists","Flowers, Floral Displays, Lilies, Retail Florists, Online Florists, Interflora Florists",NA,"Flowers, Floral Displays, Lilies, Retail Florists, Online Florists, Interflora Florists",09:00 - 17:30,09:00 - 17:30,09:00 - 16:00,Closed,09:00 - 17:30,09:00 - 17:30,09:00 - 17:30,https://api.scraperapi.com/?url=https%3A%2F%2Falfreton.cylex-uk.co.uk%2Fcompany%2Fflowers-by-marcus-13534969.html&api_key=adc3d866682a18dad67c04d3bcbc7f1c&scraper_sdk=python
Tesco Superstore,Hall St ,DE55 7BT,Alfreton ,Derbyshire England,0345 677 9833,NA,NA,http://www.tesco.com/store-locator/uk/,NA,NA,"Supermarkets, Grocery Stores, Wine Stores, Bakery, Card Shops",NA,"Supermarkets, Grocery Stores, Wine Stores, Bakery, Card Shops",Open 24 Hours,Open 24 Hours,Open 24 Hours,10:00 - 16:00,06:00 - 24:00,Open 24 Hours,Open 24 Hours,https://api.scraperapi.com/?url=https%3A%2F%2Falfreton.cylex-uk.co.uk%2Fcompany%2Ftesco-superstore-19170860.html&api_key=adc3d866682a18dad67c04d3bcbc7f1c&scraper_sdk=python
Co-op Food ALFRETON,High Street,DE55 2BN,Alfreton ,Derbyshire England,01773 583472,NA,NA,www.co-operativefood.co.uk,"Grocery, Food Suppliers, Drink Suppliers, ATM Cashpoint",NA,"Grocery, Food Suppliers, Drink Suppliers, ATM Cashpoint","Grocery, Food Suppliers, Drink Suppliers, ATM Cashpoint",NA,07:00 - 22:00,07:00 - 22:00,07:00 - 22:00,10:00 - 16:00,07:00 - 22:00,07:00 - 22:00,07:00 - 22:00,https://api.scraperapi.com/?url=https%3A%2F%2Falfreton.cylex-uk.co.uk%2Fcompany%2Fco-op-food-alfreton-19097115.html&api_key=adc3d866682a18dad67c04d3bcbc7f1c&scraper_sdk=python
The Blue Bell Inn,30 High Street ,DE55 7BL,Alfreton ,Derbyshire England,01773 836725,NA,NA,http://Bluebellinn-alfreton.craftunionpubs.com,"Pubs, Bars, Drinks",NA,"Pubs, Bars, Drinks",NA,"Pubs, Bars, Drinks",11:00 - 23:00,11:00 - 23:00,11:00 - 23:00,11:00 - 23:00,11:00 - 23:00,11:00 - 23:00,11:00 - 23:00,https://api.scraperapi.com/?url=https%3A%2F%2Falfreton.cylex-uk.co.uk%2Fcompany%2Fthe-blue-bell-inn-26721137.html&api_key=adc3d866682a18dad67c04d3bcbc7f1c&scraper_sdk=python
The Gate Inn,"The Delves, ",DE55 1AQ,Alfreton ,Derbyshire,01773 602039,NA,NA,https://gateinnswanwick.co.uk,"Pubs, Bars",NA,"Pubs, Bars",NA,"Pubs, Bars",16:30 - 23:30,16:00 - 23:30,12:00 - 24:00,12:00 - 23:00,16:30 - 23:30,16:30 - 23:30,16:30 - 23:30,https://api.scraperapi.com/?url=https%3A%2F%2Falfreton.cylex-uk.co.uk%2Fcompany%2Fthe-gate-inn-13104044.html&api_key=adc3d866682a18dad67c04d3bcbc7f1c&scraper_sdk=python
The Hawthorns,"Alfreton Road, ",DE55 2AS,Alfreton ,Derbyshire,01773 811328,NA,NA,http://www.hawthornssouthnormantonpub.co.uk,"Pubs, Bars",NA,"Pubs, Bars",NA,"Pubs, Bars",12:00 - 23:00,12:00 - 24:00,12:00 - 24:00,12:00 - 23:00,12:00 - 23:00,12:00 - 23:00,12:00 - 23:00,https://api.scraperapi.com/?url=https%3A%2F%2Falfreton.cylex-uk.co.uk%2Fcompany%2Fthe-hawthorns-13207914.html&api_key=adc3d866682a18dad67c04d3bcbc7f1c&scraper_sdk=python
Bargain Booze,Alferton,DE55 7BQ,Alfreton ,Derbyshire England,NA,NA,NA,www.bargainbooze.co.uk,Wine Suppliers,NA,Wine Suppliers,NA,NA,NA,NA,NA,NA,NA,NA,NA,https://api.scraperapi.com/?url=https%3A%2F%2Falfreton.cylex-uk.co.uk%2Fcompany%2Fbargain-booze-24884404.html&api_key=adc3d866682a18dad67c04d3bcbc7f1c&scraper_sdk=python
Lidl,18 Mansfield Road ,DE55 7JJ,Alfreton ,Derbyshire England,+44 370 444 1638,+44 800 977 7766,NA,www.lidl.co.uk,"Supermarkets, Lidl, Bakery, Greengrocers, Discount, Fresh, Foods, middle of lidl, Fruit Veg, Batt, Meat Poultry, Suzuki Ignis","Supermarkets, Lidl, Bakery, Greengrocers, Discount, Fresh, Foods, middle of lidl, Fruit Veg, Batt, Meat Poultry, Suzuki Ignis","Supermarkets, Lidl, Bakery, Greengrocers, Discount, Fresh, Foods, middle of lidl, Fruit Veg, Batt, Meat Poultry, Suzuki Ignis",NA,"Supermarkets, Lidl, Bakery, Greengrocers, Discount, Fresh, Foods, middle of lidl, Fruit Veg, Batt, Meat Poultry, Suzuki Ignis",08:00 - 22:00,08:00 - 22:00,08:00 - 22:00,10:00 - 16:00,08:00 - 22:00,08:00 - 22:00,08:00 - 22:00,https://api.scraperapi.com/?url=https%3A%2F%2Falfreton.cylex-uk.co.uk%2Fcompany%2Flidl-19277683.html&api_key=adc3d866682a18dad67c04d3bcbc7f1c&scraper_sdk=python
One Stop Convenience Store,141-143 Nottingham Road ,DE55 7FL,Alfreton ,Derbyshire England,01773 834197,NA,NA,www.onestop.co.uk,"Convenience Store, Retailers, Households, Fairies, Lay, Kellogg, Okane, The Red Bull","Convenience Store, Retailers, Households, Fairies, Lay, Kellogg, Okane, The Red Bull","Convenience Store, Retailers, Households, Fairies, Lay, Kellogg, Okane, The Red Bull","Convenience Store, Retailers, Households, Fairies, Lay, Kellogg, Okane, The Red Bull",NA,06:00 - 22:00,06:00 - 22:00,06:00 - 22:00,06:00 - 22:00,06:00 - 22:00,06:00 - 22:00,06:00 - 22:00,https://api.scraperapi.com/?url=https%3A%2F%2Falfreton.cylex-uk.co.uk%2Fcompany%2Fone-stop-convenience-store-19269293.html&api_key=adc3d866682a18dad67c04d3bcbc7f1c&scraper_sdk=python
Bargain Booze,12 Institute Lane ,DE55 7BQ,Alfreton ,Derbyshire England,NA,NA,NA,www.bargainbooze.co.uk,Wine Suppliers,NA,Wine Suppliers,NA,NA,NA,NA,NA,NA,NA,NA,NA,https://api.scraperapi.com/?url=https%3A%2F%2Falfreton.cylex-uk.co.uk%2Fcompany%2Fbargain-booze-26211189.html&api_key=adc3d866682a18dad67c04d3bcbc7f1c&scraper_sdk=python
Blueys Aussie Bar and Bistro,32 Nottingham Rd ,DE55 7HL,Alfreton ,Derbyshire England,01773 689106,NA,NA,www.blueys.org.uk,"Australian Wines, Christmas Menu, Bistro Menu, Australian Beer, Steak House Restaurant",NA,"Australian Wines, Christmas Menu, Bistro Menu, Australian Beer, Steak House Restaurant",NA,NA,12:00 - 24:00,12:00 - 24:00,12:00 - 24:00,12:00 - 24:00,12:00 - 24:00,12:00 - 24:00,12:00 - 24:00,https://api.scraperapi.com/?url=https%3A%2F%2Falfreton.cylex-uk.co.uk%2Fcompany%2Fblueys-aussie-bar-and-bistro-22976976.html&api_key=adc3d866682a18dad67c04d3bcbc7f1c&scraper_sdk=python
The Co-operative Food - Somercotes,"Market Place, ",DE55 4HT,Alfreton ,Derbyshire,01773 602980,NA,NA,https://stores.centralengland.coop/the-co-operative-food-somercotes-1bb7f987d75f,"Grocery Stores, Coffee Vending Machines, Co Op, Cooperative","Grocery Stores, Coffee Vending Machines, Co Op, Cooperative","Grocery Stores, Coffee Vending Machines, Co Op, Cooperative",NA,"Grocery Stores, Coffee Vending Machines, Co Op, Cooperative",07:00 - 22:00,07:00 - 22:00,07:00 - 22:00,07:00 - 22:00,07:00 - 22:00,07:00 - 22:00,07:00 - 22:00,https://api.scraperapi.com/?url=https%3A%2F%2Falfreton.cylex-uk.co.uk%2Fcompany%2Fthe-co-operative-food---somercotes-23822469.html&api_key=adc3d866682a18dad67c04d3bcbc7f1c&scraper_sdk=python
"The Co-operative Food & Petrol - Nottingham Road, Alfreton",Nottingham Road ,DE55 7GR,Alfreton ,Derbyshire England,01773 521723,NA,NA,https://stores.centralengland.coop/the-co-operative-food-and-petrol-nottingham-road-alfreton-0af40c9,"Grocery Stores, Coffee Vending Machines, Co Op, Cooperative","Grocery Stores, Coffee Vending Machines, Co Op, Cooperative","Grocery Stores, Coffee Vending Machines, Co Op, Cooperative",NA,"Grocery Stores, Coffee Vending Machines, Co Op, Cooperative",07:00 - 22:00,07:00 - 22:00,07:00 - 22:00,07:00 - 22:00,07:00 - 22:00,07:00 - 22:00,07:00 - 22:00,https://api.scraperapi.com/?url=https%3A%2F%2Falfreton.cylex-uk.co.uk%2Fcompany%2Fthe-co-operative-food---petrol---nottingham-road--alfreton-23822269.html&api_key=adc3d866682a18dad67c04d3bcbc7f1c&scraper_sdk=python
The Co-operative Food - Leabrooks,1 Swanwick Road ,DE55 1LJ,Alfreton ,Derbyshire,01773 526500,NA,NA,https://stores.centralengland.coop/the-co-operative-food-leabrooks-d017409bc209,"Grocery Stores, Coffee Vending Machines, Co Op, Cooperative","Grocery Stores, Coffee Vending Machines, Co Op, Cooperative","Grocery Stores, Coffee Vending Machines, Co Op, Cooperative",NA,"Grocery Stores, Coffee Vending Machines, Co Op, Cooperative",07:00 - 22:00,07:00 - 22:00,07:00 - 22:00,08:00 - 22:00,07:00 - 22:00,07:00 - 22:00,07:00 - 22:00,https://api.scraperapi.com/?url=https%3A%2F%2Falfreton.cylex-uk.co.uk%2Fcompany%2Fthe-co-operative-food---leabrooks-23822272.html&api_key=adc3d866682a18dad67c04d3bcbc7f1c&scraper_sdk=python
Vodafone,158 Merlin Road,BS34 5DG,Bristol ,,0333 304 0191,NA,NA,https://www.vodafone.co.uk/,NA,NA,NA,NA,"Vodafone, Cell Phone Store, Cell Phone Accessory Store, Telecommunications Service Provider, Telephone Company, Mobile Phone Accessory Shops",09:30 - 21:00,09:30 - 21:00,09:00 - 20:00,10:00 - 17:00,09:30 - 20:00,09:30 - 20:00,09:30 - 20:00,https://api.scraperapi.com/?url=https%3A%2F%2Fbristol.cylex-uk.co.uk%2Fcompany%2Fvodafone-23722073.html&api_key=adc3d866682a18dad67c04d3bcbc7f1c&scraper_sdk=python
O2 Broadband and Telecommunication,"UNIT 62 THE MALL, CRIBBS CAUSEWAY ",BS34 5DG,Patchway ,Gloucestershire England,0117 959 4628,NA,NA,www.o2.co.uk,NA,NA,Telecommunication Services,NA,NA,09:30 - 21:00,09:30 - 21:00,09:00 - 20:00,11:00 - 17:00,09:30 - 21:00,09:30 - 21:00,09:30 - 21:00,https://api.scraperapi.com/?url=https%3A%2F%2Fpatchway.cylex-uk.co.uk%2Fcompany%2Fo2-broadband-and-telecommunication-23659028.html&api_key=adc3d866682a18dad67c04d3bcbc7f1c&scraper_sdk=python
Rg IT Services Ltd,27 LINDEN DRIVE ,BS32 8DT,Bradley Stoke ,Gloucestershire England,NA,NA,NA,,NA,NA,"IT Services, Personal Services, Telecommunication Services, Management Consultants, IT Consultants, Wireless Telecommunications, Business Consultants",NA,NA,NA,NA,NA,NA,NA,NA,NA,https://api.scraperapi.com/?url=https%3A%2F%2Fbradley-stoke.cylex-uk.co.uk%2Fcompany%2Frg-it-services-ltd-22798072.html&api_key=adc3d866682a18dad67c04d3bcbc7f1c&scraper_sdk=python
WESSEX VOICE AND DATA LIMITED,42 Gloucester Road ,BS35 3RT,Rudgeway ,Gloucestershire England,NA,NA,NA,,NA,NA,"Telecommunication Services, Wireless Telecommunications, Wired Telecommunications, IT Services, Computer Services",NA,NA,NA,NA,NA,NA,NA,NA,NA,https://api.scraperapi.com/?url=https%3A%2F%2Frudgeway.cylex-uk.co.uk%2Fcompany%2Fwessex-voice-and-data-limited-25276596.html&api_key=adc3d866682a18dad67c04d3bcbc7f1c&scraper_sdk=python
ALTU TECHNOLOGY LIMITED,Unit 17,BS32 4JT,Bradley Stoke ,Gloucestershire England,NA,NA,NA,,NA,NA,"Telecommunication Services, Electronics Manufacturer, Communication Equipment Manufacturers",NA,NA,NA,NA,NA,NA,NA,NA,NA,https://api.scraperapi.com/?url=https%3A%2F%2Fbradley-stoke.cylex-uk.co.uk%2Fcompany%2Faltu-technology-limited-23991197.html&api_key=adc3d866682a18dad67c04d3bcbc7f1c&scraper_sdk=python
4 Voice And Data Limited,"8 Crofters Walk, Bradley Stoke, Bristol ",BS32 9BH,Bradley Stoke ,Gloucestershire England,07925 666124,NA,NA,www.datasim.global,NA,NA,"Telecommunication Services, Wireless Telecommunications, Telecommunication Consultants",NA,NA,NA,NA,NA,NA,NA,NA,NA,https://api.scraperapi.com/?url=https%3A%2F%2Fbradley-stoke.cylex-uk.co.uk%2Fcompany%2F4-voice-and-data-limited-22258988.html&api_key=adc3d866682a18dad67c04d3bcbc7f1c&scraper_sdk=python
O2 Broadband and Telecommunication - Bradley Stoke,"Unit Muu 6C, Willow Brook Centre ",BS32 8EF,Bradley Stoke ,Gloucestershire England,01454 201112,NA,NA,www.o2.co.uk,"Telecommunication Services, Data Mobile","Telecommunication Services, Data Mobile","Telecommunication Services, Data Mobile","Telecommunication Services, Data Mobile",NA,10:00 - 17:00,10:00 - 19:00,09:00 - 17:30,10:00 - 16:00,10:00 - 19:00,09:00 - 16:00,10:00 - 17:00,https://api.scraperapi.com/?url=https%3A%2F%2Fbradley-stoke.cylex-uk.co.uk%2Fcompany%2Fo2-broadband-and-telecommunication---bradley-stoke-19278658.html&api_key=adc3d866682a18dad67c04d3bcbc7f1c&scraper_sdk=python
COFFEY COMMS LTD,4 Orchard Close ,BS32 4JN,Almondsbury ,Gloucestershire England,NA,NA,NA,,NA,NA,Telecommunication Services,NA,NA,NA,NA,NA,NA,NA,NA,NA,https://api.scraperapi.com/?url=https%3A%2F%2Falmondsbury.cylex-uk.co.uk%2Fcompany%2Fcoffey-comms-ltd-24230584.html&api_key=adc3d866682a18dad67c04d3bcbc7f1c&scraper_sdk=python
Amil Comms,"130 Aztec West, ",BS32 4UB,Bristol ,City Of Bristol England,01454 629681,0333 939 8509,NA,,NA,NA,NA,NA,"Telecommunications Service Provider, Cell Phone Accessory Store, Mobile Phone Accessory Shops",09:00 - 17:00,09:00 - 17:00,Closed,Closed,09:00 - 17:00,09:00 - 17:00,09:00 - 17:00,https://api.scraperapi.com/?url=https%3A%2F%2Fbristol.cylex-uk.co.uk%2Fcompany%2Famil-comms-26411003.html&api_key=adc3d866682a18dad67c04d3bcbc7f1c&scraper_sdk=python
KAF TELECOM LTD,2430/2440 The Quadrant Aztec West ,BS32 4AQ,Almondsbury ,Gloucestershire England,NA,NA,NA,,NA,NA,"Telecommunication Services, Wireless Telecommunications",NA,NA,NA,NA,NA,NA,NA,NA,NA,https://api.scraperapi.com/?url=https%3A%2F%2Falmondsbury.cylex-uk.co.uk%2Fcompany%2Fkaf-telecom-ltd-24615915.html&api_key=adc3d866682a18dad67c04d3bcbc7f1c&scraper_sdk=python
Crowthorne Associates Limited,Great Park Road,BS32 4QL,Bristol ,City Of Bristol England,020 7870 7000,0870 300 7000,0845 634 7000,crowthorne.com,NA,NA,Telecommunication Services,NA,NA,NA,NA,NA,NA,NA,NA,NA,https://api.scraperapi.com/?url=https%3A%2F%2Fbristol.cylex-uk.co.uk%2Fcompany%2Fcrowthorne-associates-limited-20290074.html&api_key=adc3d866682a18dad67c04d3bcbc7f1c&scraper_sdk=python
Calcom Holdings Ltd,THE GRANARY HORTHAM FARM HORTHAM LANE ,BS32 4JW,Almondsbury ,Gloucestershire England,01454 610 050,01275 341 740,NA,,NA,NA,"Telecommunication Services, Wireless Telecommunications, Telecommunications",NA,NA,NA,NA,NA,NA,NA,NA,NA,https://api.scraperapi.com/?url=https%3A%2F%2Falmondsbury.cylex-uk.co.uk%2Fcompany%2Fcalcom-holdings-ltd-19816104.html&api_key=adc3d866682a18dad67c04d3bcbc7f1c&scraper_sdk=python
Projex Cellular Infrastructure UK Limited,2430/2440 AZTEC WEST ,BS32 4AQ,Almondsbury ,Gloucestershire England,0117 223 2341,NA,NA,www.projexci.com,NA,NA,"Telecommunication Services, Wireless Telecommunications",NA,NA,NA,NA,NA,NA,NA,NA,NA,https://api.scraperapi.com/?url=https%3A%2F%2Falmondsbury.cylex-uk.co.uk%2Fcompany%2Fprojex-cellular-infrastructure-uk-limited-22772821.html&api_key=adc3d866682a18dad67c04d3bcbc7f1c&scraper_sdk=python
D2 Men & Women,2 BRIDGEGATE ,KA12 8BQ,Irvine ,North Ayrshire Scotland,01294 275174,NA,NA,,"Fashion Shop, Clothes, Women's Clothing, Fashion Industry, Fashion Boutique, Clothes Shopping, Fashionable Clothing, Ladies Clothing, Fashion Clothing, Women's Clothes, Clothing Shops, Men's Clothes, Skinny Jeans, Loose Jeans, Girls Jeans, Bootcut Jeans, Slim Jeans, Men's Jeans, Fashion Retailers, Women's Jeans, Vogue, Boys' Jeans, Shops, Retail, Fashion, Stores, Cheap, Online, Trends, Instyle",NA,"Fashion Shop, Clothes, Women's Clothing, Fashion Industry, Fashion Boutique, Clothes Shopping, Fashionable Clothing, Ladies Clothing, Fashion Clothing, Women's Clothes, Clothing Shops, Men's Clothes, Skinny Jeans, Loose Jeans, Girls Jeans, Bootcut Jeans, Slim Jeans, Men's Jeans, Fashion Retailers, Women's Jeans, Vogue, Boys' Jeans, Shops, Retail, Fashion, Stores, Cheap, Online, Trends, Instyle",NA,NA,NA,NA,NA,NA,NA,NA,NA,https://api.scraperapi.com/?url=https%3A%2F%2Firvine.cylex-uk.co.uk%2Fcompany%2Fd2-men---women-17122507.html&api_key=adc3d866682a18dad67c04d3bcbc7f1c&scraper_sdk=python
The Salvation Army Ayr,59 John Street ,KA8 0BS,Ayr ,South Ayrshire Scotland,01292 269286,NA,NA,www.salvationarmy.org.uk,NA,NA,Charity Organisations,NA,NA,09:00 - 17:00,09:00 - 17:00,Closed,10:45 - 12:00,09:00 - 17:00,09:00 - 17:00,09:00 - 17:00,https://api.scraperapi.com/?url=https%3A%2F%2Fayr-south-ayrshire.cylex-uk.co.uk%2Fcompany%2Fthe-salvation-army-ayr-17138272.html&api_key=adc3d866682a18dad67c04d3bcbc7f1c&scraper_sdk=python
VASA,60 Kyle St ,KA7 1RZ,Ayr ,South Ayrshire Scotland,01292 262226,NA,NA,,NA,NA,"Volunteering, Volunteer, Social Enterprise, Befriending, footcAyr, information and advice hub for community organisations",NA,NA,09:00 - 16:00,09:00 - 16:00,Closed,Closed,09:00 - 16:00,09:00 - 16:00,09:00 - 16:00,https://api.scraperapi.com/?url=https%3A%2F%2Fayr-south-ayrshire.cylex-uk.co.uk%2Fcompany%2Fvasa-20052421.html&api_key=adc3d866682a18dad67c04d3bcbc7f1c&scraper_sdk=python
Carpetright,"Queen's Drive Retail Park, ",KA1 3XF,Kilmarnock ,East Ayrshire Scotland,01563 599039,NA,NA,https://stores.carpetright.co.uk/kilmarnock,NA,NA,"Carpet Stores, Rug Shops, Mattress Shops",NA,"Carpet Stores, Rug Shops, Mattress Shops",09:30 - 20:00,09:30 - 18:00,09:00 - 18:00,10:00 - 17:00,09:30 - 18:00,09:30 - 20:00,09:30 - 18:00,https://api.scraperapi.com/?url=https%3A%2F%2Fkilmarnock.cylex-uk.co.uk%2Fcompany%2Fcarpetright-26930664.html&api_key=adc3d866682a18dad67c04d3bcbc7f1c&scraper_sdk=python
PC & Home Electronic Repairs,43 Ashgrove Street ,KA7 3BG,Ayr ,South Ayrshire Scotland,01292 268931,07892 941088,NA,,"Virus Removal, Electronics, Computers, Laptops, Samsung, Monitors, Plasma, Screens, Sky, LCD, Upgrade, Ayr, Hi-Fi, Repaired, Soldering, Screen Replacement, Ayrshire, Troon, Debug, Prestwick, Dc Jack, Faulty, Power Socket, PC & Home Electronic Repairs","Virus Removal, Electronics, Computers, Laptops, Samsung, Monitors, Plasma, Screens, Sky, LCD, Upgrade, Ayr, Hi-Fi, Repaired, Soldering, Screen Replacement, Ayrshire, Troon, Debug, Prestwick, Dc Jack, Faulty, Power Socket, PC & Home Electronic Repairs","Virus Removal, Electronics, Computers, Laptops, Samsung, Monitors, Plasma, Screens, Sky, LCD, Upgrade, Ayr, Hi-Fi, Repaired, Soldering, Screen Replacement, Ayrshire, Troon, Debug, Prestwick, Dc Jack, Faulty, Power Socket, PC & Home Electronic Repairs",NA,NA,08:00 - 18:00,08:00 - 18:00,Closed,Closed,08:00 - 18:00,08:00 - 18:00,08:00 - 18:00,https://api.scraperapi.com/?url=https%3A%2F%2Fayr-south-ayrshire.cylex-uk.co.uk%2Fcompany%2Fpc---home-electronic-repairs-19348235.html&api_key=adc3d866682a18dad67c04d3bcbc7f1c&scraper_sdk=python
Heathfield Stores,67 HEATHFIELD ROAD ,KA8 9DU,Ayr ,South Ayrshire Scotland,0129 228 2364,NA,NA,www.heathfield.sayr.sch.uk,NA,NA,"Village Shop, General Store, High Street Shopping",NA,NA,NA,NA,NA,NA,NA,NA,NA,https://api.scraperapi.com/?url=https%3A%2F%2Fayr-south-ayrshire.cylex-uk.co.uk%2Fcompany%2Fheathfield-stores-18687443.html&api_key=adc3d866682a18dad67c04d3bcbc7f1c&scraper_sdk=python
Gilfoot Stores,125-126 GILFOOT ,KA16 9HX,Newmilns ,East Ayrshire Scotland,0156 032 2822,NA,NA,,NA,NA,Village Shop,NA,NA,NA,NA,NA,NA,NA,NA,NA,https://api.scraperapi.com/?url=https%3A%2F%2Fnewmilns.cylex-uk.co.uk%2Fcompany%2Fgilfoot-stores-18622995.html&api_key=adc3d866682a18dad67c04d3bcbc7f1c&scraper_sdk=python
Bill & Davina Kerr,9 WEST MAIN STREET ,KA17 0DX,Darvel ,East Ayrshire Scotland,0156 032 0456,NA,NA,,NA,NA,"General Store, Retailers",NA,NA,NA,NA,NA,NA,NA,NA,NA,https://api.scraperapi.com/?url=https%3A%2F%2Fdarvel.cylex-uk.co.uk%2Fcompany%2Fbill---davina-kerr-18657747.html&api_key=adc3d866682a18dad67c04d3bcbc7f1c&scraper_sdk=python
County Vets,69 Heathfield Road ,KA8 9DU,Ayr ,South Ayrshire Scotland,01292 880110,NA,NA,www.county-vets.co.uk,NA,NA,NA,NA,NA,09:30 - 18:30,09:30 - 18:30,09:00 - 13:00,Closed,09:30 - 18:30,09:30 - 18:30,09:30 - 18:30,https://api.scraperapi.com/?url=https%3A%2F%2Fayr-south-ayrshire.cylex-uk.co.uk%2Fcompany%2Fcounty-vets-26403197.html&api_key=adc3d866682a18dad67c04d3bcbc7f1c&scraper_sdk=python
Pound King,145 MAIN STREET ,KA13 6EQ,Kilwinning ,North Ayrshire Scotland,0129 455 7816,NA,NA,,NA,NA,"Village Shop, General Store, High Street Shopping",NA,NA,NA,NA,NA,NA,NA,NA,NA,https://api.scraperapi.com/?url=https%3A%2F%2Fkilwinning.cylex-uk.co.uk%2Fcompany%2Fpound-king-18635779.html&api_key=adc3d866682a18dad67c04d3bcbc7f1c&scraper_sdk=python
Globe-Sec Consultancy,138 Riverside Pl ,KA8 0EB,Ayr ,South Ayrshire Scotland,07943 222066,NA,NA,www.globesecconsultancy.com,NA,"Detective Agency, Private Investigator, Insurance Investigation, Witness Statement, Fraud Investigations","Detective Agency, Private Investigator, Insurance Investigation, Witness Statement, Fraud Investigations",NA,NA,Open 24 Hours,Open 24 Hours,Open 24 Hours,Open 24 Hours,Open 24 Hours,Open 24 Hours,Open 24 Hours,https://api.scraperapi.com/?url=https%3A%2F%2Fayr-south-ayrshire.cylex-uk.co.uk%2Fcompany%2Fglobe-sec-consultancy-23916388.html&api_key=adc3d866682a18dad67c04d3bcbc7f1c&scraper_sdk=python
M&M Ritchie Ltd,9 Vennel Street ,KA3 5HL,Stewarton ,East Ayrshire Scotland,NA,NA,NA,,NA,NA,"Television Programme Production, Video and Television Production, Business Support",NA,NA,NA,NA,NA,NA,NA,NA,NA,https://api.scraperapi.com/?url=https%3A%2F%2Fstewarton-east-ayrshire.cylex-uk.co.uk%2Fcompany%2Fm-m-ritchie-ltd-22656138.html&api_key=adc3d866682a18dad67c04d3bcbc7f1c&scraper_sdk=python
Mercedes-Benz of Ayr,High Road ,KA8 0LL,Ayr ,South Ayrshire Scotland,01292 293600,NA,NA,https://www.stratstone.com/dealers/mercedes-benz-of-ayr/,"Car Dealers, Mercedes-Benz dealership, Truck Dealers, Mercedes Dealership, Mercedes Benz MOT","Car Dealers, Mercedes-Benz dealership, Truck Dealers, Mercedes Dealership, Mercedes Benz MOT","Car Dealers, Mercedes-Benz dealership, Truck Dealers, Mercedes Dealership, Mercedes Benz MOT",NA,"Car Dealers, Mercedes-Benz dealership, Truck Dealers, Mercedes Dealership, Mercedes Benz MOT",08:00 - 19:00,08:00 - 19:00,09:00 - 18:00,11:00 - 17:00,08:00 - 19:00,08:00 - 19:00,08:00 - 19:00,https://api.scraperapi.com/?url=https%3A%2F%2Fayr-south-ayrshire.cylex-uk.co.uk%2Fcompany%2Fmercedes-benz-of-ayr-17175396.html&api_key=adc3d866682a18dad67c04d3bcbc7f1c&scraper_sdk=python
Timpson Mobile Locksmiths - Ayr,117 High Street ,KA7 1QL,Ayr ,South Ayrshire Scotland,01292 737401,NA,NA,www.timpsonlocksmiths.co.uk,uPVC Specialists,uPVC Specialists,uPVC Specialists,NA,uPVC Specialists,NA,NA,NA,NA,NA,NA,NA,https://api.scraperapi.com/?url=https%3A%2F%2Fayr-south-ayrshire.cylex-uk.co.uk%2Fcompany%2Ftimpson-mobile-locksmiths---ayr-17115392.html&api_key=adc3d866682a18dad67c04d3bcbc7f1c&scraper_sdk=python
Tommy Calder,52 Walker Road ,KA8 9LD,Ayr ,South Ayrshire Scotland,01292 285523,07836 768692,NA,www.tommycalder.co.uk,"Water Leak, uPVC Trims, Frame Alignment, Silicone Sealent","Water Leak, uPVC Trims, Frame Alignment, Silicone Sealent","Water Leak, uPVC Trims, Frame Alignment, Silicone Sealent",NA,"Water Leak, uPVC Trims, Frame Alignment, Silicone Sealent",09:00 - 16:30,09:00 - 16:30,09:00 - 13:30,09:00 - 13:30,09:00 - 16:30,09:00 - 16:30,09:00 - 16:30,https://api.scraperapi.com/?url=https%3A%2F%2Fayr-south-ayrshire.cylex-uk.co.uk%2Fcompany%2Ftommy-calder-17046453.html&api_key=adc3d866682a18dad67c04d3bcbc7f1c&scraper_sdk=python
Ingram Motoring Group Ltd.,28 Low Rd ,KA8 9SD,Ayr ,South Ayrshire Scotland,01292 269522,01292 877943,01292 610227,www.driveingram.com,"Car Dealers, Official Dealership","Car Dealers, Official Dealership","Car Dealers, Official Dealership","Car Dealers, Official Dealership","Car Dealers, Official Dealership",08:00 - 18:00,08:00 - 18:00,08:30 - 13:00,Closed,08:00 - 18:00,08:00 - 18:00,08:00 - 18:00,https://api.scraperapi.com/?url=https%3A%2F%2Fayr-south-ayrshire.cylex-uk.co.uk%2Fcompany%2Fingram-motoring-group-ltd--17258801.html&api_key=adc3d866682a18dad67c04d3bcbc7f1c&scraper_sdk=python
Upvc Door Co,North Harbour Trading Estate ,KA8 8BN,Ayr ,South Ayrshire Scotland,01292 293940,01292 293939,NA,www.upvccompany.co.uk,"Roofline, Canopy, The uPVC Company",NA,"Roofline, Canopy, The uPVC Company",NA,NA,NA,NA,NA,NA,NA,NA,NA,https://api.scraperapi.com/?url=https%3A%2F%2Fayr-south-ayrshire.cylex-uk.co.uk%2Fcompany%2Fupvc-door-co-17046462.html&api_key=adc3d866682a18dad67c04d3bcbc7f1c&scraper_sdk=python
SKODA AUTO,2 OLD BRIDGE ROAD ,KA8 9SX,Ayr ,South Ayrshire Scotland,01292 294444,01292 877946,01292 877944,www.driveingram.com,Car Dealers,Car Dealers,Car Dealers,NA,Car Dealers,08:00 - 18:00,08:00 - 18:00,09:00 - 17:00,12:00 - 17:00,08:00 - 18:00,08:00 - 18:00,08:00 - 18:00,https://api.scraperapi.com/?url=https%3A%2F%2Fayr-south-ayrshire.cylex-uk.co.uk%2Fcompany%2Fskoda-auto-19858185.html&api_key=adc3d866682a18dad67c04d3bcbc7f1c&scraper_sdk=python
Weatherseal Holdings,"28, Sandgate ",KA7 1BW,Ayr ,South Ayrshire Scotland,01292 265262,01292 265252,NA,www.weatherseal.co.uk,"Windows Doors and Conservatories, Double Glazing & Windows Installation",NA,"Windows Doors and Conservatories, Double Glazing & Windows Installation",NA,NA,NA,NA,NA,NA,NA,NA,NA,https://api.scraperapi.com/?url=https%3A%2F%2Fayr-south-ayrshire.cylex-uk.co.uk%2Fcompany%2Fweatherseal-holdings-17016656.html&api_key=adc3d866682a18dad67c04d3bcbc7f1c&scraper_sdk=python
AUTO CARS PRESTWICK LTD,24 Beresford Terrace ,KA7 2EG,Ayr ,South Ayrshire Scotland,NA,NA,NA,,NA,NA,Car Dealers,NA,Car Dealers,NA,NA,NA,NA,NA,NA,NA,https://api.scraperapi.com/?url=https%3A%2F%2Fayr-south-ayrshire.cylex-uk.co.uk%2Fcompany%2Fauto-cars-prestwick-ltd-24079247.html&api_key=adc3d866682a18dad67c04d3bcbc7f1c&scraper_sdk=python
Highland Country Homes (Scotland) Limited,"NEWARKHILL FARM HOUSE, NEWARK ",KA7 4ED,Ayr ,South Ayrshire Scotland,NA,NA,NA,,NA,NA,Property Developers,NA,Property Developers,NA,NA,NA,NA,NA,NA,NA,https://api.scraperapi.com/?url=https%3A%2F%2Fayr-south-ayrshire.cylex-uk.co.uk%2Fcompany%2Fhighland-country-homes--scotland--limited-22554787.html&api_key=adc3d866682a18dad67c04d3bcbc7f1c&scraper_sdk=python
Arnold Clark Ayr,"Wheat Park Place, Heathfield Ind. Est",KA8 9RT,Ayr ,South Ayrshire Scotland,01292 272500,01292 272500,NA,www.peugeot.co.uk,Car Dealers,Car Dealers,Car Dealers,NA,NA,NA,NA,NA,NA,NA,NA,NA,https://api.scraperapi.com/?url=https%3A%2F%2Fayr-south-ayrshire.cylex-uk.co.uk%2Fcompany%2Farnold-clark-ayr-25815538.html&api_key=adc3d866682a18dad67c04d3bcbc7f1c&scraper_sdk=python
Carselect1.Com Ltd.,"LAREVE, 12 AUCHENTRAE CRESCENT ",KA7 4BB,Ayr ,South Ayrshire Scotland,NA,NA,NA,,NA,NA,NA,NA,"Used Car Dealers, Used Car Sales",NA,NA,NA,NA,NA,NA,NA,https://api.scraperapi.com/?url=https%3A%2F%2Fayr-south-ayrshire.cylex-uk.co.uk%2Fcompany%2Fcarselect1-com-ltd--22375446.html&api_key=adc3d866682a18dad67c04d3bcbc7f1c&scraper_sdk=python
Woodside Equestrian Services Limited,31 Donnini Court ,KA7 1JP,Ayr ,South Ayrshire Scotland,NA,NA,NA,,NA,NA,Equestrian Centre,NA,NA,NA,NA,NA,NA,NA,NA,NA,https://api.scraperapi.com/?url=https%3A%2F%2Fayr-south-ayrshire.cylex-uk.co.uk%2Fcompany%2Fwoodside-equestrian-services-limited-20951246.html&api_key=adc3d866682a18dad67c04d3bcbc7f1c&scraper_sdk=python
Crawfords K9,9A HOLMSTON ROAD ,KA7 3BE,Ayr ,South Ayrshire Scotland,01292 618843,01494 448153,NA,,NA,Animal Specialty Services Except Veterinary,Animal Specialty Services Except Veterinary,NA,Animal Specialty Services Except Veterinary,NA,NA,NA,NA,NA,NA,NA,https://api.scraperapi.com/?url=https%3A%2F%2Fayr-south-ayrshire.cylex-uk.co.uk%2Fcompany%2Fcrawfords-k9-17119649.html&api_key=adc3d866682a18dad67c04d3bcbc7f1c&scraper_sdk=python
BRING IT VEHICLE COLLECTION AND DELIVERY SERVICES LIMITED,90 Longhill Avenue ,KA7 4DF,Ayr ,South Ayrshire Scotland,NA,NA,NA,,NA,NA,NA,NA,Used Car Dealers,NA,NA,NA,NA,NA,NA,NA,https://api.scraperapi.com/?url=https%3A%2F%2Fayr-south-ayrshire.cylex-uk.co.uk%2Fcompany%2Fbring-it-vehicle-collection-and-delivery-services-limited-24152482.html&api_key=adc3d866682a18dad67c04d3bcbc7f1c&scraper_sdk=python
CROFT CLASSICS (UK) LIMITED,30 Miller Road ,KA7 2AY,Ayr ,South Ayrshire Scotland,NA,NA,NA,,NA,NA,NA,NA,Used Car Dealers,NA,NA,NA,NA,NA,NA,NA,https://api.scraperapi.com/?url=https%3A%2F%2Fayr-south-ayrshire.cylex-uk.co.uk%2Fcompany%2Fcroft-classics--uk--limited-24257899.html&api_key=adc3d866682a18dad67c04d3bcbc7f1c&scraper_sdk=python
Lomond Motors Limited AYR,3 High Thornyflat Wynd ,KA8 0LS,Ayr ,South Ayrshire Scotland,0844 947 3626,NA,NA,www.lookers.co.uk/audi,Audi Dealer,NA,Audi Dealer,NA,NA,NA,NA,NA,NA,NA,NA,NA,https://api.scraperapi.com/?url=https%3A%2F%2Fayr-south-ayrshire.cylex-uk.co.uk%2Fcompany%2Flomond-motors-limited-ayr-23472034.html&api_key=adc3d866682a18dad67c04d3bcbc7f1c&scraper_sdk=python
Park's Ayr,100 Heathfield Rd ,KA8 9BN,Ayr ,South Ayrshire Scotland,01292 613000,01292 653100,01292 266911,www.parks.uk.com,"Car Dealers, New Car Sales, Volvo Dealers, Services, Sales, Genuine Parts, Volvo Car Sales","Car Dealers, New Car Sales, Volvo Dealers, Services, Sales, Genuine Parts, Volvo Car Sales","Car Dealers, New Car Sales, Volvo Dealers, Services, Sales, Genuine Parts, Volvo Car Sales",NA,NA,09:00 - 19:00,09:00 - 18:00,09:00 - 17:00,11:00 - 17:00,09:00 - 19:00,09:00 - 19:00,09:00 - 19:00,https://api.scraperapi.com/?url=https%3A%2F%2Fayr-south-ayrshire.cylex-uk.co.uk%2Fcompany%2Fpark%2527s-ayr-17176012.html&api_key=adc3d866682a18dad67c04d3bcbc7f1c&scraper_sdk=python
